<?xml version='1.0' encoding='utf-8'?>
<gpx version="1.1" creator="OpenTrack rally2gpx source authoring" xmlns="http://www.topografix.com/GPX/1/1"><metadata><name>SS 3+7 - Amboy - Yacanto</name><link href="https://www.rally-maps.com/Rally-Argentina-2019" /><desc>Complete source route; Rally-Maps spline tangents expanded before GPX export. No source elevation is supplied.</desc></metadata><trk><trkseg><trkpt lat="-32.156331262" lon="-64.573296905" /><trkpt lat="-32.156819473" lon="-64.573610723" /><trkpt lat="-32.157028381" lon="-64.573704600" /><trkpt lat="-32.157262267" lon="-64.573771656" /><trkpt lat="-32.157602876" lon="-64.573846757" /><trkpt lat="-32.158084268" lon="-64.573972821" /><trkpt lat="-32.158595177" lon="-64.574069381" /><trkpt lat="-32.158842683" lon="-64.574141800" /><trkpt lat="-32.159003902" lon="-64.574227631" /><trkpt lat="-32.159106083" lon="-64.574334919" /><trkpt lat="-32.159181016" lon="-64.574450254" /><trkpt lat="-32.159258219" lon="-64.574629962" /><trkpt lat="-32.159346776" lon="-64.574876726" /><trkpt lat="-32.159433061" lon="-64.575051069" /><trkpt lat="-32.159514806" lon="-64.575142264" /><trkpt lat="-32.159607903" lon="-64.575190544" /><trkpt lat="-32.159701001" lon="-64.575217366" /><trkpt lat="-32.159939421" lon="-64.575236142" /><trkpt lat="-32.160148322" lon="-64.575217366" /><trkpt lat="-32.160432154" lon="-64.575203955" /><trkpt lat="-32.160695550" lon="-64.575206637" /><trkpt lat="-32.160961215" lon="-64.575228095" /><trkpt lat="-32.161149678" lon="-64.575279057" /><trkpt lat="-32.161365388" lon="-64.575340748" /><trkpt lat="-32.161606075" lon="-64.575415850" /><trkpt lat="-32.161701441" lon="-64.575458765" /><trkpt lat="-32.161765018" lon="-64.575496316" /><trkpt lat="-32.161792266" lon="-64.575549960" /><trkpt lat="-32.161801348" lon="-64.575590193" /><trkpt lat="-32.161805889" lon="-64.575641155" /><trkpt lat="-32.161796807" lon="-64.575710893" /><trkpt lat="-32.161744583" lon="-64.575847685" /><trkpt lat="-32.161637863" lon="-64.576078355" /><trkpt lat="-32.161485731" lon="-64.576408267" /><trkpt lat="-32.161351764" lon="-64.576738179" /><trkpt lat="-32.161233691" lon="-64.577105641" /><trkpt lat="-32.161163302" lon="-64.577320218" /><trkpt lat="-32.161052041" lon="-64.577612579" /><trkpt lat="-32.160870389" lon="-64.577963948" /><trkpt lat="-32.160684197" lon="-64.578379691" /><trkpt lat="-32.160579747" lon="-64.578645229" /><trkpt lat="-32.160479838" lon="-64.578977823" /><trkpt lat="-32.160384471" lon="-64.579299688" /><trkpt lat="-32.160325434" lon="-64.579543769" /><trkpt lat="-32.160259584" lon="-64.579758346" /><trkpt lat="-32.160220983" lon="-64.579862952" /><trkpt lat="-32.160161946" lon="-64.579970241" /><trkpt lat="-32.160075661" lon="-64.580123127" /><trkpt lat="-32.160016624" lon="-64.580281377" /><trkpt lat="-32.159971211" lon="-64.580434263" /><trkpt lat="-32.159939421" lon="-64.580616653" /><trkpt lat="-32.159873572" lon="-64.580911696" /><trkpt lat="-32.159821346" lon="-64.581115544" /><trkpt lat="-32.159775933" lon="-64.581356943" /><trkpt lat="-32.159730520" lon="-64.581627846" /><trkpt lat="-32.159685106" lon="-64.581847787" /><trkpt lat="-32.159651046" lon="-64.581971169" /><trkpt lat="-32.159610174" lon="-64.582067728" /><trkpt lat="-32.159532971" lon="-64.582164288" /><trkpt lat="-32.159462580" lon="-64.582234025" /><trkpt lat="-32.159368428" lon="-64.582294450" /><trkpt lat="-32.159223032" lon="-64.582415214" /><trkpt lat="-32.159095293" lon="-64.582522588" /><trkpt lat="-32.159010714" lon="-64.582598805" /><trkpt lat="-32.158951531" lon="-64.582662191" /><trkpt lat="-32.158886026" lon="-64.582738967" /><trkpt lat="-32.158818777" lon="-64.582823210" /><trkpt lat="-32.158754362" lon="-64.582908998" /><trkpt lat="-32.158697359" lon="-64.582990408" /><trkpt lat="-32.158573505" lon="-64.583172026" /><trkpt lat="-32.158346325" lon="-64.583503504" /><trkpt lat="-32.158077074" lon="-64.583896523" /><trkpt lat="-32.157827005" lon="-64.584262762" /><trkpt lat="-32.157657374" lon="-64.584513903" /><trkpt lat="-32.157492137" lon="-64.584757361" /><trkpt lat="-32.157251040" lon="-64.585108452" /><trkpt lat="-32.156989015" lon="-64.585490699" /><trkpt lat="-32.156760997" lon="-64.585827627" /><trkpt lat="-32.156621918" lon="-64.586042762" /><trkpt lat="-32.156547147" lon="-64.586171937" /><trkpt lat="-32.156474992" lon="-64.586298537" /><trkpt lat="-32.156404798" lon="-64.586417413" /><trkpt lat="-32.156335912" lon="-64.586523414" /><trkpt lat="-32.156267681" lon="-64.586611390" /><trkpt lat="-32.156203264" lon="-64.586684818" /><trkpt lat="-32.156145823" lon="-64.586755929" /><trkpt lat="-32.156094703" lon="-64.586832705" /><trkpt lat="-32.156049252" lon="-64.586923127" /><trkpt lat="-32.156008814" lon="-64.587035179" /><trkpt lat="-32.155971138" lon="-64.587157617" /><trkpt lat="-32.155934115" lon="-64.587271814" /><trkpt lat="-32.155897310" lon="-64.587374682" /><trkpt lat="-32.155860288" lon="-64.587463131" /><trkpt lat="-32.155822611" lon="-64.587534070" /><trkpt lat="-32.155779339" lon="-64.587605824" /><trkpt lat="-32.155727130" lon="-64.587697406" /><trkpt lat="-32.155667945" lon="-64.587806754" /><trkpt lat="-32.155603745" lon="-64.587931809" /><trkpt lat="-32.155536494" lon="-64.588070512" /><trkpt lat="-32.155452566" lon="-64.588234277" /><trkpt lat="-32.155347928" lon="-64.588421474" /><trkpt lat="-32.155238931" lon="-64.588610473" /><trkpt lat="-32.155141923" lon="-64.588779645" /><trkpt lat="-32.155073255" lon="-64.588907361" /><trkpt lat="-32.155015268" lon="-64.589004693" /><trkpt lat="-32.154942893" lon="-64.589097648" /><trkpt lat="-32.154861363" lon="-64.589186997" /><trkpt lat="-32.154775908" lon="-64.589273515" /><trkpt lat="-32.154691762" lon="-64.589357972" /><trkpt lat="-32.154528736" lon="-64.589520750" /><trkpt lat="-32.154246465" lon="-64.589797597" /><trkpt lat="-32.153909913" lon="-64.590122337" /><trkpt lat="-32.153584041" lon="-64.590428796" /><trkpt lat="-32.153333815" lon="-64.590650797" /><trkpt lat="-32.153129694" lon="-64.590816965" /><trkpt lat="-32.152912929" lon="-64.590992661" /><trkpt lat="-32.152704665" lon="-64.591166811" /><trkpt lat="-32.152526050" lon="-64.591328344" /><trkpt lat="-32.152398228" lon="-64.591466188" /><trkpt lat="-32.152286320" lon="-64.591611199" /><trkpt lat="-32.152153702" lon="-64.591784277" /><trkpt lat="-32.152018904" lon="-64.591959414" /><trkpt lat="-32.151900456" lon="-64.592110605" /><trkpt lat="-32.151816888" lon="-64.592211843" /><trkpt lat="-32.151748871" lon="-64.592286472" /><trkpt lat="-32.151671698" lon="-64.592369857" /><trkpt lat="-32.151595832" lon="-64.592454014" /><trkpt lat="-32.151531739" lon="-64.592530961" /><trkpt lat="-32.151489882" lon="-64.592592716" /><trkpt lat="-32.151438506" lon="-64.592659299" /><trkpt lat="-32.151405860" lon="-64.592729509" /><trkpt lat="-32.151392235" lon="-64.592807293" /><trkpt lat="-32.151396776" lon="-64.592893124" /><trkpt lat="-32.151437652" lon="-64.593054056" /><trkpt lat="-32.151494424" lon="-64.593260586" /><trkpt lat="-32.151560279" lon="-64.593547583" /><trkpt lat="-32.151653385" lon="-64.593957961" /><trkpt lat="-32.151721511" lon="-64.594172537" /><trkpt lat="-32.151828242" lon="-64.594357610" /><trkpt lat="-32.151962223" lon="-64.594545364" /><trkpt lat="-32.152098475" lon="-64.594711661" /><trkpt lat="-32.152223372" lon="-64.594851136" /><trkpt lat="-32.152309665" lon="-64.594995975" /><trkpt lat="-32.152384603" lon="-64.595181048" /><trkpt lat="-32.152448187" lon="-64.595400989" /><trkpt lat="-32.152459541" lon="-64.595545828" /><trkpt lat="-32.152439104" lon="-64.595642388" /><trkpt lat="-32.152391416" lon="-64.595736265" /><trkpt lat="-32.152309665" lon="-64.595784545" /><trkpt lat="-32.152191580" lon="-64.595800638" /><trkpt lat="-32.152059871" lon="-64.595816731" /><trkpt lat="-32.151953140" lon="-64.595854282" /><trkpt lat="-32.151882743" lon="-64.595932066" /><trkpt lat="-32.151844138" lon="-64.596017897" /><trkpt lat="-32.151841867" lon="-64.596130550" /><trkpt lat="-32.151853222" lon="-64.596235156" /><trkpt lat="-32.151844138" lon="-64.596329033" /><trkpt lat="-32.151785096" lon="-64.596409500" /><trkpt lat="-32.151714699" lon="-64.596471190" /><trkpt lat="-32.151657927" lon="-64.596570432" /><trkpt lat="-32.151598884" lon="-64.596742094" /><trkpt lat="-32.151505778" lon="-64.597098827" /><trkpt lat="-32.151469444" lon="-64.597246349" /><trkpt lat="-32.151469444" lon="-64.597369730" /><trkpt lat="-32.151501237" lon="-64.597541392" /><trkpt lat="-32.151558009" lon="-64.597745240" /><trkpt lat="-32.151617051" lon="-64.597981274" /><trkpt lat="-32.151653385" lon="-64.598104656" /><trkpt lat="-32.151719241" lon="-64.598201215" /><trkpt lat="-32.151785096" lon="-64.598265588" /><trkpt lat="-32.151844138" lon="-64.598332644" /><trkpt lat="-32.151873660" lon="-64.598391652" /><trkpt lat="-32.151878201" lon="-64.598469436" /><trkpt lat="-32.151850951" lon="-64.598574042" /><trkpt lat="-32.151791908" lon="-64.598697424" /><trkpt lat="-32.151751033" lon="-64.598818123" /><trkpt lat="-32.151741949" lon="-64.598973691" /><trkpt lat="-32.151764658" lon="-64.599134624" /><trkpt lat="-32.151828242" lon="-64.599499404" /><trkpt lat="-32.151939515" lon="-64.599971473" /><trkpt lat="-32.151973578" lon="-64.600169957" /><trkpt lat="-32.151975849" lon="-64.600408673" /><trkpt lat="-32.151971307" lon="-64.600963891" /><trkpt lat="-32.151998557" lon="-64.601293802" /><trkpt lat="-32.152046245" lon="-64.601642489" /><trkpt lat="-32.152130267" lon="-64.602068961" /><trkpt lat="-32.152209747" lon="-64.602396190" /><trkpt lat="-32.152298311" lon="-64.602565169" /><trkpt lat="-32.152382332" lon="-64.602677822" /><trkpt lat="-32.152502688" lon="-64.602774382" /><trkpt lat="-32.152643480" lon="-64.602868259" /><trkpt lat="-32.152779731" lon="-64.602919221" /><trkpt lat="-32.152954586" lon="-64.602991641" /><trkpt lat="-32.153047690" lon="-64.603061378" /><trkpt lat="-32.153090836" lon="-64.603163302" /><trkpt lat="-32.153113544" lon="-64.603305459" /><trkpt lat="-32.153097649" lon="-64.603434205" /><trkpt lat="-32.153078137" lon="-64.603489909" /><trkpt lat="-32.152990247" lon="-64.603644447" /><trkpt lat="-32.152891674" lon="-64.603804393" /><trkpt lat="-32.152803784" lon="-64.603946056" /><trkpt lat="-32.152747939" lon="-64.604045749" /><trkpt lat="-32.152695510" lon="-64.604152050" /><trkpt lat="-32.152614086" lon="-64.604309077" /><trkpt lat="-32.152519365" lon="-64.604486446" /><trkpt lat="-32.152427041" lon="-64.604653773" /><trkpt lat="-32.152352811" lon="-64.604780674" /><trkpt lat="-32.152273095" lon="-64.604908004" /><trkpt lat="-32.152168526" lon="-64.605078335" /><trkpt lat="-32.152061124" lon="-64.605263858" /><trkpt lat="-32.151937244" lon="-64.605451226" /><trkpt lat="-32.151880472" lon="-64.605582654" /><trkpt lat="-32.151853222" lon="-64.605697989" /><trkpt lat="-32.151832784" lon="-64.605960846" /><trkpt lat="-32.151773741" lon="-64.606591165" /><trkpt lat="-32.151714699" lon="-64.607001543" /><trkpt lat="-32.151623864" lon="-64.607484341" /><trkpt lat="-32.151535300" lon="-64.607792795" /><trkpt lat="-32.151417214" lon="-64.608117342" /><trkpt lat="-32.151308212" lon="-64.608297050" /><trkpt lat="-32.151174230" lon="-64.608415067" /><trkpt lat="-32.150953954" lon="-64.608565271" /><trkpt lat="-32.150586069" lon="-64.608798623" /><trkpt lat="-32.150374875" lon="-64.608943462" /><trkpt lat="-32.150186390" lon="-64.609096348" /><trkpt lat="-32.150038781" lon="-64.609268010" /><trkpt lat="-32.149909339" lon="-64.609415531" /><trkpt lat="-32.149829857" lon="-64.609552324" /><trkpt lat="-32.149786709" lon="-64.609678388" /><trkpt lat="-32.149752645" lon="-64.609820545" /><trkpt lat="-32.149745833" lon="-64.609970748" /><trkpt lat="-32.149741291" lon="-64.610155821" /><trkpt lat="-32.149727665" lon="-64.610367715" /><trkpt lat="-32.149707227" lon="-64.610689580" /><trkpt lat="-32.149689060" lon="-64.610976577" /><trkpt lat="-32.149677705" lon="-64.611094594" /><trkpt lat="-32.149645912" lon="-64.611164331" /><trkpt lat="-32.149598223" lon="-64.611207247" /><trkpt lat="-32.149525553" lon="-64.611247480" /><trkpt lat="-32.149432445" lon="-64.611255527" /><trkpt lat="-32.149325712" lon="-64.611234069" /><trkpt lat="-32.148923756" lon="-64.611108005" /><trkpt lat="-32.148796583" lon="-64.611089230" /><trkpt lat="-32.148599011" lon="-64.611094594" /><trkpt lat="-32.148449128" lon="-64.611148238" /><trkpt lat="-32.148317413" lon="-64.611263573" /><trkpt lat="-32.148113027" lon="-64.611518383" /><trkpt lat="-32.147515762" lon="-64.612365961" /><trkpt lat="-32.147054753" lon="-64.613020420" /><trkpt lat="-32.146979811" lon="-64.613149166" /><trkpt lat="-32.146945746" lon="-64.613253772" /><trkpt lat="-32.146938933" lon="-64.613369107" /><trkpt lat="-32.146954830" lon="-64.613492489" /><trkpt lat="-32.146997978" lon="-64.613634646" /><trkpt lat="-32.147082005" lon="-64.613790214" /><trkpt lat="-32.147197825" lon="-64.614002109" /><trkpt lat="-32.147402213" lon="-64.614251554" /><trkpt lat="-32.147699711" lon="-64.614592195" /><trkpt lat="-32.148088046" lon="-64.615007937" /><trkpt lat="-32.148408251" lon="-64.615321755" /><trkpt lat="-32.148542237" lon="-64.615426362" /><trkpt lat="-32.148678494" lon="-64.615506828" /><trkpt lat="-32.148866983" lon="-64.615576565" /><trkpt lat="-32.149094076" lon="-64.615686536" /><trkpt lat="-32.149323441" lon="-64.615820646" /><trkpt lat="-32.149498302" lon="-64.615917206" /><trkpt lat="-32.149632287" lon="-64.616029859" /><trkpt lat="-32.149786709" lon="-64.616188109" /><trkpt lat="-32.150006988" lon="-64.616359770" /><trkpt lat="-32.150168223" lon="-64.616488516" /><trkpt lat="-32.150324915" lon="-64.616633356" /><trkpt lat="-32.150438461" lon="-64.616713822" /><trkpt lat="-32.150563360" lon="-64.616759419" /><trkpt lat="-32.150840409" lon="-64.616818428" /><trkpt lat="-32.151158334" lon="-64.616909623" /><trkpt lat="-32.151269607" lon="-64.616941810" /><trkpt lat="-32.151326379" lon="-64.616968632" /><trkpt lat="-32.151362713" lon="-64.617006183" /><trkpt lat="-32.151376338" lon="-64.617070556" /><trkpt lat="-32.151383151" lon="-64.617124200" /><trkpt lat="-32.151369526" lon="-64.617201984" /><trkpt lat="-32.151328650" lon="-64.617260993" /><trkpt lat="-32.151253711" lon="-64.617322683" /><trkpt lat="-32.150731407" lon="-64.617725015" /><trkpt lat="-32.150617862" lon="-64.617856443" /><trkpt lat="-32.150531568" lon="-64.617995918" /><trkpt lat="-32.150495233" lon="-64.618113935" /><trkpt lat="-32.150481608" lon="-64.618250728" /><trkpt lat="-32.150495233" lon="-64.618462622" /><trkpt lat="-32.150513400" lon="-64.618612826" /><trkpt lat="-32.150590611" lon="-64.618870318" /><trkpt lat="-32.150869931" lon="-64.619841278" /><trkpt lat="-32.151008455" lon="-64.620302618" /><trkpt lat="-32.151122000" lon="-64.620616436" /><trkpt lat="-32.151146979" lon="-64.620745182" /><trkpt lat="-32.151151521" lon="-64.620930254" /><trkpt lat="-32.151135625" lon="-64.621104598" /><trkpt lat="-32.151085665" lon="-64.621254802" /><trkpt lat="-32.151003914" lon="-64.621396959" /><trkpt lat="-32.150883556" lon="-64.621544480" /><trkpt lat="-32.150574715" lon="-64.621890485" /><trkpt lat="-32.150440731" lon="-64.622070193" /><trkpt lat="-32.150365792" lon="-64.622215033" /><trkpt lat="-32.150272685" lon="-64.622349143" /><trkpt lat="-32.150197745" lon="-64.622443020" /><trkpt lat="-32.150129617" lon="-64.622499347" /><trkpt lat="-32.150070574" lon="-64.622526169" /><trkpt lat="-32.149932048" lon="-64.622547626" /><trkpt lat="-32.149750375" lon="-64.622561038" /><trkpt lat="-32.149602765" lon="-64.622582495" /><trkpt lat="-32.149486947" lon="-64.622641504" /><trkpt lat="-32.149384756" lon="-64.622719288" /><trkpt lat="-32.149293919" lon="-64.622842669" /><trkpt lat="-32.149239416" lon="-64.622987509" /><trkpt lat="-32.149198539" lon="-64.623196721" /><trkpt lat="-32.149203081" lon="-64.623432755" /><trkpt lat="-32.149189456" lon="-64.623717070" /><trkpt lat="-32.149121328" lon="-64.624181092" /><trkpt lat="-32.149080451" lon="-64.624390304" /><trkpt lat="-32.149032761" lon="-64.624476135" /><trkpt lat="-32.148957820" lon="-64.624564648" /><trkpt lat="-32.148837460" lon="-64.624685347" /><trkpt lat="-32.148673952" lon="-64.624816775" /><trkpt lat="-32.148583114" lon="-64.624875784" /><trkpt lat="-32.148503631" lon="-64.624907970" /><trkpt lat="-32.148415064" lon="-64.624924064" /><trkpt lat="-32.148326497" lon="-64.624921381" /><trkpt lat="-32.148147091" lon="-64.624883831" /><trkpt lat="-32.147656563" lon="-64.624789953" /><trkpt lat="-32.147259142" lon="-64.624725580" /><trkpt lat="-32.147079734" lon="-64.624706805" /><trkpt lat="-32.146875345" lon="-64.624704123" /><trkpt lat="-32.146675498" lon="-64.624730945" /><trkpt lat="-32.146505173" lon="-64.624781907" /><trkpt lat="-32.146405249" lon="-64.624843597" /><trkpt lat="-32.146321221" lon="-64.624916017" /><trkpt lat="-32.146230381" lon="-64.625042081" /><trkpt lat="-32.146144083" lon="-64.625181556" /><trkpt lat="-32.145907898" lon="-64.625562429" /><trkpt lat="-32.145780721" lon="-64.625736773" /><trkpt lat="-32.145667170" lon="-64.625870883" /><trkpt lat="-32.145535450" lon="-64.625994265" /><trkpt lat="-32.145444609" lon="-64.626069367" /><trkpt lat="-32.145365123" lon="-64.626109600" /><trkpt lat="-32.145262927" lon="-64.626141787" /><trkpt lat="-32.145156188" lon="-64.626152515" /><trkpt lat="-32.144967692" lon="-64.626125693" /><trkpt lat="-32.144304547" lon="-64.626042545" /><trkpt lat="-32.143941177" lon="-64.626023769" /><trkpt lat="-32.143387036" lon="-64.626034498" /><trkpt lat="-32.142912379" lon="-64.626037180" /><trkpt lat="-32.142437720" lon="-64.626026452" /><trkpt lat="-32.142053903" lon="-64.626034498" /><trkpt lat="-32.141836218" lon="-64.626060076" /><trkpt lat="-32.141623351" lon="-64.626085224" /><trkpt lat="-32.141442970" lon="-64.626109600" /><trkpt lat="-32.141213494" lon="-64.626139340" /><trkpt lat="-32.140883725" lon="-64.626178865" /><trkpt lat="-32.140525611" lon="-64.626221223" /><trkpt lat="-32.140211103" lon="-64.626259460" /><trkpt lat="-32.140012150" lon="-64.626286626" /><trkpt lat="-32.139876607" lon="-64.626316452" /><trkpt lat="-32.139707995" lon="-64.626350999" /><trkpt lat="-32.139552647" lon="-64.626414084" /><trkpt lat="-32.139479788" lon="-64.626501310" /><trkpt lat="-32.139438726" lon="-64.626599264" /><trkpt lat="-32.139421101" lon="-64.626716530" /><trkpt lat="-32.139408019" lon="-64.626908898" /><trkpt lat="-32.139391994" lon="-64.627234755" /><trkpt lat="-32.139392103" lon="-64.627454417" /><trkpt lat="-32.139382510" lon="-64.627673693" /><trkpt lat="-32.139396427" lon="-64.627920606" /><trkpt lat="-32.139439816" lon="-64.628343880" /><trkpt lat="-32.139499230" lon="-64.628872361" /><trkpt lat="-32.139580992" lon="-64.629433222" /><trkpt lat="-32.139661664" lon="-64.629950051" /><trkpt lat="-32.139735977" lon="-64.630354486" /><trkpt lat="-32.139794118" lon="-64.630637169" /><trkpt lat="-32.139848463" lon="-64.630851874" /><trkpt lat="-32.139890743" lon="-64.631130652" /><trkpt lat="-32.139914254" lon="-64.631447453" /><trkpt lat="-32.139935003" lon="-64.631749406" /><trkpt lat="-32.139921304" lon="-64.632015824" /><trkpt lat="-32.139872246" lon="-64.632248898" /><trkpt lat="-32.139802476" lon="-64.632466779" /><trkpt lat="-32.139721804" lon="-64.632662001" /><trkpt lat="-32.139640042" lon="-64.632827096" /><trkpt lat="-32.139567002" lon="-64.632954597" /><trkpt lat="-32.139486293" lon="-64.633102999" /><trkpt lat="-32.139385744" lon="-64.633308821" /><trkpt lat="-32.139281488" lon="-64.633531637" /><trkpt lat="-32.139189659" lon="-64.633731022" /><trkpt lat="-32.139126393" lon="-64.633866549" /><trkpt lat="-32.139079988" lon="-64.633962293" /><trkpt lat="-32.139025516" lon="-64.634068594" /><trkpt lat="-32.138959270" lon="-64.634184422" /><trkpt lat="-32.138877544" lon="-64.634308748" /><trkpt lat="-32.138776631" lon="-64.634461999" /><trkpt lat="-32.138626986" lon="-64.634644518" /><trkpt lat="-32.138416545" lon="-64.634911923" /><trkpt lat="-32.138188262" lon="-64.635206623" /><trkpt lat="-32.137998717" lon="-64.635471025" /><trkpt lat="-32.137872692" lon="-64.635652900" /><trkpt lat="-32.137790129" lon="-64.635839710" /><trkpt lat="-32.137691867" lon="-64.636071067" /><trkpt lat="-32.137589462" lon="-64.636316843" /><trkpt lat="-32.137494470" lon="-64.636546912" /><trkpt lat="-32.137418448" lon="-64.636731148" /><trkpt lat="-32.137361577" lon="-64.636873670" /><trkpt lat="-32.137302525" lon="-64.636999712" /><trkpt lat="-32.137220579" lon="-64.637110820" /><trkpt lat="-32.137095025" lon="-64.637208538" /><trkpt lat="-32.136905150" lon="-64.637294412" /><trkpt lat="-32.136694960" lon="-64.637369320" /><trkpt lat="-32.136507791" lon="-64.637433522" /><trkpt lat="-32.136343498" lon="-64.637483604" /><trkpt lat="-32.136220106" lon="-64.637532248" /><trkpt lat="-32.136151096" lon="-64.637567997" /><trkpt lat="-32.136107161" lon="-64.637620397" /><trkpt lat="-32.136064806" lon="-64.637689898" /><trkpt lat="-32.136032609" lon="-64.637783089" /><trkpt lat="-32.136030501" lon="-64.637922649" /><trkpt lat="-32.136062517" lon="-64.638069570" /><trkpt lat="-32.136148152" lon="-64.638237004" /><trkpt lat="-32.136278904" lon="-64.638343992" /><trkpt lat="-32.136680279" lon="-64.638641717" /><trkpt lat="-32.136942797" lon="-64.638817520" /><trkpt lat="-32.137191016" lon="-64.639000146" /><trkpt lat="-32.137418375" lon="-64.639152882" /><trkpt lat="-32.137579705" lon="-64.639255106" /><trkpt lat="-32.137700152" lon="-64.639321625" /><trkpt lat="-32.137812223" lon="-64.639381814" /><trkpt lat="-32.137930617" lon="-64.639422154" /><trkpt lat="-32.138067762" lon="-64.639458632" /><trkpt lat="-32.138236085" lon="-64.639493823" /><trkpt lat="-32.138447180" lon="-64.639536953" /><trkpt lat="-32.138685310" lon="-64.639590383" /><trkpt lat="-32.138921913" lon="-64.639646387" /><trkpt lat="-32.139128428" lon="-64.639697242" /><trkpt lat="-32.139276291" lon="-64.639735222" /><trkpt lat="-32.139455005" lon="-64.639779210" /><trkpt lat="-32.139733577" lon="-64.639843798" /><trkpt lat="-32.140052703" lon="-64.639914823" /><trkpt lat="-32.140353077" lon="-64.639978123" /><trkpt lat="-32.140575396" lon="-64.640019536" /><trkpt lat="-32.140797641" lon="-64.640056443" /><trkpt lat="-32.141106224" lon="-64.640108800" /><trkpt lat="-32.141454488" lon="-64.640166306" /><trkpt lat="-32.141795774" lon="-64.640218663" /><trkpt lat="-32.142083425" lon="-64.640255570" /><trkpt lat="-32.142376488" lon="-64.640269969" /><trkpt lat="-32.142687541" lon="-64.640295804" /><trkpt lat="-32.143021392" lon="-64.640373588" /><trkpt lat="-32.143307548" lon="-64.640451372" /><trkpt lat="-32.143770847" lon="-64.640620351" /><trkpt lat="-32.144050188" lon="-64.640695453" /><trkpt lat="-32.144361323" lon="-64.640773237" /><trkpt lat="-32.144783738" lon="-64.640851021" /><trkpt lat="-32.145031282" lon="-64.640904665" /><trkpt lat="-32.145256114" lon="-64.640891254" /><trkpt lat="-32.145505927" lon="-64.640885890" /><trkpt lat="-32.145639917" lon="-64.640872478" /><trkpt lat="-32.145758011" lon="-64.640826881" /><trkpt lat="-32.145830683" lon="-64.640730321" /><trkpt lat="-32.145957860" lon="-64.640523791" /><trkpt lat="-32.146159980" lon="-64.640185833" /><trkpt lat="-32.146323492" lon="-64.639869332" /><trkpt lat="-32.146443856" lon="-64.639692307" /><trkpt lat="-32.146557406" lon="-64.639587700" /><trkpt lat="-32.146700479" lon="-64.639523327" /><trkpt lat="-32.146804944" lon="-64.639517963" /><trkpt lat="-32.146923036" lon="-64.639555514" /><trkpt lat="-32.147032043" lon="-64.639625251" /><trkpt lat="-32.147243245" lon="-64.639791548" /><trkpt lat="-32.147556640" lon="-64.639992714" /><trkpt lat="-32.147881389" lon="-64.640161693" /><trkpt lat="-32.148140278" lon="-64.640250206" /><trkpt lat="-32.148564947" lon="-64.640378952" /><trkpt lat="-32.149032761" lon="-64.640580118" /><trkpt lat="-32.149436987" lon="-64.640824199" /><trkpt lat="-32.149779896" lon="-64.641030729" /><trkpt lat="-32.150038781" lon="-64.641221166" /><trkpt lat="-32.150177306" lon="-64.641293585" /><trkpt lat="-32.150288581" lon="-64.641336501" /><trkpt lat="-32.150467982" lon="-64.641371369" /><trkpt lat="-32.150622403" lon="-64.641390145" /><trkpt lat="-32.150733677" lon="-64.641398191" /><trkpt lat="-32.150917620" lon="-64.641363323" /><trkpt lat="-32.151240086" lon="-64.641245306" /><trkpt lat="-32.151537571" lon="-64.641154110" /><trkpt lat="-32.151746491" lon="-64.641084373" /><trkpt lat="-32.151878201" lon="-64.641065598" /><trkpt lat="-32.152018995" lon="-64.641073644" /><trkpt lat="-32.152146163" lon="-64.641108513" /><trkpt lat="-32.152232456" lon="-64.641164839" /><trkpt lat="-32.152298311" lon="-64.641250670" /><trkpt lat="-32.152339186" lon="-64.641357958" /><trkpt lat="-32.152370978" lon="-64.641510844" /><trkpt lat="-32.152427749" lon="-64.641639590" /><trkpt lat="-32.152493604" lon="-64.641706645" /><trkpt lat="-32.152611688" lon="-64.641784430" /><trkpt lat="-32.152763835" lon="-64.641878307" /><trkpt lat="-32.152884190" lon="-64.641907811" /><trkpt lat="-32.153079482" lon="-64.641926587" /><trkpt lat="-32.153242982" lon="-64.641907811" /><trkpt lat="-32.153399669" lon="-64.641880989" /><trkpt lat="-32.153540461" lon="-64.641878307" /><trkpt lat="-32.153651731" lon="-64.641913176" /><trkpt lat="-32.153774355" lon="-64.641980231" /><trkpt lat="-32.154092269" lon="-64.642162621" /><trkpt lat="-32.154428349" lon="-64.642315507" /><trkpt lat="-32.154716740" lon="-64.642438889" /><trkpt lat="-32.155259459" lon="-64.642656147" /><trkpt lat="-32.155831694" lon="-64.642868042" /><trkpt lat="-32.156310825" lon="-64.643042386" /><trkpt lat="-32.156721831" lon="-64.643189907" /><trkpt lat="-32.157141918" lon="-64.643329382" /><trkpt lat="-32.157407594" lon="-64.643401802" /><trkpt lat="-32.157659644" lon="-64.643452764" /><trkpt lat="-32.157836760" lon="-64.643468857" /><trkpt lat="-32.157986628" lon="-64.643466175" /><trkpt lat="-32.158177368" lon="-64.643447399" /><trkpt lat="-32.158527056" lon="-64.643423259" /><trkpt lat="-32.158790457" lon="-64.643401802" /><trkpt lat="-32.159015256" lon="-64.643409848" /><trkpt lat="-32.159156038" lon="-64.643433988" /><trkpt lat="-32.159283196" lon="-64.643482268" /><trkpt lat="-32.159401272" lon="-64.643562734" /><trkpt lat="-32.159542054" lon="-64.643656611" /><trkpt lat="-32.159712354" lon="-64.643737078" /><trkpt lat="-32.159918985" lon="-64.643841684" /><trkpt lat="-32.160100638" lon="-64.643938243" /><trkpt lat="-32.160257314" lon="-64.644042850" /><trkpt lat="-32.160477567" lon="-64.644168913" /><trkpt lat="-32.160691008" lon="-64.644278884" /><trkpt lat="-32.160893096" lon="-64.644375443" /><trkpt lat="-32.161115618" lon="-64.644485414" /><trkpt lat="-32.161301810" lon="-64.644592702" /><trkpt lat="-32.161494814" lon="-64.644691944" /><trkpt lat="-32.161678735" lon="-64.644775093" /><trkpt lat="-32.161853572" lon="-64.644839466" /><trkpt lat="-32.162062469" lon="-64.644887745" /><trkpt lat="-32.162194164" lon="-64.644936025" /><trkpt lat="-32.162307695" lon="-64.644997716" /><trkpt lat="-32.162421225" lon="-64.645083547" /><trkpt lat="-32.162602873" lon="-64.645257890" /><trkpt lat="-32.162673262" lon="-64.645324945" /><trkpt lat="-32.162741380" lon="-64.645365179" /><trkpt lat="-32.162791333" lon="-64.645394683" /><trkpt lat="-32.162879886" lon="-64.645416141" /><trkpt lat="-32.162993415" lon="-64.645432234" /><trkpt lat="-32.163152357" lon="-64.645456374" /><trkpt lat="-32.163256803" lon="-64.645459056" /><trkpt lat="-32.163340815" lon="-64.645459056" /><trkpt lat="-32.163442991" lon="-64.645442963" /><trkpt lat="-32.163554249" lon="-64.645418823" /><trkpt lat="-32.163863047" lon="-64.645341039" /><trkpt lat="-32.164069669" lon="-64.645306170" /><trkpt lat="-32.164208173" lon="-64.645290077" /><trkpt lat="-32.164319430" lon="-64.645295441" /><trkpt lat="-32.164414793" lon="-64.645308852" /><trkpt lat="-32.164526051" lon="-64.645362496" /><trkpt lat="-32.164655472" lon="-64.645459056" /><trkpt lat="-32.164741753" lon="-64.645542204" /><trkpt lat="-32.164857550" lon="-64.645609260" /><trkpt lat="-32.164998324" lon="-64.645676315" /><trkpt lat="-32.165182238" lon="-64.645740688" /><trkpt lat="-32.165425184" lon="-64.645839930" /><trkpt lat="-32.165674942" lon="-64.645960629" /><trkpt lat="-32.165945134" lon="-64.646073282" /><trkpt lat="-32.166104070" lon="-64.646172523" /><trkpt lat="-32.166263006" lon="-64.646290541" /><trkpt lat="-32.166444646" lon="-64.646419287" /><trkpt lat="-32.166569524" lon="-64.646521211" /><trkpt lat="-32.166660344" lon="-64.646609724" /><trkpt lat="-32.166717106" lon="-64.646725059" /><trkpt lat="-32.166785221" lon="-64.646894038" /><trkpt lat="-32.166844254" lon="-64.647054970" /><trkpt lat="-32.166866959" lon="-64.647194445" /><trkpt lat="-32.166866959" lon="-64.647358060" /><trkpt lat="-32.166878311" lon="-64.647497535" /><trkpt lat="-32.166910098" lon="-64.647637010" /><trkpt lat="-32.166953238" lon="-64.647746980" /><trkpt lat="-32.167062221" lon="-64.647929370" /><trkpt lat="-32.167212073" lon="-64.648189545" /><trkpt lat="-32.167323327" lon="-64.648422897" /><trkpt lat="-32.167393712" lon="-64.648621380" /><trkpt lat="-32.167445933" lon="-64.648819864" /><trkpt lat="-32.167502695" lon="-64.648935199" /><trkpt lat="-32.167557186" lon="-64.648983479" /><trkpt lat="-32.167616219" lon="-64.649010301" /><trkpt lat="-32.167686603" lon="-64.649026394" /><trkpt lat="-32.167825102" lon="-64.649050534" /><trkpt lat="-32.167970412" lon="-64.649069309" /><trkpt lat="-32.168161131" lon="-64.649077356" /><trkpt lat="-32.168419963" lon="-64.649085402" /><trkpt lat="-32.168528945" lon="-64.649082720" /><trkpt lat="-32.168678794" lon="-64.649096131" /><trkpt lat="-32.168912650" lon="-64.649139047" /><trkpt lat="-32.169223700" lon="-64.649192691" /><trkpt lat="-32.169577887" lon="-64.649270475" /><trkpt lat="-32.169820823" lon="-64.649326801" /><trkpt lat="-32.170004726" lon="-64.649377763" /><trkpt lat="-32.170154574" lon="-64.649428725" /><trkpt lat="-32.170324854" lon="-64.649493098" /><trkpt lat="-32.170511027" lon="-64.649573565" /><trkpt lat="-32.170640440" lon="-64.649635255" /><trkpt lat="-32.170731256" lon="-64.649662077" /><trkpt lat="-32.170831154" lon="-64.649694264" /><trkpt lat="-32.170931051" lon="-64.649721086" /><trkpt lat="-32.171024137" lon="-64.649755955" /><trkpt lat="-32.171130845" lon="-64.649798870" /><trkpt lat="-32.171255716" lon="-64.649876654" /><trkpt lat="-32.171398750" lon="-64.649967849" /><trkpt lat="-32.171541784" lon="-64.650085866" /><trkpt lat="-32.171684818" lon="-64.650193155" /><trkpt lat="-32.171793796" lon="-64.650270939" /><trkpt lat="-32.171898233" lon="-64.650356770" /><trkpt lat="-32.171961803" lon="-64.650421143" /><trkpt lat="-32.172052618" lon="-64.650533795" /><trkpt lat="-32.172127540" lon="-64.650619626" /><trkpt lat="-32.172193380" lon="-64.650657177" /><trkpt lat="-32.172268302" lon="-64.650678635" /><trkpt lat="-32.172365927" lon="-64.650678635" /><trkpt lat="-32.172486256" lon="-64.650654495" /><trkpt lat="-32.172711021" lon="-64.650619626" /><trkpt lat="-32.172858593" lon="-64.650606215" /><trkpt lat="-32.172942596" lon="-64.650611579" /><trkpt lat="-32.173024328" lon="-64.650638402" /><trkpt lat="-32.173106060" lon="-64.650686681" /><trkpt lat="-32.173219577" lon="-64.650780559" /><trkpt lat="-32.173312661" lon="-64.650882483" /><trkpt lat="-32.173455692" lon="-64.651005864" /><trkpt lat="-32.173691806" lon="-64.651207030" /><trkpt lat="-32.173814403" lon="-64.651303589" /><trkpt lat="-32.173889323" lon="-64.651351869" /><trkpt lat="-32.173943811" lon="-64.651376009" /><trkpt lat="-32.174014191" lon="-64.651394784" /><trkpt lat="-32.174116355" lon="-64.651410878" /><trkpt lat="-32.174238952" lon="-64.651426971" /><trkpt lat="-32.174434198" lon="-64.651483297" /><trkpt lat="-32.174609011" lon="-64.651566446" /><trkpt lat="-32.174772473" lon="-64.651660323" /><trkpt lat="-32.174949556" lon="-64.651791751" /><trkpt lat="-32.175158422" lon="-64.651950002" /><trkpt lat="-32.175408154" lon="-64.652156532" /><trkpt lat="-32.175578424" lon="-64.652253091" /><trkpt lat="-32.175766857" lon="-64.652346969" /><trkpt lat="-32.175934857" lon="-64.652446210" /><trkpt lat="-32.176077884" lon="-64.652550817" /><trkpt lat="-32.176248153" lon="-64.652703702" /><trkpt lat="-32.176318531" lon="-64.652781487" /><trkpt lat="-32.176345774" lon="-64.652819037" /><trkpt lat="-32.176348045" lon="-64.652869999" /><trkpt lat="-32.176334423" lon="-64.652923644" /><trkpt lat="-32.176293558" lon="-64.652958512" /><trkpt lat="-32.176211829" lon="-64.652982652" /><trkpt lat="-32.176132370" lon="-64.652979970" /><trkpt lat="-32.175983205" lon="-64.652951431" /><trkpt lat="-32.175921926" lon="-64.652953362" /><trkpt lat="-32.175871762" lon="-64.652974606" /><trkpt lat="-32.175816803" lon="-64.653022885" /><trkpt lat="-32.175742992" lon="-64.653100390" /><trkpt lat="-32.175652399" lon="-64.653189740" /><trkpt lat="-32.175553306" lon="-64.653269305" /><trkpt lat="-32.175453995" lon="-64.653317456" /><trkpt lat="-32.175362748" lon="-64.653312564" /><trkpt lat="-32.175285377" lon="-64.653267288" /><trkpt lat="-32.175219992" lon="-64.653213000" /><trkpt lat="-32.175163326" lon="-64.653156137" /><trkpt lat="-32.175112108" lon="-64.653103137" /><trkpt lat="-32.175063070" lon="-64.653060436" /><trkpt lat="-32.175001972" lon="-64.653027477" /><trkpt lat="-32.174923002" lon="-64.653004045" /><trkpt lat="-32.174835532" lon="-64.652997093" /><trkpt lat="-32.174748934" lon="-64.653013573" /><trkpt lat="-32.174672580" lon="-64.653060436" /><trkpt lat="-32.174567783" lon="-64.653173647" /><trkpt lat="-32.174412857" lon="-64.653358440" /><trkpt lat="-32.174242675" lon="-64.653575678" /><trkpt lat="-32.174092108" lon="-64.653786221" /><trkpt lat="-32.173996028" lon="-64.653950930" /><trkpt lat="-32.173944083" lon="-64.654069290" /><trkpt lat="-32.173899767" lon="-64.654169111" /><trkpt lat="-32.173858719" lon="-64.654253740" /><trkpt lat="-32.173816582" lon="-64.654326525" /><trkpt lat="-32.173768996" lon="-64.654390812" /><trkpt lat="-32.173715598" lon="-64.654465570" /><trkpt lat="-32.173665470" lon="-64.654562731" /><trkpt lat="-32.173628418" lon="-64.654675083" /><trkpt lat="-32.173614251" lon="-64.654795418" /><trkpt lat="-32.173632777" lon="-64.654916525" /><trkpt lat="-32.173672807" lon="-64.655034928" /><trkpt lat="-32.173717633" lon="-64.655149212" /><trkpt lat="-32.173768778" lon="-64.655255256" /><trkpt lat="-32.173827770" lon="-64.655348940" /><trkpt lat="-32.173896134" lon="-64.655426145" /><trkpt lat="-32.173965842" lon="-64.655493736" /><trkpt lat="-32.174025524" lon="-64.655561328" /><trkpt lat="-32.174071693" lon="-64.655628920" /><trkpt lat="-32.174100862" lon="-64.655696511" /><trkpt lat="-32.174109544" lon="-64.655764103" /><trkpt lat="-32.174099373" lon="-64.655831738" /><trkpt lat="-32.174075035" lon="-64.655899630" /><trkpt lat="-32.174037620" lon="-64.655968037" /><trkpt lat="-32.173988218" lon="-64.656037216" /><trkpt lat="-32.173927919" lon="-64.656107426" /><trkpt lat="-32.173825591" lon="-64.656218534" /><trkpt lat="-32.173673788" lon="-64.656386032" /><trkpt lat="-32.173509126" lon="-64.656573615" /><trkpt lat="-32.173368220" lon="-64.656744976" /><trkpt lat="-32.173287687" lon="-64.656863809" /><trkpt lat="-32.173250236" lon="-64.656956635" /><trkpt lat="-32.173219105" lon="-64.657069545" /><trkpt lat="-32.173201705" lon="-64.657195587" /><trkpt lat="-32.173205447" lon="-64.657327809" /><trkpt lat="-32.173237740" lon="-64.657459259" /><trkpt lat="-32.173284200" lon="-64.657574530" /><trkpt lat="-32.173330442" lon="-64.657668171" /><trkpt lat="-32.173383877" lon="-64.657748165" /><trkpt lat="-32.173451914" lon="-64.657822495" /><trkpt lat="-32.173541964" lon="-64.657899141" /><trkpt lat="-32.173661256" lon="-64.657986946" /><trkpt lat="-32.173798855" lon="-64.658085308" /><trkpt lat="-32.173934929" lon="-64.658188047" /><trkpt lat="-32.174049644" lon="-64.658288984" /><trkpt lat="-32.174123166" lon="-64.658381939" /><trkpt lat="-32.174181831" lon="-64.658489227" /><trkpt lat="-32.174260111" lon="-64.658620977" /><trkpt lat="-32.174350378" lon="-64.658752728" /><trkpt lat="-32.174445005" lon="-64.658860016" /><trkpt lat="-32.174536362" lon="-64.658918381" /><trkpt lat="-32.174634875" lon="-64.658954730" /><trkpt lat="-32.174744721" lon="-64.659018631" /><trkpt lat="-32.174848900" lon="-64.659119611" /><trkpt lat="-32.174930413" lon="-64.659267197" /><trkpt lat="-32.174972259" lon="-64.659470916" /><trkpt lat="-32.174974402" lon="-64.659685750" /><trkpt lat="-32.174952353" lon="-64.659862218" /><trkpt lat="-32.174912432" lon="-64.660003152" /><trkpt lat="-32.174860960" lon="-64.660111384" /><trkpt lat="-32.174804257" lon="-64.660189748" /><trkpt lat="-32.174745738" lon="-64.660261889" /><trkpt lat="-32.174685911" lon="-64.660347161" /><trkpt lat="-32.174626738" lon="-64.660441961" /><trkpt lat="-32.174570180" lon="-64.660542684" /><trkpt lat="-32.174518199" lon="-64.660645723" /><trkpt lat="-32.174460443" lon="-64.660754042" /><trkpt lat="-32.174391789" lon="-64.660871115" /><trkpt lat="-32.174322045" lon="-64.660994110" /><trkpt lat="-32.174261019" lon="-64.661120195" /><trkpt lat="-32.174218519" lon="-64.661246538" /><trkpt lat="-32.174183102" lon="-64.661378503" /><trkpt lat="-32.174071221" lon="-64.661635566" /><trkpt lat="-32.174019458" lon="-64.661748219" /><trkpt lat="-32.173968785" lon="-64.661831260" /><trkpt lat="-32.173907722" lon="-64.661899581" /><trkpt lat="-32.173831185" lon="-64.661976142" /><trkpt lat="-32.173752033" lon="-64.662061458" /><trkpt lat="-32.173683124" lon="-64.662156043" /><trkpt lat="-32.173637318" lon="-64.662260413" /><trkpt lat="-32.173614215" lon="-64.662369032" /><trkpt lat="-32.173603971" lon="-64.662477908" /><trkpt lat="-32.173605279" lon="-64.662589874" /><trkpt lat="-32.173616830" lon="-64.662707763" /><trkpt lat="-32.173637318" lon="-64.662834406" /><trkpt lat="-32.173659549" lon="-64.662968688" /><trkpt lat="-32.173687665" lon="-64.663098850" /><trkpt lat="-32.173728276" lon="-64.663209078" /><trkpt lat="-32.173767562" lon="-64.663275511" /><trkpt lat="-32.173811415" lon="-64.663307086" /><trkpt lat="-32.173862856" lon="-64.663322874" /><trkpt lat="-32.173913550" lon="-64.663333450" /><trkpt lat="-32.173964244" lon="-64.663333297" /><trkpt lat="-32.174122603" lon="-64.663344948" /><trkpt lat="-32.174175755" lon="-64.663361052" /><trkpt lat="-32.174222097" lon="-64.663387885" /><trkpt lat="-32.174265342" lon="-64.663440285" /><trkpt lat="-32.174278310" lon="-64.663473716" /><trkpt lat="-32.174277656" lon="-64.663512511" /><trkpt lat="-32.174250303" lon="-64.663606882" /><trkpt lat="-32.174222733" lon="-64.663702154" /><trkpt lat="-32.174229162" lon="-64.663775539" /><trkpt lat="-32.174264361" lon="-64.663827038" /><trkpt lat="-32.174323098" lon="-64.663856649" /><trkpt lat="-32.174400143" lon="-64.663864374" /><trkpt lat="-32.174489721" lon="-64.663862228" /><trkpt lat="-32.174586054" lon="-64.663869095" /><trkpt lat="-32.174683913" lon="-64.663895273" /><trkpt lat="-32.174778067" lon="-64.663951063" /><trkpt lat="-32.174863284" lon="-64.664046764" /><trkpt lat="-32.174932338" lon="-64.664155426" /><trkpt lat="-32.174983083" lon="-64.664247866" /><trkpt lat="-32.175017919" lon="-64.664331036" /><trkpt lat="-32.175039241" lon="-64.664411888" /><trkpt lat="-32.175049448" lon="-64.664497375" /><trkpt lat="-32.175060346" lon="-64.664587369" /><trkpt lat="-32.175077782" lon="-64.664679165" /><trkpt lat="-32.175095217" lon="-64.664775853" /><trkpt lat="-32.175106115" lon="-64.664880524" /><trkpt lat="-32.175103935" lon="-64.664996266" /><trkpt lat="-32.175099031" lon="-64.665107460" /><trkpt lat="-32.175103935" lon="-64.665200887" /><trkpt lat="-32.175115378" lon="-64.665283241" /><trkpt lat="-32.175130089" lon="-64.665361218" /><trkpt lat="-32.175144800" lon="-64.665441513" /><trkpt lat="-32.175164888" lon="-64.665540948" /><trkpt lat="-32.175190805" lon="-64.665662785" /><trkpt lat="-32.175218948" lon="-64.665760267" /><trkpt lat="-32.175253901" lon="-64.665857749" /><trkpt lat="-32.175299252" lon="-64.665919075" /><trkpt lat="-32.175367288" lon="-64.666026235" /><trkpt lat="-32.175427696" lon="-64.666131935" /><trkpt lat="-32.175465873" lon="-64.666252570" /><trkpt lat="-32.175487922" lon="-64.666373463" /><trkpt lat="-32.175499945" lon="-64.666479936" /><trkpt lat="-32.175508046" lon="-64.666557312" /><trkpt lat="-32.175523629" lon="-64.666621685" /><trkpt lat="-32.175544261" lon="-64.666701829" /><trkpt lat="-32.175571177" lon="-64.666773927" /><trkpt lat="-32.175591991" lon="-64.666838300" /><trkpt lat="-32.175596586" lon="-64.666887224" /><trkpt lat="-32.175589085" lon="-64.666934903" /><trkpt lat="-32.175569724" lon="-64.666995714" /><trkpt lat="-32.175547530" lon="-64.667062190" /><trkpt lat="-32.175529259" lon="-64.667126863" /><trkpt lat="-32.175521667" lon="-64.667182267" /><trkpt lat="-32.175525663" lon="-64.667237198" /><trkpt lat="-32.175531838" lon="-64.667301142" /><trkpt lat="-32.175531475" lon="-64.667367661" /><trkpt lat="-32.175515855" lon="-64.667430317" /><trkpt lat="-32.175476262" lon="-64.667482674" /><trkpt lat="-32.175379529" lon="-64.667552111" /><trkpt lat="-32.175221118" lon="-64.667654507" /><trkpt lat="-32.175035245" lon="-64.667766173" /><trkpt lat="-32.174856128" lon="-64.667863419" /><trkpt lat="-32.174717986" lon="-64.667922556" /><trkpt lat="-32.174601238" lon="-64.667968047" /><trkpt lat="-32.174473810" lon="-64.668036711" /><trkpt lat="-32.174351177" lon="-64.668123400" /><trkpt lat="-32.174248814" lon="-64.668222964" /><trkpt lat="-32.174182194" lon="-64.668330252" /><trkpt lat="-32.174132029" lon="-64.668480241" /><trkpt lat="-32.174077287" lon="-64.668690741" /><trkpt lat="-32.174030828" lon="-64.668930852" /><trkpt lat="-32.174005509" lon="-64.669169676" /><trkpt lat="-32.174014191" lon="-64.669376314" /><trkpt lat="-32.174054366" lon="-64.669585526" /><trkpt lat="-32.174112196" lon="-64.669839799" /><trkpt lat="-32.174183538" lon="-64.670119822" /><trkpt lat="-32.174275604" lon="-64.670390189" /><trkpt lat="-32.174366089" lon="-64.670679867" /><trkpt lat="-32.174446367" lon="-64.670935535" /><trkpt lat="-32.174512206" lon="-64.671175539" /><trkpt lat="-32.174584220" lon="-64.671410286" /><trkpt lat="-32.174635347" lon="-64.671650183" /><trkpt lat="-32.174663499" lon="-64.671911001" /><trkpt lat="-32.174680535" lon="-64.672187119" /><trkpt lat="-32.174696263" lon="-64.672459116" /><trkpt lat="-32.174706652" lon="-64.672718046" /><trkpt lat="-32.174734913" lon="-64.672909362" /><trkpt lat="-32.174799716" lon="-64.673061669" /><trkpt lat="-32.174894487" lon="-64.673201530" /><trkpt lat="-32.175010835" lon="-64.673368170" /><trkpt lat="-32.175142003" lon="-64.673539445" /><trkpt lat="-32.175281235" lon="-64.673693211" /><trkpt lat="-32.175421775" lon="-64.673807323" /><trkpt lat="-32.175537432" lon="-64.673881567" /><trkpt lat="-32.175615820" lon="-64.673936498" /><trkpt lat="-32.175670888" lon="-64.673981130" /><trkpt lat="-32.175716584" lon="-64.674024475" /><trkpt lat="-32.175766857" lon="-64.674075544" /><trkpt lat="-32.175832822" lon="-64.674125969" /><trkpt lat="-32.175932605" lon="-64.674164915" /><trkpt lat="-32.176011211" lon="-64.674188304" /><trkpt lat="-32.176081752" lon="-64.674200106" /><trkpt lat="-32.176134640" lon="-64.674201608" /><trkpt lat="-32.176186656" lon="-64.674197273" /><trkpt lat="-32.176257634" lon="-64.674193969" /><trkpt lat="-32.176342560" lon="-64.674196587" /><trkpt lat="-32.176436421" lon="-64.674210019" /><trkpt lat="-32.176534206" lon="-64.674239159" /><trkpt lat="-32.176643541" lon="-64.674287825" /><trkpt lat="-32.176765952" lon="-64.674350395" /><trkpt lat="-32.176887274" lon="-64.674417601" /><trkpt lat="-32.176993340" lon="-64.674480171" /><trkpt lat="-32.177069983" lon="-64.674528837" /><trkpt lat="-32.177134095" lon="-64.674558363" /><trkpt lat="-32.177209104" lon="-64.674571924" /><trkpt lat="-32.177290650" lon="-64.674572868" /><trkpt lat="-32.177374377" lon="-64.674564543" /><trkpt lat="-32.177455923" lon="-64.674550295" /><trkpt lat="-32.177566256" lon="-64.674530768" /><trkpt lat="-32.177675499" lon="-64.674502337" /><trkpt lat="-32.177810623" lon="-64.674449873" /><trkpt lat="-32.177925950" lon="-64.674417257" /><trkpt lat="-32.178005317" lon="-64.674400091" /><trkpt lat="-32.178070844" lon="-64.674402194" /><trkpt lat="-32.178145689" lon="-64.674406185" /><trkpt lat="-32.178232266" lon="-64.674418781" /><trkpt lat="-32.178328450" lon="-64.674427922" /><trkpt lat="-32.178416225" lon="-64.674445689" /><trkpt lat="-32.178537072" lon="-64.674481738" /><trkpt lat="-32.178679695" lon="-64.674510598" /><trkpt lat="-32.178880853" lon="-64.674541283" /><trkpt lat="-32.179088766" lon="-64.674569392" /><trkpt lat="-32.179276629" lon="-64.674587846" /><trkpt lat="-32.179477512" lon="-64.674604540" /><trkpt lat="-32.179714373" lon="-64.674614646" /><trkpt lat="-32.179928205" lon="-64.674636254" /><trkpt lat="-32.180141728" lon="-64.674652584" /><trkpt lat="-32.180302746" lon="-64.674665630" /><trkpt lat="-32.180521643" lon="-64.674679620" /><trkpt lat="-32.180616590" lon="-64.674685564" /><trkpt lat="-32.180718184" lon="-64.674697816" /><trkpt lat="-32.180837321" lon="-64.674717557" /><trkpt lat="-32.180977707" lon="-64.674741161" /><trkpt lat="-32.181128444" lon="-64.674763477" /><trkpt lat="-32.181278636" lon="-64.674779356" /><trkpt lat="-32.181417387" lon="-64.674783647" /><trkpt lat="-32.181579510" lon="-64.674778540" /><trkpt lat="-32.181790886" lon="-64.674769828" /><trkpt lat="-32.182027214" lon="-64.674757769" /><trkpt lat="-32.182264196" lon="-64.674742620" /><trkpt lat="-32.182477532" lon="-64.674724638" /><trkpt lat="-32.182696805" lon="-64.674705048" /><trkpt lat="-32.182950292" lon="-64.674685071" /><trkpt lat="-32.183211734" lon="-64.674664965" /><trkpt lat="-32.183454869" lon="-64.674644988" /><trkpt lat="-32.183653438" lon="-64.674625397" /><trkpt lat="-32.183843815" lon="-64.674604239" /><trkpt lat="-32.184061214" lon="-64.674581022" /><trkpt lat="-32.184277633" lon="-64.674558191" /><trkpt lat="-32.184465067" lon="-64.674538193" /><trkpt lat="-32.184595514" lon="-64.674523473" /><trkpt lat="-32.184698992" lon="-64.674511564" /><trkpt lat="-32.184817506" lon="-64.674500942" /><trkpt lat="-32.184941033" lon="-64.674495471" /><trkpt lat="-32.185059547" lon="-64.674499011" /><trkpt lat="-32.185163025" lon="-64.674515426" /><trkpt lat="-32.185281212" lon="-64.674547033" /><trkpt lat="-32.185435138" lon="-64.674593832" /><trkpt lat="-32.185601704" lon="-64.674656210" /><trkpt lat="-32.185757809" lon="-64.674734552" /><trkpt lat="-32.185880354" lon="-64.674829245" /><trkpt lat="-32.185984430" lon="-64.674941318" /><trkpt lat="-32.186095152" lon="-64.675064077" /><trkpt lat="-32.186204457" lon="-64.675186322" /><trkpt lat="-32.186304283" lon="-64.675296850" /><trkpt lat="-32.186386567" lon="-64.675384462" /><trkpt lat="-32.186457591" lon="-64.675456688" /><trkpt lat="-32.186534171" lon="-64.675523894" /><trkpt lat="-32.186624045" lon="-64.675579126" /><trkpt lat="-32.186734948" lon="-64.675615432" /><trkpt lat="-32.186874617" lon="-64.675625861" /><trkpt lat="-32.187013141" lon="-64.675628114" /><trkpt lat="-32.187125841" lon="-64.675641954" /><trkpt lat="-32.187228299" lon="-64.675663519" /><trkpt lat="-32.187336096" lon="-64.675688946" /><trkpt lat="-32.187464813" lon="-64.675714374" /><trkpt lat="-32.187619517" lon="-64.675737011" /><trkpt lat="-32.187782828" lon="-64.675759649" /><trkpt lat="-32.187936659" lon="-64.675786793" /><trkpt lat="-32.188062924" lon="-64.675822949" /><trkpt lat="-32.188143535" lon="-64.675872624" /><trkpt lat="-32.188225053" lon="-64.675984504" /><trkpt lat="-32.188346778" lon="-64.676170285" /><trkpt lat="-32.188479724" lon="-64.676378982" /><trkpt lat="-32.188594911" lon="-64.676559613" /><trkpt lat="-32.188663355" lon="-64.676661193" /><trkpt lat="-32.188703578" lon="-64.676711040" /><trkpt lat="-32.188756332" lon="-64.676759984" /><trkpt lat="-32.188825974" lon="-64.676792321" /><trkpt lat="-32.188916862" lon="-64.676792343" /><trkpt lat="-32.189033356" lon="-64.676744342" /><trkpt lat="-32.189148451" lon="-64.676675978" /><trkpt lat="-32.189237178" lon="-64.676622291" /><trkpt lat="-32.189306947" lon="-64.676578646" /><trkpt lat="-32.189365166" lon="-64.676540408" /><trkpt lat="-32.189419245" lon="-64.676502943" /><trkpt lat="-32.189482276" lon="-64.676458440" /><trkpt lat="-32.189559581" lon="-64.676413422" /><trkpt lat="-32.189646909" lon="-64.676384754" /><trkpt lat="-32.189740013" lon="-64.676389303" /><trkpt lat="-32.189834641" lon="-64.676443934" /><trkpt lat="-32.189934518" lon="-64.676538992" /><trkpt lat="-32.190039297" lon="-64.676643705" /><trkpt lat="-32.190138628" lon="-64.676743269" /><trkpt lat="-32.190222161" lon="-64.676822877" /><trkpt lat="-32.190279545" lon="-64.676867723" /><trkpt lat="-32.190323962" lon="-64.676893773" /><trkpt lat="-32.190374481" lon="-64.676922913" /><trkpt lat="-32.190429576" lon="-64.676949220" /><trkpt lat="-32.190487722" lon="-64.676966772" /><trkpt lat="-32.190547393" lon="-64.676969647" /><trkpt lat="-32.190612095" lon="-64.676962137" /><trkpt lat="-32.190682571" lon="-64.676955914" /><trkpt lat="-32.190753155" lon="-64.676956129" /><trkpt lat="-32.190818183" lon="-64.676967931" /><trkpt lat="-32.190871989" lon="-64.676996469" /><trkpt lat="-32.190914627" lon="-64.677036917" /><trkpt lat="-32.190950509" lon="-64.677081871" /><trkpt lat="-32.190980508" lon="-64.677132618" /><trkpt lat="-32.191005495" lon="-64.677190447" /><trkpt lat="-32.191026342" lon="-64.677256644" /><trkpt lat="-32.191048114" lon="-64.677335351" /><trkpt lat="-32.191078495" lon="-64.677422812" /><trkpt lat="-32.191122276" lon="-64.677508471" /><trkpt lat="-32.191184253" lon="-64.677581770" /><trkpt lat="-32.191269220" lon="-64.677632153" /><trkpt lat="-32.191374651" lon="-64.677667601" /><trkpt lat="-32.191488363" lon="-64.677707169" /><trkpt lat="-32.191600658" lon="-64.677756908" /><trkpt lat="-32.191701840" lon="-64.677822869" /><trkpt lat="-32.191782212" lon="-64.677911103" /><trkpt lat="-32.191893835" lon="-64.678098643" /><trkpt lat="-32.192066690" lon="-64.678403986" /><trkpt lat="-32.192257957" lon="-64.678745377" /><trkpt lat="-32.192424820" lon="-64.679041064" /><trkpt lat="-32.192524457" lon="-64.679209292" /><trkpt lat="-32.192581948" lon="-64.679299629" /><trkpt lat="-32.192647719" lon="-64.679405415" /><trkpt lat="-32.192716977" lon="-64.679510558" /><trkpt lat="-32.192784927" lon="-64.679598963" /><trkpt lat="-32.192846776" lon="-64.679654539" /><trkpt lat="-32.192900272" lon="-64.679681768" /><trkpt lat="-32.192948973" lon="-64.679697926" /><trkpt lat="-32.192996803" lon="-64.679706101" /><trkpt lat="-32.193047684" lon="-64.679709384" /><trkpt lat="-32.193105538" lon="-64.679710865" /><trkpt lat="-32.193171890" lon="-64.679717581" /><trkpt lat="-32.193243035" lon="-64.679736915" /><trkpt lat="-32.193315053" lon="-64.679772470" /><trkpt lat="-32.193384019" lon="-64.679827852" /><trkpt lat="-32.193446013" lon="-64.679906666" /><trkpt lat="-32.193513581" lon="-64.680022774" /><trkpt lat="-32.193594333" lon="-64.680171840" /><trkpt lat="-32.193676936" lon="-64.680330176" /><trkpt lat="-32.193750061" lon="-64.680474093" /><trkpt lat="-32.193802376" lon="-64.680579901" /><trkpt lat="-32.193841053" lon="-64.680655818" /><trkpt lat="-32.193881910" lon="-64.680725684" /><trkpt lat="-32.193926580" lon="-64.680789242" /><trkpt lat="-32.193976698" lon="-64.680846233" /><trkpt lat="-32.194033897" lon="-64.680896401" /><trkpt lat="-32.194101465" lon="-64.680946999" /><trkpt lat="-32.194178403" lon="-64.681006994" /><trkpt lat="-32.194259916" lon="-64.681078706" /><trkpt lat="-32.194341212" lon="-64.681164451" /><trkpt lat="-32.194417495" lon="-64.681266546" /><trkpt lat="-32.194484899" lon="-64.681394820" /><trkpt lat="-32.194545440" lon="-64.681544080" /><trkpt lat="-32.194603147" lon="-64.681694112" /><trkpt lat="-32.194662053" lon="-64.681824703" /><trkpt lat="-32.194726188" lon="-64.681915641" /><trkpt lat="-32.194798295" lon="-64.681972010" /><trkpt lat="-32.194875959" lon="-64.682012544" /><trkpt lat="-32.194955474" lon="-64.682037499" /><trkpt lat="-32.195033137" lon="-64.682047133" /><trkpt lat="-32.195105244" lon="-64.682041705" /><trkpt lat="-32.195165003" lon="-64.682027414" /><trkpt lat="-32.195212886" lon="-64.682008488" /><trkpt lat="-32.195256085" lon="-64.681982224" /><trkpt lat="-32.195301789" lon="-64.681945918" /><trkpt lat="-32.195357190" lon="-64.681896865" /><trkpt lat="-32.195426936" lon="-64.681828222" /><trkpt lat="-32.195507686" lon="-64.681741040" /><trkpt lat="-32.195594645" lon="-64.681644459" /><trkpt lat="-32.195683021" lon="-64.681547620" /><trkpt lat="-32.195768020" lon="-64.681459665" /><trkpt lat="-32.195871449" lon="-64.681359522" /><trkpt lat="-32.196003858" lon="-64.681232729" /><trkpt lat="-32.196143566" lon="-64.681098340" /><trkpt lat="-32.196268894" lon="-64.680975409" /><trkpt lat="-32.196358159" lon="-64.680882990" /><trkpt lat="-32.196434586" lon="-64.680793748" /><trkpt lat="-32.196527791" lon="-64.680678885" /><trkpt lat="-32.196625681" lon="-64.680555267" /><trkpt lat="-32.196716162" lon="-64.680439761" /><trkpt lat="-32.196787142" lon="-64.680349231" /><trkpt lat="-32.196865875" lon="-64.680245955" /><trkpt lat="-32.196973588" lon="-64.680101738" /><trkpt lat="-32.197089145" lon="-64.679947736" /><trkpt lat="-32.197191410" lon="-64.679815106" /><trkpt lat="-32.197259248" lon="-64.679735005" /><trkpt lat="-32.197309418" lon="-64.679682584" /><trkpt lat="-32.197369721" lon="-64.679617546" /><trkpt lat="-32.197435579" lon="-64.679547873" /><trkpt lat="-32.197502418" lon="-64.679481547" /><trkpt lat="-32.197565662" lon="-64.679426551" /><trkpt lat="-32.197640835" lon="-64.679369388" /><trkpt lat="-32.197735619" lon="-64.679290466" /><trkpt lat="-32.197833671" lon="-64.679188628" /><trkpt lat="-32.197918649" lon="-64.679062715" /><trkpt lat="-32.197974212" lon="-64.678911567" /><trkpt lat="-32.198008167" lon="-64.678759046" /><trkpt lat="-32.198036675" lon="-64.678627381" /><trkpt lat="-32.198055922" lon="-64.678512969" /><trkpt lat="-32.198062095" lon="-64.678412204" /><trkpt lat="-32.198051382" lon="-64.678321481" /><trkpt lat="-32.198035131" lon="-64.678236916" /><trkpt lat="-32.198029775" lon="-64.678161235" /><trkpt lat="-32.198039126" lon="-64.678100746" /><trkpt lat="-32.198066998" lon="-64.678061757" /><trkpt lat="-32.198117204" lon="-64.678050578" /><trkpt lat="-32.198173166" lon="-64.678086648" /><trkpt lat="-32.198215183" lon="-64.678174989" /><trkpt lat="-32.198242383" lon="-64.678300281" /><trkpt lat="-32.198253895" lon="-64.678447201" /><trkpt lat="-32.198248847" lon="-64.678600430" /><trkpt lat="-32.198229546" lon="-64.678760934" /><trkpt lat="-32.198200112" lon="-64.678931737" /><trkpt lat="-32.198162399" lon="-64.679100609" /><trkpt lat="-32.198118257" lon="-64.679255319" /><trkpt lat="-32.198069540" lon="-64.679383636" /><trkpt lat="-32.198004717" lon="-64.679522982" /><trkpt lat="-32.197920828" lon="-64.679700823" /><trkpt lat="-32.197832582" lon="-64.679889994" /><trkpt lat="-32.197754685" lon="-64.680063329" /><trkpt lat="-32.197701846" lon="-64.680193663" /><trkpt lat="-32.197666964" lon="-64.680294063" /><trkpt lat="-32.197630885" lon="-64.680395622" /><trkpt lat="-32.197590230" lon="-64.680498211" /><trkpt lat="-32.197541621" lon="-64.680601702" /><trkpt lat="-32.197481682" lon="-64.680705965" /><trkpt lat="-32.197412228" lon="-64.680818875" /><trkpt lat="-32.197340595" lon="-64.680940411" /><trkpt lat="-32.197271686" lon="-64.681058600" /><trkpt lat="-32.197210404" lon="-64.681161468" /><trkpt lat="-32.197161650" lon="-64.681237042" /><trkpt lat="-32.197116509" lon="-64.681299806" /><trkpt lat="-32.197061999" lon="-64.681372225" /><trkpt lat="-32.196996921" lon="-64.681454301" /><trkpt lat="-32.196920076" lon="-64.681546032" /><trkpt lat="-32.196830267" lon="-64.681647420" /><trkpt lat="-32.196727747" lon="-64.681765587" /><trkpt lat="-32.196620760" lon="-64.681897531" /><trkpt lat="-32.196517822" lon="-64.682017329" /><trkpt lat="-32.196436529" lon="-64.682120519" /><trkpt lat="-32.196310494" lon="-64.682291150" /><trkpt lat="-32.196262829" lon="-64.682352841" /><trkpt lat="-32.196246941" lon="-64.682417214" /><trkpt lat="-32.196256020" lon="-64.682473540" /><trkpt lat="-32.196294606" lon="-64.682537913" /><trkpt lat="-32.196337731" lon="-64.682580829" /><trkpt lat="-32.196376317" lon="-64.682610333" /><trkpt lat="-32.196412633" lon="-64.682615697" /><trkpt lat="-32.196453489" lon="-64.682615697" /><trkpt lat="-32.196505693" lon="-64.682588875" /><trkpt lat="-32.196653481" lon="-64.682474012" /><trkpt lat="-32.196731324" lon="-64.682407408" /><trkpt lat="-32.196823767" lon="-64.682337842" /><trkpt lat="-32.196927866" lon="-64.682269692" /><trkpt lat="-32.197060819" lon="-64.682187767" /><trkpt lat="-32.197224494" lon="-64.682086143" /><trkpt lat="-32.197392962" lon="-64.681983104" /><trkpt lat="-32.197540295" lon="-64.681896930" /><trkpt lat="-32.197640563" lon="-64.681845903" /><trkpt lat="-32.197749019" lon="-64.681802967" /><trkpt lat="-32.197913365" lon="-64.681738658" /><trkpt lat="-32.198096341" lon="-64.681667655" /><trkpt lat="-32.198260686" lon="-64.681604633" /><trkpt lat="-32.198369142" lon="-64.681564271" /><trkpt lat="-32.198464724" lon="-64.681530025" /><trkpt lat="-32.198596693" lon="-64.681478913" /><trkpt lat="-32.198737161" lon="-64.681415956" /><trkpt lat="-32.198858235" lon="-64.681346176" /><trkpt lat="-32.198932028" lon="-64.681274593" /><trkpt lat="-32.198968561" lon="-64.681201057" /><trkpt lat="-32.198997685" lon="-64.681122758" /><trkpt lat="-32.199021254" lon="-64.681040726" /><trkpt lat="-32.199041118" lon="-64.680955989" /><trkpt lat="-32.199059131" lon="-64.680869579" /><trkpt lat="-32.199080175" lon="-64.680790486" /><trkpt lat="-32.199107103" lon="-64.680723495" /><trkpt lat="-32.199138715" lon="-64.680663328" /><trkpt lat="-32.199173813" lon="-64.680604706" /><trkpt lat="-32.199211200" lon="-64.680542350" /><trkpt lat="-32.199261042" lon="-64.680450618" /><trkpt lat="-32.199329950" lon="-64.680326700" /><trkpt lat="-32.199411386" lon="-64.680199564" /><trkpt lat="-32.199498814" lon="-64.680098176" /><trkpt lat="-32.199585697" lon="-64.680051506" /><trkpt lat="-32.199667533" lon="-64.680044639" /><trkpt lat="-32.199742504" lon="-64.680039060" /><trkpt lat="-32.199808107" lon="-64.680028331" /><trkpt lat="-32.199861835" lon="-64.680006015" /><trkpt lat="-32.199901182" lon="-64.679965675" /><trkpt lat="-32.199939276" lon="-64.679895980" /><trkpt lat="-32.199988591" lon="-64.679799507" /><trkpt lat="-32.200045642" lon="-64.679690673" /><trkpt lat="-32.200106941" lon="-64.679583900" /><trkpt lat="-32.200169002" lon="-64.679493606" /><trkpt lat="-32.200229394" lon="-64.679413311" /><trkpt lat="-32.200293162" lon="-64.679335334" /><trkpt lat="-32.200368042" lon="-64.679272292" /><trkpt lat="-32.200461770" lon="-64.679236801" /><trkpt lat="-32.200582080" lon="-64.679241478" /><trkpt lat="-32.200719040" lon="-64.679272656" /><trkpt lat="-32.200853058" lon="-64.679306796" /><trkpt lat="-32.200977380" lon="-64.679341707" /><trkpt lat="-32.201085251" lon="-64.679375203" /><trkpt lat="-32.201169918" lon="-64.679405093" /><trkpt lat="-32.201241929" lon="-64.679438267" /><trkpt lat="-32.201317862" lon="-64.679472857" /><trkpt lat="-32.201400005" lon="-64.679493542" /><trkpt lat="-32.201490645" lon="-64.679485002" /><trkpt lat="-32.201592070" lon="-64.679431915" /><trkpt lat="-32.201683617" lon="-64.679364839" /><trkpt lat="-32.201748692" lon="-64.679317589" /><trkpt lat="-32.201795682" lon="-64.679279737" /><trkpt lat="-32.201832977" lon="-64.679240856" /><trkpt lat="-32.201868964" lon="-64.679190516" /><trkpt lat="-32.201917443" lon="-64.679109406" /><trkpt lat="-32.201981174" lon="-64.678999329" /><trkpt lat="-32.202051986" lon="-64.678881526" /><trkpt lat="-32.202121708" lon="-64.678777242" /><trkpt lat="-32.202182171" lon="-64.678707719" /><trkpt lat="-32.202234390" lon="-64.678663859" /><trkpt lat="-32.202288897" lon="-64.678624635" /><trkpt lat="-32.202351793" lon="-64.678593392" /><trkpt lat="-32.202429177" lon="-64.678573480" /><trkpt lat="-32.202527151" lon="-64.678568244" /><trkpt lat="-32.202629719" lon="-64.678566291" /><trkpt lat="-32.202716382" lon="-64.678551335" /><trkpt lat="-32.202786485" lon="-64.678519385" /><trkpt lat="-32.202839376" lon="-64.678466449" /><trkpt lat="-32.202874400" lon="-64.678388536" /><trkpt lat="-32.202908989" lon="-64.678276441" /><trkpt lat="-32.202959918" lon="-64.678133576" /><trkpt lat="-32.203025555" lon="-64.677974875" /><trkpt lat="-32.203104264" lon="-64.677815273" /><trkpt lat="-32.203192143" lon="-64.677656293" /><trkpt lat="-32.203285595" lon="-64.677525315" /><trkpt lat="-32.203383169" lon="-64.677405410" /><trkpt lat="-32.203470557" lon="-64.677297349" /><trkpt lat="-32.203567496" lon="-64.677212634" /><trkpt lat="-32.203652868" lon="-64.677135944" /><trkpt lat="-32.203712403" lon="-64.677068782" /><trkpt lat="-32.203767018" lon="-64.676982522" /><trkpt lat="-32.203814335" lon="-64.676891756" /><trkpt lat="-32.203854243" lon="-64.676800346" /><trkpt lat="-32.203886634" lon="-64.676712155" /><trkpt lat="-32.203914704" lon="-64.676634350" /><trkpt lat="-32.203942883" lon="-64.676566715" /><trkpt lat="-32.203972914" lon="-64.676502042" /><trkpt lat="-32.204006540" lon="-64.676433120" /><trkpt lat="-32.204045504" lon="-64.676352739" /><trkpt lat="-32.204090350" lon="-64.676255665" /><trkpt lat="-32.204163521" lon="-64.676060379" /><trkpt lat="-32.204229338" lon="-64.675915539" /><trkpt lat="-32.204265651" lon="-64.675843120" /><trkpt lat="-32.204313312" lon="-64.675770700" /><trkpt lat="-32.204354164" lon="-64.675733149" /><trkpt lat="-32.204406364" lon="-64.675682187" /><trkpt lat="-32.204469912" lon="-64.675644636" /><trkpt lat="-32.204537998" lon="-64.675607085" /><trkpt lat="-32.204730910" lon="-64.675518572" /><trkpt lat="-32.204966943" lon="-64.675397873" /><trkpt lat="-32.205073612" lon="-64.675333500" /><trkpt lat="-32.205352765" lon="-64.675135016" /><trkpt lat="-32.205541136" lon="-64.674974084" /><trkpt lat="-32.205856599" lon="-64.674700499" /><trkpt lat="-32.206026813" lon="-64.674531519" /><trkpt lat="-32.206119863" lon="-64.674408138" /><trkpt lat="-32.206178871" lon="-64.674276710" /><trkpt lat="-32.206217452" lon="-64.674094319" /><trkpt lat="-32.206251495" lon="-64.673810005" /><trkpt lat="-32.206290077" lon="-64.673667848" /><trkpt lat="-32.206385396" lon="-64.673480093" /><trkpt lat="-32.206521567" lon="-64.673303068" /><trkpt lat="-32.206764403" lon="-64.672989249" /><trkpt lat="-32.207170642" lon="-64.672439396" /><trkpt lat="-32.207560994" lon="-64.671846628" /><trkpt lat="-32.207765246" lon="-64.671578407" /><trkpt lat="-32.207819714" lon="-64.671532810" /><trkpt lat="-32.207883259" lon="-64.671489894" /><trkpt lat="-32.207953612" lon="-64.671463072" /><trkpt lat="-32.208033044" lon="-64.671441615" /><trkpt lat="-32.208284954" lon="-64.671425521" /><trkpt lat="-32.208738845" lon="-64.671414793" /><trkpt lat="-32.208965790" lon="-64.671433568" /><trkpt lat="-32.209070184" lon="-64.671476483" /><trkpt lat="-32.209145076" lon="-64.671527445" /><trkpt lat="-32.209224506" lon="-64.671618640" /><trkpt lat="-32.209306206" lon="-64.671720564" /><trkpt lat="-32.209396983" lon="-64.671843946" /><trkpt lat="-32.209544496" lon="-64.672082663" /><trkpt lat="-32.209619387" lon="-64.672173858" /><trkpt lat="-32.209685200" lon="-64.672246277" /><trkpt lat="-32.209751014" lon="-64.672302604" /><trkpt lat="-32.209825905" lon="-64.672348201" /><trkpt lat="-32.209880371" lon="-64.672364295" /><trkpt lat="-32.209934837" lon="-64.672364295" /><trkpt lat="-32.210014267" lon="-64.672353566" /><trkpt lat="-32.210130007" lon="-64.672334790" /><trkpt lat="-32.210520345" lon="-64.672216773" /><trkpt lat="-32.210642893" lon="-64.672176540" /><trkpt lat="-32.210735938" lon="-64.672133625" /><trkpt lat="-32.210824445" lon="-64.672082663" /><trkpt lat="-32.211008266" lon="-64.671951234" /><trkpt lat="-32.211155776" lon="-64.671806395" /><trkpt lat="-32.211239743" lon="-64.671739340" /><trkpt lat="-32.211323711" lon="-64.671672285" /><trkpt lat="-32.211387254" lon="-64.671632051" /><trkpt lat="-32.211464412" lon="-64.671602547" /><trkpt lat="-32.211564265" lon="-64.671562314" /><trkpt lat="-32.211664118" lon="-64.671546221" /><trkpt lat="-32.211763970" lon="-64.671530128" /><trkpt lat="-32.211854745" lon="-64.671522081" /><trkpt lat="-32.211936442" lon="-64.671532810" /><trkpt lat="-32.212020409" lon="-64.671559632" /><trkpt lat="-32.212113453" lon="-64.671602547" /><trkpt lat="-32.212435702" lon="-64.671806395" /><trkpt lat="-32.212712563" lon="-64.671948552" /><trkpt lat="-32.212801068" lon="-64.672007561" /><trkpt lat="-32.212837378" lon="-64.672045112" /><trkpt lat="-32.212860071" lon="-64.672082663" /><trkpt lat="-32.212889573" lon="-64.672141671" /><trkpt lat="-32.212921343" lon="-64.672222137" /><trkpt lat="-32.212969000" lon="-64.672399163" /><trkpt lat="-32.213037080" lon="-64.672683477" /><trkpt lat="-32.213105160" lon="-64.672927558" /><trkpt lat="-32.213170971" lon="-64.673107266" /><trkpt lat="-32.213223166" lon="-64.673185050" /><trkpt lat="-32.213284438" lon="-64.673254788" /><trkpt lat="-32.213345710" lon="-64.673303068" /><trkpt lat="-32.213436483" lon="-64.673359394" /><trkpt lat="-32.213774613" lon="-64.673536420" /><trkpt lat="-32.214053739" lon="-64.673686624" /><trkpt lat="-32.214201245" lon="-64.673769772" /><trkpt lat="-32.214316980" lon="-64.673852921" /><trkpt lat="-32.214459946" lon="-64.673936069" /><trkpt lat="-32.214548449" lon="-64.673984349" /><trkpt lat="-32.214632413" lon="-64.674011171" /><trkpt lat="-32.214729993" lon="-64.674032629" /><trkpt lat="-32.214857074" lon="-64.674043357" /><trkpt lat="-32.214984154" lon="-64.674046040" /><trkpt lat="-32.215124850" lon="-64.674064815" /><trkpt lat="-32.215245122" lon="-64.674091637" /><trkpt lat="-32.215347240" lon="-64.674139917" /><trkpt lat="-32.215435742" lon="-64.674180150" /><trkpt lat="-32.215535591" lon="-64.674255252" /><trkpt lat="-32.215621823" lon="-64.674349129" /><trkpt lat="-32.215687632" lon="-64.674448371" /><trkpt lat="-32.215742095" lon="-64.674633443" /><trkpt lat="-32.215821519" lon="-64.674864113" /><trkpt lat="-32.215891867" lon="-64.675100148" /><trkpt lat="-32.215941791" lon="-64.675282538" /><trkpt lat="-32.215971291" lon="-64.675352275" /><trkpt lat="-32.216007600" lon="-64.675384462" /><trkpt lat="-32.216050716" lon="-64.675400555" /><trkpt lat="-32.216111986" lon="-64.675400555" /><trkpt lat="-32.216161910" lon="-64.675376415" /><trkpt lat="-32.216225449" lon="-64.675336182" /><trkpt lat="-32.216311681" lon="-64.675263762" /><trkpt lat="-32.216425144" lon="-64.675145745" /><trkpt lat="-32.216620300" lon="-64.674952626" /><trkpt lat="-32.216733762" lon="-64.674869478" /><trkpt lat="-32.216810917" lon="-64.674834609" /><trkpt lat="-32.216878994" lon="-64.674815834" /><trkpt lat="-32.216940264" lon="-64.674823880" /><trkpt lat="-32.216999264" lon="-64.674842656" /><trkpt lat="-32.217071880" lon="-64.674880207" /><trkpt lat="-32.217133149" lon="-64.674936533" /><trkpt lat="-32.217196688" lon="-64.675025046" /><trkpt lat="-32.217273842" lon="-64.675135016" /><trkpt lat="-32.217407727" lon="-64.675354958" /><trkpt lat="-32.217537073" lon="-64.675601721" /><trkpt lat="-32.217611958" lon="-64.675746560" /><trkpt lat="-32.217639188" lon="-64.675832391" /><trkpt lat="-32.217652804" lon="-64.675928950" /><trkpt lat="-32.217652804" lon="-64.676001370" /><trkpt lat="-32.217639188" lon="-64.676089883" /><trkpt lat="-32.217623304" lon="-64.676167667" /><trkpt lat="-32.217591535" lon="-64.676256180" /><trkpt lat="-32.217527996" lon="-64.676425159" /><trkpt lat="-32.217491688" lon="-64.676545858" /><trkpt lat="-32.217457650" lon="-64.676663876" /><trkpt lat="-32.217421342" lon="-64.676800668" /><trkpt lat="-32.217400919" lon="-64.676918685" /><trkpt lat="-32.217387304" lon="-64.677025974" /><trkpt lat="-32.217387304" lon="-64.677208364" /><trkpt lat="-32.217387304" lon="-64.677409530" /><trkpt lat="-32.217391842" lon="-64.677578509" /><trkpt lat="-32.217403188" lon="-64.677707255" /><trkpt lat="-32.217423611" lon="-64.677862823" /><trkpt lat="-32.217471265" lon="-64.678080082" /><trkpt lat="-32.217509842" lon="-64.678297341" /><trkpt lat="-32.217523458" lon="-64.678474367" /><trkpt lat="-32.217521188" lon="-64.678635299" /><trkpt lat="-32.217509842" lon="-64.678796232" /><trkpt lat="-32.217487150" lon="-64.678892791" /><trkpt lat="-32.217455381" lon="-64.678983986" /><trkpt lat="-32.217407727" lon="-64.679061770" /><trkpt lat="-32.217337381" lon="-64.679142237" /><trkpt lat="-32.217255688" lon="-64.679217339" /><trkpt lat="-32.217171726" lon="-64.679276347" /><trkpt lat="-32.216992456" lon="-64.679407775" /><trkpt lat="-32.216906225" lon="-64.679501653" /><trkpt lat="-32.216808647" lon="-64.679630399" /><trkpt lat="-32.216760993" lon="-64.679724276" /><trkpt lat="-32.216726955" lon="-64.679850340" /><trkpt lat="-32.216708801" lon="-64.679989815" /><trkpt lat="-32.216708801" lon="-64.680121243" /><trkpt lat="-32.216726955" lon="-64.680271447" /><trkpt lat="-32.216754186" lon="-64.680400193" /><trkpt lat="-32.216779147" lon="-64.680526257" /><trkpt lat="-32.216819994" lon="-64.680679142" /><trkpt lat="-32.216842686" lon="-64.680848122" /><trkpt lat="-32.216847225" lon="-64.680990279" /><trkpt lat="-32.216833609" lon="-64.681108296" /><trkpt lat="-32.216806378" lon="-64.681212902" /><trkpt lat="-32.216763263" lon="-64.681301415" /><trkpt lat="-32.216715608" lon="-64.681384563" /><trkpt lat="-32.216679300" lon="-64.681526721" /><trkpt lat="-32.216640723" lon="-64.681746662" /><trkpt lat="-32.216620300" lon="-64.681961238" /><trkpt lat="-32.216590799" lon="-64.682275057" /><trkpt lat="-32.216556761" lon="-64.682500362" /><trkpt lat="-32.216549953" lon="-64.682672024" /><trkpt lat="-32.216563568" lon="-64.682768583" /><trkpt lat="-32.216581722" lon="-64.682843685" /><trkpt lat="-32.216631646" lon="-64.682918787" /><trkpt lat="-32.216722416" lon="-64.683034122" /><trkpt lat="-32.216792763" lon="-64.683149457" /><trkpt lat="-32.216876725" lon="-64.683256745" /><trkpt lat="-32.216903956" lon="-64.683406949" /><trkpt lat="-32.216944802" lon="-64.683664441" /><trkpt lat="-32.217026495" lon="-64.684039950" /><trkpt lat="-32.217101380" lon="-64.684267938" /><trkpt lat="-32.217173996" lon="-64.684509337" /><trkpt lat="-32.217230727" lon="-64.684758782" /><trkpt lat="-32.217289727" lon="-64.684973359" /><trkpt lat="-32.217350996" lon="-64.685147703" /><trkpt lat="-32.217380496" lon="-64.685249627" /><trkpt lat="-32.217385035" lon="-64.685322046" /><trkpt lat="-32.217375958" lon="-64.685381055" /><trkpt lat="-32.217350996" lon="-64.685445428" /><trkpt lat="-32.217271573" lon="-64.685566127" /><trkpt lat="-32.217196688" lon="-64.685689509" /><trkpt lat="-32.217119534" lon="-64.685837030" /><trkpt lat="-32.217083226" lon="-64.685930908" /><trkpt lat="-32.217067341" lon="-64.686011374" /><trkpt lat="-32.217062803" lon="-64.686126709" /><trkpt lat="-32.217042380" lon="-64.686274230" /><trkpt lat="-32.217015149" lon="-64.686435163" /><trkpt lat="-32.216949341" lon="-64.686676562" /><trkpt lat="-32.216865379" lon="-64.686936736" /><trkpt lat="-32.216822263" lon="-64.687019885" /><trkpt lat="-32.216754185" lon="-64.687124491" /><trkpt lat="-32.216679300" lon="-64.687186182" /><trkpt lat="-32.216577184" lon="-64.687274694" /><trkpt lat="-32.216477336" lon="-64.687376618" /><trkpt lat="-32.216411528" lon="-64.687406123" /><trkpt lat="-32.216350258" lon="-64.687408805" /><trkpt lat="-32.216279911" lon="-64.687384665" /><trkpt lat="-32.216209564" lon="-64.687355161" /><trkpt lat="-32.216148294" lon="-64.687347114" /><trkpt lat="-32.216087023" lon="-64.687355161" /><trkpt lat="-32.216014407" lon="-64.687395394" /><trkpt lat="-32.215910021" lon="-64.687500000" /><trkpt lat="-32.215687632" lon="-64.687752128" /><trkpt lat="-32.215603669" lon="-64.687867463" /><trkpt lat="-32.215528782" lon="-64.687990844" /><trkpt lat="-32.215472050" lon="-64.688127637" /><trkpt lat="-32.215422126" lon="-64.688264430" /><trkpt lat="-32.215383548" lon="-64.688387811" /><trkpt lat="-32.215329085" lon="-64.688546062" /><trkpt lat="-32.215254199" lon="-64.688693583" /><trkpt lat="-32.215174774" lon="-64.688830376" /><trkpt lat="-32.215104426" lon="-64.688980579" /><trkpt lat="-32.215049963" lon="-64.689130783" /><trkpt lat="-32.215006846" lon="-64.689272940" /><trkpt lat="-32.214961461" lon="-64.689460695" /><trkpt lat="-32.214925152" lon="-64.689640403" /><trkpt lat="-32.214893382" lon="-64.689766467" /><trkpt lat="-32.214857073" lon="-64.689857662" /><trkpt lat="-32.214800341" lon="-64.689981043" /><trkpt lat="-32.214739069" lon="-64.690093696" /><trkpt lat="-32.214686876" lon="-64.690217078" /><trkpt lat="-32.214655105" lon="-64.690337777" /><trkpt lat="-32.214641490" lon="-64.690461159" /><trkpt lat="-32.214641490" lon="-64.690603316" /><trkpt lat="-32.214643759" lon="-64.690710604" /><trkpt lat="-32.214630143" lon="-64.690785706" /><trkpt lat="-32.214602911" lon="-64.690874219" /><trkpt lat="-32.214552987" lon="-64.690978825" /><trkpt lat="-32.214371442" lon="-64.691308737" /><trkpt lat="-32.214189897" lon="-64.691568911" /><trkpt lat="-32.214042392" lon="-64.691810310" /><trkpt lat="-32.213919849" lon="-64.692024887" /><trkpt lat="-32.213817729" lon="-64.692209959" /><trkpt lat="-32.213642991" lon="-64.692515731" /><trkpt lat="-32.213563565" lon="-64.692647159" /><trkpt lat="-32.213495485" lon="-64.692727625" /><trkpt lat="-32.213422866" lon="-64.692781270" /><trkpt lat="-32.213338901" lon="-64.692824185" /><trkpt lat="-32.213234511" lon="-64.692864418" /><trkpt lat="-32.213098351" lon="-64.692918062" /><trkpt lat="-32.212991692" lon="-64.692966342" /><trkpt lat="-32.212871417" lon="-64.693030715" /><trkpt lat="-32.212773835" lon="-64.693111181" /><trkpt lat="-32.212628596" lon="-64.693210423" /><trkpt lat="-32.212528745" lon="-64.693269432" /><trkpt lat="-32.212444779" lon="-64.693296254" /><trkpt lat="-32.212349466" lon="-64.693312347" /><trkpt lat="-32.212240536" lon="-64.693323076" /><trkpt lat="-32.212156570" lon="-64.693365991" /><trkpt lat="-32.212099836" lon="-64.693422318" /><trkpt lat="-32.212065795" lon="-64.693502784" /><trkpt lat="-32.212040832" lon="-64.693623483" /><trkpt lat="-32.212018138" lon="-64.693792462" /><trkpt lat="-32.211995445" lon="-64.694017768" /><trkpt lat="-32.211972751" lon="-64.694307446" /><trkpt lat="-32.211936441" lon="-64.694473743" /><trkpt lat="-32.211931902" lon="-64.694594443" /><trkpt lat="-32.211952327" lon="-64.694723189" /><trkpt lat="-32.211988637" lon="-64.694862664" /><trkpt lat="-32.212027216" lon="-64.695050418" /><trkpt lat="-32.212070334" lon="-64.695262313" /><trkpt lat="-32.212115721" lon="-64.695439339" /><trkpt lat="-32.212111183" lon="-64.695557356" /><trkpt lat="-32.212097566" lon="-64.695640504" /><trkpt lat="-32.212054448" lon="-64.695737064" /><trkpt lat="-32.211997714" lon="-64.695849717" /><trkpt lat="-32.211947788" lon="-64.695962369" /><trkpt lat="-32.211913748" lon="-64.696080387" /><trkpt lat="-32.211893323" lon="-64.696225226" /><trkpt lat="-32.211872899" lon="-64.696445167" /><trkpt lat="-32.211863821" lon="-64.696659744" /><trkpt lat="-32.211834320" lon="-64.696839452" /><trkpt lat="-32.211807087" lon="-64.696981609" /><trkpt lat="-32.211773046" lon="-64.697094262" /><trkpt lat="-32.211716312" lon="-64.697231054" /><trkpt lat="-32.211652770" lon="-64.697354436" /><trkpt lat="-32.211607382" lon="-64.697450995" /><trkpt lat="-32.211575611" lon="-64.697542191" /><trkpt lat="-32.211543839" lon="-64.697649479" /><trkpt lat="-32.211521146" lon="-64.697805047" /><trkpt lat="-32.211498452" lon="-64.697931111" /><trkpt lat="-32.211466681" lon="-64.698051810" /><trkpt lat="-32.211419023" lon="-64.698177874" /><trkpt lat="-32.211375905" lon="-64.698295891" /><trkpt lat="-32.211303285" lon="-64.698408544" /><trkpt lat="-32.211148967" lon="-64.698628485" /><trkpt lat="-32.211003726" lon="-64.698792100" /><trkpt lat="-32.210865292" lon="-64.698985219" /><trkpt lat="-32.210804019" lon="-64.699095190" /><trkpt lat="-32.210737209" lon="-64.699237258" /><trkpt lat="-32.210683741" lon="-64.699457288" /><trkpt lat="-32.210554385" lon="-64.699792564" /><trkpt lat="-32.210445453" lon="-64.700015187" /><trkpt lat="-32.210331983" lon="-64.700186849" /><trkpt lat="-32.210202626" lon="-64.700353146" /><trkpt lat="-32.210098233" lon="-64.700506032" /><trkpt lat="-32.209962068" lon="-64.700672328" /><trkpt lat="-32.209832711" lon="-64.700787663" /><trkpt lat="-32.209712432" lon="-64.700876176" /><trkpt lat="-32.209578536" lon="-64.700940549" /><trkpt lat="-32.209476411" lon="-64.700964689" /><trkpt lat="-32.209285779" lon="-64.701018333" /><trkpt lat="-32.209070182" lon="-64.701061249" /><trkpt lat="-32.208872741" lon="-64.701098800" /><trkpt lat="-32.208657143" lon="-64.701152444" /><trkpt lat="-32.208471048" lon="-64.701214135" /><trkpt lat="-32.208300838" lon="-64.701305330" /><trkpt lat="-32.208203252" lon="-64.701361656" /><trkpt lat="-32.208107934" lon="-64.701468945" /><trkpt lat="-32.208023964" lon="-64.701603055" /><trkpt lat="-32.207958149" lon="-64.701747894" /><trkpt lat="-32.207903682" lon="-64.701914191" /><trkpt lat="-32.207817442" lon="-64.702193141" /><trkpt lat="-32.207617728" lon="-64.702769816" /><trkpt lat="-32.207472482" lon="-64.703177512" /><trkpt lat="-32.207386241" lon="-64.703418911" /><trkpt lat="-32.207318157" lon="-64.703606665" /><trkpt lat="-32.207243264" lon="-64.703719318" /><trkpt lat="-32.207172910" lon="-64.703797102" /><trkpt lat="-32.207070783" lon="-64.703893661" /><trkpt lat="-32.206932344" lon="-64.704017043" /><trkpt lat="-32.206771209" lon="-64.704177976" /><trkpt lat="-32.206691777" lon="-64.704263806" /><trkpt lat="-32.206610075" lon="-64.704371095" /><trkpt lat="-32.206530642" lon="-64.704502523" /><trkpt lat="-32.206460288" lon="-64.704599082" /><trkpt lat="-32.206376316" lon="-64.704687595" /><trkpt lat="-32.206115322" lon="-64.704947770" /><trkpt lat="-32.206013194" lon="-64.705028236" /><trkpt lat="-32.205906526" lon="-64.705089927" /><trkpt lat="-32.205808937" lon="-64.705111384" /><trkpt lat="-32.205690922" lon="-64.705138206" /><trkpt lat="-32.205557020" lon="-64.705197215" /><trkpt lat="-32.205423117" lon="-64.705266953" /><trkpt lat="-32.205284676" lon="-64.705336690" /><trkpt lat="-32.205182547" lon="-64.705384970" /><trkpt lat="-32.205050913" lon="-64.705419838" /><trkpt lat="-32.204919280" lon="-64.705452025" /><trkpt lat="-32.204812611" lon="-64.705521762" /><trkpt lat="-32.204696864" lon="-64.705631733" /><trkpt lat="-32.204481257" lon="-64.705835581" /><trkpt lat="-32.204245223" lon="-64.706050158" /><trkpt lat="-32.204056849" lon="-64.706232548" /><trkpt lat="-32.203943370" lon="-64.706366658" /><trkpt lat="-32.203838970" lon="-64.706492722" /><trkpt lat="-32.203759535" lon="-64.706570506" /><trkpt lat="-32.203675561" lon="-64.706618786" /><trkpt lat="-32.203582508" lon="-64.706661701" /><trkpt lat="-32.203453142" lon="-64.706731439" /><trkpt lat="-32.203339663" lon="-64.706785083" /><trkpt lat="-32.203178522" lon="-64.706830680" /><trkpt lat="-32.203003764" lon="-64.706865549" /><trkpt lat="-32.202819927" lon="-64.706905782" /><trkpt lat="-32.202613393" lon="-64.706946015" /><trkpt lat="-32.202533957" lon="-64.706968814" /><trkpt lat="-32.202472678" lon="-64.706999660" /><trkpt lat="-32.202345580" lon="-64.707085490" /><trkpt lat="-32.202243447" lon="-64.707190096" /><trkpt lat="-32.202164011" lon="-64.707324207" /><trkpt lat="-32.202102731" lon="-64.707474411" /><trkpt lat="-32.202005138" lon="-64.707753360" /><trkpt lat="-32.201934780" lon="-64.707895517" /><trkpt lat="-32.201853073" lon="-64.707986712" /><trkpt lat="-32.201760019" lon="-64.708059132" /><trkpt lat="-32.201687391" lon="-64.708153009" /><trkpt lat="-32.201619302" lon="-64.708284438" /><trkpt lat="-32.201567101" lon="-64.708442688" /><trkpt lat="-32.201496742" lon="-64.708684087" /><trkpt lat="-32.201460428" lon="-64.708818197" /><trkpt lat="-32.201437732" lon="-64.708963037" /><trkpt lat="-32.201433192" lon="-64.709105194" /><trkpt lat="-32.201426383" lon="-64.709276855" /><trkpt lat="-32.201415035" lon="-64.709381461" /><trkpt lat="-32.201378721" lon="-64.709510207" /><trkpt lat="-32.201319711" lon="-64.709665775" /><trkpt lat="-32.201206229" lon="-64.709891081" /><trkpt lat="-32.201085938" lon="-64.710121751" /><trkpt lat="-32.200836277" lon="-64.710489213" /><trkpt lat="-32.200670593" lon="-64.710706472" /><trkpt lat="-32.200527605" lon="-64.710886180" /><trkpt lat="-32.200414122" lon="-64.711039066" /><trkpt lat="-32.200352841" lon="-64.711132944" /><trkpt lat="-32.200291561" lon="-64.711267054" /><trkpt lat="-32.200214392" lon="-64.711430669" /><trkpt lat="-32.200144032" lon="-64.711564779" /><trkpt lat="-32.200075943" lon="-64.711669385" /><trkpt lat="-32.200028280" lon="-64.711747169" /><trkpt lat="-32.199982886" lon="-64.711859822" /><trkpt lat="-32.199946572" lon="-64.712001979" /><trkpt lat="-32.199901178" lon="-64.712187052" /><trkpt lat="-32.199871672" lon="-64.712318480" /><trkpt lat="-32.199837627" lon="-64.712412357" /><trkpt lat="-32.199789964" lon="-64.712498188" /><trkpt lat="-32.199721874" lon="-64.712578654" /><trkpt lat="-32.199603851" lon="-64.712669849" /><trkpt lat="-32.199506255" lon="-64.712766409" /><trkpt lat="-32.199390501" lon="-64.712911248" /><trkpt lat="-32.199267938" lon="-64.713077545" /><trkpt lat="-32.199140836" lon="-64.713273346" /><trkpt lat="-32.199034160" lon="-64.713474512" /><trkpt lat="-32.198950181" lon="-64.713654220" /><trkpt lat="-32.198866203" lon="-64.713906348" /><trkpt lat="-32.198782224" lon="-64.714155793" /><trkpt lat="-32.198743639" lon="-64.714279175" /><trkpt lat="-32.198709594" lon="-64.714343548" /><trkpt lat="-32.198675548" lon="-64.714378417" /><trkpt lat="-32.198632424" lon="-64.714402556" /><trkpt lat="-32.198573412" lon="-64.714418650" /><trkpt lat="-32.198493972" lon="-64.714418650" /><trkpt lat="-32.198403184" lon="-64.714434743" /><trkpt lat="-32.198310126" lon="-64.714464247" /><trkpt lat="-32.198251113" lon="-64.714488387" /><trkpt lat="-32.198189831" lon="-64.714488387" /><trkpt lat="-32.198119470" lon="-64.714458883" /><trkpt lat="-32.198037760" lon="-64.714429379" /><trkpt lat="-32.197969669" lon="-64.714426696" /><trkpt lat="-32.197899307" lon="-64.714445472" /><trkpt lat="-32.197826676" lon="-64.714480340" /><trkpt lat="-32.197744966" lon="-64.714493752" /><trkpt lat="-32.197674605" lon="-64.714488387" /><trkpt lat="-32.197599704" lon="-64.714469612" /><trkpt lat="-32.197533882" lon="-64.714418650" /><trkpt lat="-32.197434014" lon="-64.714292586" /><trkpt lat="-32.197284211" lon="-64.714061916" /><trkpt lat="-32.197259244" lon="-64.713989496" /><trkpt lat="-32.197238816" lon="-64.713919759" /><trkpt lat="-32.197218389" lon="-64.713785648" /><trkpt lat="-32.197184343" lon="-64.713675678" /><trkpt lat="-32.197134409" lon="-64.713608623" /><trkpt lat="-32.197070856" lon="-64.713589847" /><trkpt lat="-32.196986875" lon="-64.713611305" /><trkpt lat="-32.196914244" lon="-64.713656902" /><trkpt lat="-32.196862039" lon="-64.713707864" /><trkpt lat="-32.196816645" lon="-64.713782966" /><trkpt lat="-32.196753092" lon="-64.713951945" /><trkpt lat="-32.196698618" lon="-64.714053869" /><trkpt lat="-32.196637334" lon="-64.714131653" /><trkpt lat="-32.196551084" lon="-64.714179933" /><trkpt lat="-32.196435326" lon="-64.714225531" /><trkpt lat="-32.196310490" lon="-64.714303315" /><trkpt lat="-32.196215160" lon="-64.714362323" /><trkpt lat="-32.196135718" lon="-64.714445472" /><trkpt lat="-32.196060816" lon="-64.714509845" /><trkpt lat="-32.196019960" lon="-64.714536667" /><trkpt lat="-32.195976834" lon="-64.714550078" /><trkpt lat="-32.195933709" lon="-64.714550078" /><trkpt lat="-32.195883774" lon="-64.714531302" /><trkpt lat="-32.195840648" lon="-64.714491069" /><trkpt lat="-32.195813411" lon="-64.714418650" /><trkpt lat="-32.195774825" lon="-64.714343548" /><trkpt lat="-32.195752127" lon="-64.714295268" /><trkpt lat="-32.195718080" lon="-64.714268446" /><trkpt lat="-32.195668145" lon="-64.714241624" /><trkpt lat="-32.195584164" lon="-64.714241624" /><trkpt lat="-32.195459326" lon="-64.714257717" /><trkpt lat="-32.195320869" lon="-64.714276493" /><trkpt lat="-32.195209650" lon="-64.714308679" /><trkpt lat="-32.195100700" lon="-64.714346230" /><trkpt lat="-32.195021257" lon="-64.714354277" /><trkpt lat="-32.194959973" lon="-64.714346230" /><trkpt lat="-32.194896418" lon="-64.714303315" /><trkpt lat="-32.194837404" lon="-64.714246988" /><trkpt lat="-32.194785198" lon="-64.714147747" /><trkpt lat="-32.194751151" lon="-64.714059234" /><trkpt lat="-32.194730723" lon="-64.713954628" /><trkpt lat="-32.194726184" lon="-64.713863432" /><trkpt lat="-32.194710295" lon="-64.713791013" /><trkpt lat="-32.194721644" lon="-64.713683724" /><trkpt lat="-32.194721644" lon="-64.713597894" /><trkpt lat="-32.194703486" lon="-64.713490605" /><trkpt lat="-32.194651280" lon="-64.713388681" /><trkpt lat="-32.194580916" lon="-64.713300169" /><trkpt lat="-32.194499203" lon="-64.713254571" /><trkpt lat="-32.194410681" lon="-64.713230431" /><trkpt lat="-32.194338047" lon="-64.713219702" /><trkpt lat="-32.194265413" lon="-64.713222384" /><trkpt lat="-32.194188240" lon="-64.713249207" /><trkpt lat="-32.194072479" lon="-64.713281393" /><trkpt lat="-32.193909052" lon="-64.713324308" /><trkpt lat="-32.193720657" lon="-64.713388681" /><trkpt lat="-32.193609436" lon="-64.713431597" /><trkpt lat="-32.193527722" lon="-64.713477194" /><trkpt lat="-32.193448278" lon="-64.713517427" /><trkpt lat="-32.193380183" lon="-64.713554978" /><trkpt lat="-32.193300739" lon="-64.713571072" /><trkpt lat="-32.193169088" lon="-64.713581800" /><trkpt lat="-32.192998850" lon="-64.713579118" /><trkpt lat="-32.192767326" lon="-64.713560343" /><trkpt lat="-32.192656104" lon="-64.713541567" /><trkpt lat="-32.192517643" lon="-64.713501334" /><trkpt lat="-32.192361023" lon="-64.713463783" /><trkpt lat="-32.192270228" lon="-64.713439643" /><trkpt lat="-32.192213482" lon="-64.713404775" /><trkpt lat="-32.192163545" lon="-64.713385999" /><trkpt lat="-32.192113608" lon="-64.713377953" /><trkpt lat="-32.192054591" lon="-64.713388681" /><trkpt lat="-32.191984225" lon="-64.713415504" /><trkpt lat="-32.191897970" lon="-64.713436961" /><trkpt lat="-32.191764048" lon="-64.713482559" /><trkpt lat="-32.191593807" lon="-64.713546932" /><trkpt lat="-32.191525711" lon="-64.713554978" /><trkpt lat="-32.191462154" lon="-64.713549614" /><trkpt lat="-32.191360010" lon="-64.713514745" /><trkpt lat="-32.191282833" lon="-64.713506699" /><trkpt lat="-32.191201118" lon="-64.713512063" /><trkpt lat="-32.191114862" lon="-64.713528156" /><trkpt lat="-32.191039956" lon="-64.713557661" /><trkpt lat="-32.190974129" lon="-64.713600576" /><trkpt lat="-32.190892412" lon="-64.713694453" /><trkpt lat="-32.190783457" lon="-64.713833928" /><trkpt lat="-32.190547388" lon="-64.714120924" /><trkpt lat="-32.190470211" lon="-64.714196026" /><trkpt lat="-32.190377145" lon="-64.714249671" /><trkpt lat="-32.190297698" lon="-64.714279175" /><trkpt lat="-32.190211442" lon="-64.714284539" /><trkpt lat="-32.190118375" lon="-64.714281857" /><trkpt lat="-32.190043468" lon="-64.714268446" /><trkpt lat="-32.189961751" lon="-64.714252353" /><trkpt lat="-32.189889114" lon="-64.714217484" /><trkpt lat="-32.189786967" lon="-64.714196026" /><trkpt lat="-32.189700710" lon="-64.714179933" /><trkpt lat="-32.189598564" lon="-64.714177251" /><trkpt lat="-32.189498687" lon="-64.714198709" /><trkpt lat="-32.189369301" lon="-64.714238942" /><trkpt lat="-32.189226295" lon="-64.714303315" /><trkpt lat="-32.189142307" lon="-64.714332819" /><trkpt lat="-32.189060589" lon="-64.714343548" /><trkpt lat="-32.188967522" lon="-64.714330137" /><trkpt lat="-32.188860834" lon="-64.714303315" /><trkpt lat="-32.188765497" lon="-64.714268446" /><trkpt lat="-32.188688318" lon="-64.714225531" /><trkpt lat="-32.188608870" lon="-64.714182615" /><trkpt lat="-32.188520342" lon="-64.714147747" /><trkpt lat="-32.188427274" lon="-64.714120924" /><trkpt lat="-32.188336476" lon="-64.714110196" /><trkpt lat="-32.188252487" lon="-64.714107513" /><trkpt lat="-32.188216100" lon="-64.714106560" /><trkpt lat="-32.188195670" lon="-64.714103877" /><trkpt lat="-32.188172971" lon="-64.714093149" /><trkpt lat="-32.188134381" lon="-64.714069009" /><trkpt lat="-32.188107142" lon="-64.714042187" /><trkpt lat="-32.188070822" lon="-64.714001953" /><trkpt lat="-32.188023153" lon="-64.713953674" /><trkpt lat="-32.187968674" lon="-64.713905394" /><trkpt lat="-32.187916532" lon="-64.713868797" /><trkpt lat="-32.187807574" lon="-64.713815153" /><trkpt lat="-32.187687265" lon="-64.713780284" /><trkpt lat="-32.187580576" lon="-64.713758826" /><trkpt lat="-32.187517017" lon="-64.713758826" /><trkpt lat="-32.187448917" lon="-64.713780284" /><trkpt lat="-32.187387628" lon="-64.713820517" /><trkpt lat="-32.187349038" lon="-64.713866115" /></trkseg></trk></gpx>