<?xml version='1.0' encoding='utf-8'?>
<gpx version="1.1" creator="OpenTrack rally2gpx source authoring" xmlns="http://www.topografix.com/GPX/1/1"><metadata><name>SS 8 - Slate Mountain</name><link href="https://www.rally-maps.com/Wales-Rally-GB-2019" /><desc>Complete source route; Rally-Maps spline tangents expanded before GPX export. No source elevation is supplied.</desc></metadata><trk><trkseg><trkpt lat="53.000303059" lon="-3.927563645" /><trkpt lat="53.000298572" lon="-3.927577575" /><trkpt lat="53.000293959" lon="-3.927592060" /><trkpt lat="53.000289228" lon="-3.927607071" /><trkpt lat="53.000284387" lon="-3.927622580" /><trkpt lat="53.000279444" lon="-3.927638559" /><trkpt lat="53.000274407" lon="-3.927654979" /><trkpt lat="53.000269284" lon="-3.927671813" /><trkpt lat="53.000264083" lon="-3.927689032" /><trkpt lat="53.000258813" lon="-3.927706609" /><trkpt lat="53.000253480" lon="-3.927724515" /><trkpt lat="53.000248094" lon="-3.927742722" /><trkpt lat="53.000242662" lon="-3.927761201" /><trkpt lat="53.000237191" lon="-3.927779926" /><trkpt lat="53.000231692" lon="-3.927798867" /><trkpt lat="53.000226170" lon="-3.927817996" /><trkpt lat="53.000220635" lon="-3.927837286" /><trkpt lat="53.000215093" lon="-3.927856709" /><trkpt lat="53.000209554" lon="-3.927876235" /><trkpt lat="53.000204026" lon="-3.927895837" /><trkpt lat="53.000198515" lon="-3.927915488" /><trkpt lat="53.000193031" lon="-3.927935158" /><trkpt lat="53.000187582" lon="-3.927954819" /><trkpt lat="53.000182174" lon="-3.927974444" /><trkpt lat="53.000176817" lon="-3.927994005" /><trkpt lat="53.000171518" lon="-3.928013472" /><trkpt lat="53.000166286" lon="-3.928032819" /><trkpt lat="53.000161128" lon="-3.928052017" /><trkpt lat="53.000156053" lon="-3.928071038" /><trkpt lat="53.000151067" lon="-3.928089853" /><trkpt lat="53.000146181" lon="-3.928108435" /><trkpt lat="53.000141401" lon="-3.928126755" /><trkpt lat="53.000136735" lon="-3.928144786" /><trkpt lat="53.000132192" lon="-3.928162498" /><trkpt lat="53.000127779" lon="-3.928179865" /><trkpt lat="53.000123505" lon="-3.928196858" /><trkpt lat="53.000119377" lon="-3.928213449" /><trkpt lat="53.000115404" lon="-3.928229609" /><trkpt lat="53.000111593" lon="-3.928245311" /><trkpt lat="53.000107953" lon="-3.928260526" /><trkpt lat="53.000104492" lon="-3.928275227" /><trkpt lat="53.000101217" lon="-3.928289385" /><trkpt lat="53.000098137" lon="-3.928302971" /><trkpt lat="53.000095260" lon="-3.928315959" /><trkpt lat="53.000092593" lon="-3.928328320" /><trkpt lat="53.000090145" lon="-3.928340025" /><trkpt lat="53.000087923" lon="-3.928351046" /><trkpt lat="53.000085365" lon="-3.928364244" /><trkpt lat="53.000082797" lon="-3.928377984" /><trkpt lat="53.000080234" lon="-3.928392237" /><trkpt lat="53.000077692" lon="-3.928406977" /><trkpt lat="53.000075185" lon="-3.928422174" /><trkpt lat="53.000072727" lon="-3.928437800" /><trkpt lat="53.000070335" lon="-3.928453827" /><trkpt lat="53.000068022" lon="-3.928470226" /><trkpt lat="53.000065804" lon="-3.928486970" /><trkpt lat="53.000063696" lon="-3.928504031" /><trkpt lat="53.000061712" lon="-3.928521379" /><trkpt lat="53.000059866" lon="-3.928538986" /><trkpt lat="53.000058176" lon="-3.928556825" /><trkpt lat="53.000056654" lon="-3.928574867" /><trkpt lat="53.000055316" lon="-3.928593083" /><trkpt lat="53.000054176" lon="-3.928611447" /><trkpt lat="53.000053250" lon="-3.928629928" /><trkpt lat="53.000052553" lon="-3.928648499" /><trkpt lat="53.000052099" lon="-3.928667132" /><trkpt lat="53.000051904" lon="-3.928685799" /><trkpt lat="53.000051981" lon="-3.928704471" /><trkpt lat="53.000052346" lon="-3.928723119" /><trkpt lat="53.000053014" lon="-3.928741716" /><trkpt lat="53.000054000" lon="-3.928760234" /><trkpt lat="53.000055319" lon="-3.928778644" /><trkpt lat="53.000056985" lon="-3.928796917" /><trkpt lat="53.000059013" lon="-3.928815026" /><trkpt lat="53.000061419" lon="-3.928832943" /><trkpt lat="53.000064217" lon="-3.928850638" /><trkpt lat="53.000067421" lon="-3.928868084" /><trkpt lat="53.000071048" lon="-3.928885253" /><trkpt lat="53.000075111" lon="-3.928902116" /><trkpt lat="53.000079626" lon="-3.928918644" /><trkpt lat="53.000084607" lon="-3.928934811" /><trkpt lat="53.000090070" lon="-3.928950587" /><trkpt lat="53.000096028" lon="-3.928965944" /><trkpt lat="53.000102498" lon="-3.928980854" /><trkpt lat="53.000109494" lon="-3.928995288" /><trkpt lat="53.000118408" lon="-3.929011964" /><trkpt lat="53.000127872" lon="-3.929028298" /><trkpt lat="53.000137854" lon="-3.929044295" /><trkpt lat="53.000148317" lon="-3.929059960" /><trkpt lat="53.000159227" lon="-3.929075297" /><trkpt lat="53.000170549" lon="-3.929090310" /><trkpt lat="53.000182248" lon="-3.929105003" /><trkpt lat="53.000194290" lon="-3.929119382" /><trkpt lat="53.000206638" lon="-3.929133451" /><trkpt lat="53.000219260" lon="-3.929147214" /><trkpt lat="53.000232119" lon="-3.929160675" /><trkpt lat="53.000245180" lon="-3.929173839" /><trkpt lat="53.000258410" lon="-3.929186710" /><trkpt lat="53.000271773" lon="-3.929199293" /><trkpt lat="53.000285233" lon="-3.929211592" /><trkpt lat="53.000298757" lon="-3.929223611" /><trkpt lat="53.000312310" lon="-3.929235356" /><trkpt lat="53.000325856" lon="-3.929246830" /><trkpt lat="53.000339360" lon="-3.929258038" /><trkpt lat="53.000352788" lon="-3.929268984" /><trkpt lat="53.000366106" lon="-3.929279672" /><trkpt lat="53.000379277" lon="-3.929290108" /><trkpt lat="53.000392267" lon="-3.929300295" /><trkpt lat="53.000405041" lon="-3.929310238" /><trkpt lat="53.000417565" lon="-3.929319942" /><trkpt lat="53.000429803" lon="-3.929329410" /><trkpt lat="53.000441721" lon="-3.929338647" /><trkpt lat="53.000453284" lon="-3.929347658" /><trkpt lat="53.000464456" lon="-3.929356447" /><trkpt lat="53.000475204" lon="-3.929365019" /><trkpt lat="53.000485491" lon="-3.929373377" /><trkpt lat="53.000495284" lon="-3.929381526" /><trkpt lat="53.000503097" lon="-3.929388291" /><trkpt lat="53.000510890" lon="-3.929395386" /><trkpt lat="53.000518661" lon="-3.929402824" /><trkpt lat="53.000526407" lon="-3.929410614" /><trkpt lat="53.000534127" lon="-3.929418767" /><trkpt lat="53.000541817" lon="-3.929427294" /><trkpt lat="53.000549477" lon="-3.929436206" /><trkpt lat="53.000557103" lon="-3.929445513" /><trkpt lat="53.000564694" lon="-3.929455227" /><trkpt lat="53.000572248" lon="-3.929465357" /><trkpt lat="53.000579762" lon="-3.929475914" /><trkpt lat="53.000587233" lon="-3.929486910" /><trkpt lat="53.000594661" lon="-3.929498354" /><trkpt lat="53.000602042" lon="-3.929510258" /><trkpt lat="53.000609375" lon="-3.929522632" /><trkpt lat="53.000616657" lon="-3.929535487" /><trkpt lat="53.000623886" lon="-3.929548834" /><trkpt lat="53.000631060" lon="-3.929562682" /><trkpt lat="53.000638177" lon="-3.929577044" /><trkpt lat="53.000645235" lon="-3.929591930" /><trkpt lat="53.000652231" lon="-3.929607350" /><trkpt lat="53.000659163" lon="-3.929623315" /><trkpt lat="53.000666029" lon="-3.929639836" /><trkpt lat="53.000672828" lon="-3.929656923" /><trkpt lat="53.000679555" lon="-3.929674588" /><trkpt lat="53.000686211" lon="-3.929692840" /><trkpt lat="53.000692791" lon="-3.929711691" /><trkpt lat="53.000699295" lon="-3.929731151" /><trkpt lat="53.000705720" lon="-3.929751231" /><trkpt lat="53.000712064" lon="-3.929771942" /><trkpt lat="53.000718324" lon="-3.929793294" /><trkpt lat="53.000724498" lon="-3.929815298" /><trkpt lat="53.000730585" lon="-3.929837965" /><trkpt lat="53.000736582" lon="-3.929861305" /><trkpt lat="53.000742487" lon="-3.929885329" /><trkpt lat="53.000748297" lon="-3.929910048" /><trkpt lat="53.000754011" lon="-3.929935473" /><trkpt lat="53.000759627" lon="-3.929961614" /><trkpt lat="53.000765141" lon="-3.929988482" /><trkpt lat="53.000768985" lon="-3.930007836" /><trkpt lat="53.000772771" lon="-3.930027270" /><trkpt lat="53.000776506" lon="-3.930046773" /><trkpt lat="53.000780193" lon="-3.930066335" /><trkpt lat="53.000783839" lon="-3.930085946" /><trkpt lat="53.000787448" lon="-3.930105597" /><trkpt lat="53.000791026" lon="-3.930125276" /><trkpt lat="53.000794578" lon="-3.930144974" /><trkpt lat="53.000798109" lon="-3.930164681" /><trkpt lat="53.000801624" lon="-3.930184387" /><trkpt lat="53.000805129" lon="-3.930204082" /><trkpt lat="53.000808628" lon="-3.930223757" /><trkpt lat="53.000812127" lon="-3.930243400" /><trkpt lat="53.000815631" lon="-3.930263002" /><trkpt lat="53.000819145" lon="-3.930282553" /><trkpt lat="53.000822674" lon="-3.930302043" /><trkpt lat="53.000826224" lon="-3.930321462" /><trkpt lat="53.000829799" lon="-3.930340799" /><trkpt lat="53.000833405" lon="-3.930360046" /><trkpt lat="53.000837048" lon="-3.930379192" /><trkpt lat="53.000840731" lon="-3.930398226" /><trkpt lat="53.000844461" lon="-3.930417139" /><trkpt lat="53.000848242" lon="-3.930435921" /><trkpt lat="53.000852080" lon="-3.930454562" /><trkpt lat="53.000855980" lon="-3.930473052" /><trkpt lat="53.000859947" lon="-3.930491381" /><trkpt lat="53.000863987" lon="-3.930509538" /><trkpt lat="53.000868103" lon="-3.930527515" /><trkpt lat="53.000872303" lon="-3.930545300" /><trkpt lat="53.000876590" lon="-3.930562884" /><trkpt lat="53.000880970" lon="-3.930580256" /><trkpt lat="53.000885449" lon="-3.930597408" /><trkpt lat="53.000890030" lon="-3.930614328" /><trkpt lat="53.000894721" lon="-3.930631007" /><trkpt lat="53.000899525" lon="-3.930647434" /><trkpt lat="53.000904448" lon="-3.930663601" /><trkpt lat="53.000909495" lon="-3.930679496" /><trkpt lat="53.000914671" lon="-3.930695109" /><trkpt lat="53.000919981" lon="-3.930710432" /><trkpt lat="53.000925432" lon="-3.930725453" /><trkpt lat="53.000931027" lon="-3.930740162" /><trkpt lat="53.000936772" lon="-3.930754551" /><trkpt lat="53.000942672" lon="-3.930768608" /><trkpt lat="53.000948732" lon="-3.930782323" /><trkpt lat="53.000954958" lon="-3.930795688" /><trkpt lat="53.000961355" lon="-3.930808691" /><trkpt lat="53.000967927" lon="-3.930821322" /><trkpt lat="53.000974681" lon="-3.930833572" /><trkpt lat="53.000981620" lon="-3.930845431" /><trkpt lat="53.000988752" lon="-3.930856888" /><trkpt lat="53.000996079" lon="-3.930867934" /><trkpt lat="53.001003609" lon="-3.930878558" /><trkpt lat="53.001011345" lon="-3.930888751" /><trkpt lat="53.001019294" lon="-3.930898502" /><trkpt lat="53.001027460" lon="-3.930907802" /><trkpt lat="53.001037114" lon="-3.930918408" /><trkpt lat="53.001046700" lon="-3.930929007" /><trkpt lat="53.001056210" lon="-3.930939613" /><trkpt lat="53.001065635" lon="-3.930950240" /><trkpt lat="53.001074966" lon="-3.930960903" /><trkpt lat="53.001084194" lon="-3.930971615" /><trkpt lat="53.001093310" lon="-3.930982391" /><trkpt lat="53.001102306" lon="-3.930993246" /><trkpt lat="53.001111173" lon="-3.931004193" /><trkpt lat="53.001119902" lon="-3.931015246" /><trkpt lat="53.001128485" lon="-3.931026421" /><trkpt lat="53.001136912" lon="-3.931037730" /><trkpt lat="53.001145174" lon="-3.931049189" /><trkpt lat="53.001153264" lon="-3.931060812" /><trkpt lat="53.001161172" lon="-3.931072613" /><trkpt lat="53.001168889" lon="-3.931084606" /><trkpt lat="53.001176407" lon="-3.931096805" /><trkpt lat="53.001183717" lon="-3.931109225" /><trkpt lat="53.001190809" lon="-3.931121880" /><trkpt lat="53.001197676" lon="-3.931134784" /><trkpt lat="53.001204309" lon="-3.931147951" /><trkpt lat="53.001210698" lon="-3.931161396" /><trkpt lat="53.001216835" lon="-3.931175133" /><trkpt lat="53.001222712" lon="-3.931189176" /><trkpt lat="53.001228318" lon="-3.931203539" /><trkpt lat="53.001233646" lon="-3.931218237" /><trkpt lat="53.001238687" lon="-3.931233284" /><trkpt lat="53.001243433" lon="-3.931248695" /><trkpt lat="53.001247873" lon="-3.931264482" /><trkpt lat="53.001251999" lon="-3.931280661" /><trkpt lat="53.001255804" lon="-3.931297246" /><trkpt lat="53.001259277" lon="-3.931314251" /><trkpt lat="53.001262410" lon="-3.931331691" /><trkpt lat="53.001265195" lon="-3.931349579" /><trkpt lat="53.001267622" lon="-3.931367930" /><trkpt lat="53.001269683" lon="-3.931386758" /><trkpt lat="53.001271369" lon="-3.931406077" /><trkpt lat="53.001272671" lon="-3.931425903" /><trkpt lat="53.001273581" lon="-3.931446247" /><trkpt lat="53.001274089" lon="-3.931467126" /><trkpt lat="53.001274187" lon="-3.931488554" /><trkpt lat="53.001273866" lon="-3.931510544" /><trkpt lat="53.001273117" lon="-3.931533111" /><trkpt lat="53.001271932" lon="-3.931556268" /><trkpt lat="53.001270301" lon="-3.931580032" /><trkpt lat="53.001268217" lon="-3.931604414" /><trkpt lat="53.001265669" lon="-3.931629431" /><trkpt lat="53.001263121" lon="-3.931652606" /><trkpt lat="53.001260604" lon="-3.931675434" /><trkpt lat="53.001258116" lon="-3.931697924" /><trkpt lat="53.001255658" lon="-3.931720083" /><trkpt lat="53.001253228" lon="-3.931741920" /><trkpt lat="53.001250827" lon="-3.931763443" /><trkpt lat="53.001248454" lon="-3.931784661" /><trkpt lat="53.001246108" lon="-3.931805581" /><trkpt lat="53.001243788" lon="-3.931826212" /><trkpt lat="53.001241495" lon="-3.931846562" /><trkpt lat="53.001239226" lon="-3.931866639" /><trkpt lat="53.001236983" lon="-3.931886451" /><trkpt lat="53.001234765" lon="-3.931906007" /><trkpt lat="53.001232569" lon="-3.931925315" /><trkpt lat="53.001230398" lon="-3.931944383" /><trkpt lat="53.001228249" lon="-3.931963220" /><trkpt lat="53.001226122" lon="-3.931981833" /><trkpt lat="53.001224016" lon="-3.932000230" /><trkpt lat="53.001221932" lon="-3.932018421" /><trkpt lat="53.001219867" lon="-3.932036413" /><trkpt lat="53.001217823" lon="-3.932054214" /><trkpt lat="53.001215798" lon="-3.932071833" /><trkpt lat="53.001213792" lon="-3.932089277" /><trkpt lat="53.001211804" lon="-3.932106556" /><trkpt lat="53.001209833" lon="-3.932123677" /><trkpt lat="53.001207880" lon="-3.932140648" /><trkpt lat="53.001205943" lon="-3.932157479" /><trkpt lat="53.001204022" lon="-3.932174176" /><trkpt lat="53.001202116" lon="-3.932190748" /><trkpt lat="53.001200225" lon="-3.932207203" /><trkpt lat="53.001198349" lon="-3.932223551" /><trkpt lat="53.001196486" lon="-3.932239798" /><trkpt lat="53.001194636" lon="-3.932255952" /><trkpt lat="53.001192798" lon="-3.932272024" /><trkpt lat="53.001190973" lon="-3.932288019" /><trkpt lat="53.001189159" lon="-3.932303948" /><trkpt lat="53.001187356" lon="-3.932319817" /><trkpt lat="53.001185563" lon="-3.932335635" /><trkpt lat="53.001183779" lon="-3.932351411" /><trkpt lat="53.001182005" lon="-3.932367152" /><trkpt lat="53.001180240" lon="-3.932382867" /><trkpt lat="53.001178483" lon="-3.932398564" /><trkpt lat="53.001176733" lon="-3.932414251" /><trkpt lat="53.001174990" lon="-3.932429937" /><trkpt lat="53.001173253" lon="-3.932445629" /><trkpt lat="53.001171522" lon="-3.932461337" /><trkpt lat="53.001169796" lon="-3.932477067" /><trkpt lat="53.001168075" lon="-3.932492828" /><trkpt lat="53.001166359" lon="-3.932508629" /><trkpt lat="53.001164645" lon="-3.932524478" /><trkpt lat="53.001162935" lon="-3.932540383" /><trkpt lat="53.001161369" lon="-3.932555984" /><trkpt lat="53.001159957" lon="-3.932572103" /><trkpt lat="53.001158695" lon="-3.932588714" /><trkpt lat="53.001157580" lon="-3.932605790" /><trkpt lat="53.001156606" lon="-3.932623306" /><trkpt lat="53.001155769" lon="-3.932641235" /><trkpt lat="53.001155066" lon="-3.932659553" /><trkpt lat="53.001154491" lon="-3.932678232" /><trkpt lat="53.001154041" lon="-3.932697248" /><trkpt lat="53.001153712" lon="-3.932716574" /><trkpt lat="53.001153499" lon="-3.932736184" /><trkpt lat="53.001153399" lon="-3.932756052" /><trkpt lat="53.001153406" lon="-3.932776153" /><trkpt lat="53.001153516" lon="-3.932796460" /><trkpt lat="53.001153726" lon="-3.932816948" /><trkpt lat="53.001154031" lon="-3.932837591" /><trkpt lat="53.001154428" lon="-3.932858362" /><trkpt lat="53.001154910" lon="-3.932879237" /><trkpt lat="53.001155476" lon="-3.932900188" /><trkpt lat="53.001156119" lon="-3.932921191" /><trkpt lat="53.001156837" lon="-3.932942218" /><trkpt lat="53.001157624" lon="-3.932963245" /><trkpt lat="53.001158477" lon="-3.932984245" /><trkpt lat="53.001159391" lon="-3.933005193" /><trkpt lat="53.001160363" lon="-3.933026062" /><trkpt lat="53.001161387" lon="-3.933046827" /><trkpt lat="53.001162460" lon="-3.933067462" /><trkpt lat="53.001163577" lon="-3.933087940" /><trkpt lat="53.001164735" lon="-3.933108237" /><trkpt lat="53.001165928" lon="-3.933128325" /><trkpt lat="53.001167154" lon="-3.933148180" /><trkpt lat="53.001168407" lon="-3.933167774" /><trkpt lat="53.001169683" lon="-3.933187083" /><trkpt lat="53.001170978" lon="-3.933206080" /><trkpt lat="53.001172288" lon="-3.933224740" /><trkpt lat="53.001173609" lon="-3.933243036" /><trkpt lat="53.001174936" lon="-3.933260943" /><trkpt lat="53.001176265" lon="-3.933278435" /><trkpt lat="53.001177592" lon="-3.933295486" /><trkpt lat="53.001178913" lon="-3.933312069" /><trkpt lat="53.001180223" lon="-3.933328159" /><trkpt lat="53.001181519" lon="-3.933343731" /><trkpt lat="53.001182795" lon="-3.933358757" /><trkpt lat="53.001184049" lon="-3.933373213" /><trkpt lat="53.001185275" lon="-3.933387073" /><trkpt lat="53.001186469" lon="-3.933400309" /><trkpt lat="53.001187627" lon="-3.933412898" /><trkpt lat="53.001188746" lon="-3.933424812" /><trkpt lat="53.001189820" lon="-3.933436025" /><trkpt lat="53.001190845" lon="-3.933446513" /><trkpt lat="53.001191818" lon="-3.933456248" /><trkpt lat="53.001192733" lon="-3.933465206" /><trkpt lat="53.001193588" lon="-3.933473359" /><trkpt lat="53.001194596" lon="-3.933487013" /><trkpt lat="53.001194736" lon="-3.933500622" /><trkpt lat="53.001194039" lon="-3.933514199" /><trkpt lat="53.001192536" lon="-3.933527757" /><trkpt lat="53.001190259" lon="-3.933541306" /><trkpt lat="53.001187238" lon="-3.933554860" /><trkpt lat="53.001183506" lon="-3.933568431" /><trkpt lat="53.001179093" lon="-3.933582030" /><trkpt lat="53.001174031" lon="-3.933595669" /><trkpt lat="53.001168350" lon="-3.933609362" /><trkpt lat="53.001162083" lon="-3.933623119" /><trkpt lat="53.001155260" lon="-3.933636952" /><trkpt lat="53.001147913" lon="-3.933650875" /><trkpt lat="53.001140073" lon="-3.933664899" /><trkpt lat="53.001131772" lon="-3.933679036" /><trkpt lat="53.001123040" lon="-3.933693298" /><trkpt lat="53.001113908" lon="-3.933707697" /><trkpt lat="53.001104409" lon="-3.933722245" /><trkpt lat="53.001094573" lon="-3.933736955" /><trkpt lat="53.001084432" lon="-3.933751839" /><trkpt lat="53.001074017" lon="-3.933766908" /><trkpt lat="53.001063359" lon="-3.933782175" /><trkpt lat="53.001052489" lon="-3.933797651" /><trkpt lat="53.001041440" lon="-3.933813349" /><trkpt lat="53.001030241" lon="-3.933829282" /><trkpt lat="53.001018924" lon="-3.933845460" /><trkpt lat="53.001007521" lon="-3.933861896" /><trkpt lat="53.000996063" lon="-3.933878603" /><trkpt lat="53.000984581" lon="-3.933895591" /><trkpt lat="53.000973107" lon="-3.933912875" /><trkpt lat="53.000961974" lon="-3.933930075" /><trkpt lat="53.000951484" lon="-3.933946825" /><trkpt lat="53.000941622" lon="-3.933963152" /><trkpt lat="53.000932369" lon="-3.933979083" /><trkpt lat="53.000923711" lon="-3.933994646" /><trkpt lat="53.000915628" lon="-3.934009866" /><trkpt lat="53.000908106" lon="-3.934024772" /><trkpt lat="53.000901126" lon="-3.934039389" /><trkpt lat="53.000894673" lon="-3.934053746" /><trkpt lat="53.000888729" lon="-3.934067869" /><trkpt lat="53.000883279" lon="-3.934081786" /><trkpt lat="53.000878304" lon="-3.934095522" /><trkpt lat="53.000873788" lon="-3.934109107" /><trkpt lat="53.000869715" lon="-3.934122565" /><trkpt lat="53.000866067" lon="-3.934135925" /><trkpt lat="53.000862829" lon="-3.934149213" /><trkpt lat="53.000859982" lon="-3.934162457" /><trkpt lat="53.000857511" lon="-3.934175684" /><trkpt lat="53.000855399" lon="-3.934188920" /><trkpt lat="53.000853628" lon="-3.934202193" /><trkpt lat="53.000852183" lon="-3.934215529" /><trkpt lat="53.000851046" lon="-3.934228956" /><trkpt lat="53.000850200" lon="-3.934242501" /><trkpt lat="53.000849629" lon="-3.934256191" /><trkpt lat="53.000849316" lon="-3.934270052" /><trkpt lat="53.000849245" lon="-3.934284112" /><trkpt lat="53.000849397" lon="-3.934298399" /><trkpt lat="53.000849758" lon="-3.934312938" /><trkpt lat="53.000850309" lon="-3.934327757" /><trkpt lat="53.000851035" lon="-3.934342883" /><trkpt lat="53.000851750" lon="-3.934358009" /><trkpt lat="53.000852276" lon="-3.934372839" /><trkpt lat="53.000852609" lon="-3.934387416" /><trkpt lat="53.000852742" lon="-3.934401783" /><trkpt lat="53.000852672" lon="-3.934415986" /><trkpt lat="53.000852391" lon="-3.934430065" /><trkpt lat="53.000851895" lon="-3.934444067" /><trkpt lat="53.000851179" lon="-3.934458033" /><trkpt lat="53.000850236" lon="-3.934472007" /><trkpt lat="53.000849062" lon="-3.934486033" /><trkpt lat="53.000847652" lon="-3.934500155" /><trkpt lat="53.000845999" lon="-3.934514416" /><trkpt lat="53.000844099" lon="-3.934528858" /><trkpt lat="53.000841945" lon="-3.934543527" /><trkpt lat="53.000839534" lon="-3.934558465" /><trkpt lat="53.000836859" lon="-3.934573717" /><trkpt lat="53.000833915" lon="-3.934589324" /><trkpt lat="53.000830697" lon="-3.934605332" /><trkpt lat="53.000827198" lon="-3.934621783" /><trkpt lat="53.000823415" lon="-3.934638720" /><trkpt lat="53.000819341" lon="-3.934656189" /><trkpt lat="53.000814971" lon="-3.934674231" /><trkpt lat="53.000810300" lon="-3.934692891" /><trkpt lat="53.000805322" lon="-3.934712212" /><trkpt lat="53.000800032" lon="-3.934732238" /><trkpt lat="53.000794424" lon="-3.934753011" /><trkpt lat="53.000788494" lon="-3.934774576" /><trkpt lat="53.000782236" lon="-3.934796976" /><trkpt lat="53.000775644" lon="-3.934820255" /><trkpt lat="53.000768713" lon="-3.934844456" /><trkpt lat="53.000765490" lon="-3.934855536" /><trkpt lat="53.000762091" lon="-3.934866997" /><trkpt lat="53.000758521" lon="-3.934878830" /><trkpt lat="53.000754785" lon="-3.934891025" /><trkpt lat="53.000750888" lon="-3.934903573" /><trkpt lat="53.000746834" lon="-3.934916464" /><trkpt lat="53.000742628" lon="-3.934929688" /><trkpt lat="53.000738275" lon="-3.934943237" /><trkpt lat="53.000733779" lon="-3.934957101" /><trkpt lat="53.000729146" lon="-3.934971271" /><trkpt lat="53.000724381" lon="-3.934985736" /><trkpt lat="53.000719487" lon="-3.935000488" /><trkpt lat="53.000714470" lon="-3.935015518" /><trkpt lat="53.000709335" lon="-3.935030815" /><trkpt lat="53.000704086" lon="-3.935046370" /><trkpt lat="53.000698729" lon="-3.935062174" /><trkpt lat="53.000693267" lon="-3.935078218" /><trkpt lat="53.000687707" lon="-3.935094492" /><trkpt lat="53.000682051" lon="-3.935110986" /><trkpt lat="53.000676307" lon="-3.935127692" /><trkpt lat="53.000670477" lon="-3.935144599" /><trkpt lat="53.000664567" lon="-3.935161698" /><trkpt lat="53.000658582" lon="-3.935178981" /><trkpt lat="53.000652527" lon="-3.935196436" /><trkpt lat="53.000646406" lon="-3.935214056" /><trkpt lat="53.000640224" lon="-3.935231830" /><trkpt lat="53.000633986" lon="-3.935249750" /><trkpt lat="53.000627696" lon="-3.935267804" /><trkpt lat="53.000621360" lon="-3.935285986" /><trkpt lat="53.000614983" lon="-3.935304284" /><trkpt lat="53.000608568" lon="-3.935322689" /><trkpt lat="53.000602121" lon="-3.935341192" /><trkpt lat="53.000595647" lon="-3.935359784" /><trkpt lat="53.000589150" lon="-3.935378455" /><trkpt lat="53.000582635" lon="-3.935397195" /><trkpt lat="53.000576108" lon="-3.935415995" /><trkpt lat="53.000569572" lon="-3.935434847" /><trkpt lat="53.000563033" lon="-3.935453739" /><trkpt lat="53.000556495" lon="-3.935472664" /><trkpt lat="53.000549963" lon="-3.935491610" /><trkpt lat="53.000543442" lon="-3.935510570" /><trkpt lat="53.000536937" lon="-3.935529534" /><trkpt lat="53.000530452" lon="-3.935548491" /><trkpt lat="53.000523993" lon="-3.935567433" /><trkpt lat="53.000517563" lon="-3.935586351" /><trkpt lat="53.000511169" lon="-3.935605234" /><trkpt lat="53.000504814" lon="-3.935624074" /><trkpt lat="53.000498504" lon="-3.935642860" /><trkpt lat="53.000492243" lon="-3.935661584" /><trkpt lat="53.000486036" lon="-3.935680237" /><trkpt lat="53.000479888" lon="-3.935698807" /><trkpt lat="53.000473803" lon="-3.935717287" /><trkpt lat="53.000467787" lon="-3.935735667" /><trkpt lat="53.000461844" lon="-3.935753937" /><trkpt lat="53.000455978" lon="-3.935772088" /><trkpt lat="53.000450196" lon="-3.935790111" /><trkpt lat="53.000444501" lon="-3.935807995" /><trkpt lat="53.000438899" lon="-3.935825732" /><trkpt lat="53.000433394" lon="-3.935843313" /><trkpt lat="53.000427990" lon="-3.935860726" /><trkpt lat="53.000422693" lon="-3.935877965" /><trkpt lat="53.000417508" lon="-3.935895018" /><trkpt lat="53.000412439" lon="-3.935911876" /><trkpt lat="53.000407491" lon="-3.935928531" /><trkpt lat="53.000402669" lon="-3.935944972" /><trkpt lat="53.000397978" lon="-3.935961190" /><trkpt lat="53.000393422" lon="-3.935977175" /><trkpt lat="53.000389006" lon="-3.935992919" /><trkpt lat="53.000381242" lon="-3.936019413" /><trkpt lat="53.000373109" lon="-3.936044457" /><trkpt lat="53.000364628" lon="-3.936068100" /><trkpt lat="53.000355819" lon="-3.936090390" /><trkpt lat="53.000346700" lon="-3.936111376" /><trkpt lat="53.000337292" lon="-3.936131105" /><trkpt lat="53.000327613" lon="-3.936149626" /><trkpt lat="53.000317684" lon="-3.936166987" /><trkpt lat="53.000307524" lon="-3.936183237" /><trkpt lat="53.000297152" lon="-3.936198425" /><trkpt lat="53.000286589" lon="-3.936212597" /><trkpt lat="53.000275853" lon="-3.936225803" /><trkpt lat="53.000264964" lon="-3.936238092" /><trkpt lat="53.000253941" lon="-3.936249510" /><trkpt lat="53.000242805" lon="-3.936260108" /><trkpt lat="53.000231575" lon="-3.936269932" /><trkpt lat="53.000220270" lon="-3.936279032" /><trkpt lat="53.000208909" lon="-3.936287455" /><trkpt lat="53.000197513" lon="-3.936295250" /><trkpt lat="53.000186101" lon="-3.936302466" /><trkpt lat="53.000174692" lon="-3.936309150" /><trkpt lat="53.000163306" lon="-3.936315352" /><trkpt lat="53.000151963" lon="-3.936321119" /><trkpt lat="53.000140681" lon="-3.936326499" /><trkpt lat="53.000129481" lon="-3.936331542" /><trkpt lat="53.000118383" lon="-3.936336294" /><trkpt lat="53.000107404" lon="-3.936340806" /><trkpt lat="53.000096566" lon="-3.936345124" /><trkpt lat="53.000085888" lon="-3.936349298" /><trkpt lat="53.000075389" lon="-3.936353375" /><trkpt lat="53.000065089" lon="-3.936357405" /><trkpt lat="53.000055007" lon="-3.936361435" /><trkpt lat="53.000045163" lon="-3.936365513" /><trkpt lat="53.000035576" lon="-3.936369689" /><trkpt lat="53.000026266" lon="-3.936374009" /><trkpt lat="53.000017253" lon="-3.936378524" /><trkpt lat="53.000008555" lon="-3.936383280" /><trkpt lat="53.000000194" lon="-3.936388327" /><trkpt lat="52.999992187" lon="-3.936393712" /><trkpt lat="52.999981865" lon="-3.936401043" /><trkpt lat="52.999970624" lon="-3.936408983" /><trkpt lat="52.999958523" lon="-3.936417481" /><trkpt lat="52.999945624" lon="-3.936426485" /><trkpt lat="52.999931986" lon="-3.936435943" /><trkpt lat="52.999917672" lon="-3.936445803" /><trkpt lat="52.999902740" lon="-3.936456013" /><trkpt lat="52.999887253" lon="-3.936466522" /><trkpt lat="52.999871270" lon="-3.936477278" /><trkpt lat="52.999854853" lon="-3.936488228" /><trkpt lat="52.999838062" lon="-3.936499322" /><trkpt lat="52.999820957" lon="-3.936510506" /><trkpt lat="52.999803600" lon="-3.936521730" /><trkpt lat="52.999786051" lon="-3.936532940" /><trkpt lat="52.999768371" lon="-3.936544087" /><trkpt lat="52.999750620" lon="-3.936555116" /><trkpt lat="52.999732859" lon="-3.936565978" /><trkpt lat="52.999715148" lon="-3.936576619" /><trkpt lat="52.999697549" lon="-3.936586989" /><trkpt lat="52.999680122" lon="-3.936597034" /><trkpt lat="52.999662928" lon="-3.936606704" /><trkpt lat="52.999646027" lon="-3.936615947" /><trkpt lat="52.999629480" lon="-3.936624709" /><trkpt lat="52.999613348" lon="-3.936632941" /><trkpt lat="52.999597691" lon="-3.936640589" /><trkpt lat="52.999582570" lon="-3.936647602" /><trkpt lat="52.999568045" lon="-3.936653929" /><trkpt lat="52.999554178" lon="-3.936659516" /><trkpt lat="52.999541029" lon="-3.936664313" /><trkpt lat="52.999528659" lon="-3.936668268" /><trkpt lat="52.999517128" lon="-3.936671328" /><trkpt lat="52.999505499" lon="-3.936673623" /><trkpt lat="52.999493557" lon="-3.936675178" /><trkpt lat="52.999481336" lon="-3.936676049" /><trkpt lat="52.999468868" lon="-3.936676286" /><trkpt lat="52.999456187" lon="-3.936675945" /><trkpt lat="52.999443327" lon="-3.936675079" /><trkpt lat="52.999430322" lon="-3.936673741" /><trkpt lat="52.999417204" lon="-3.936671984" /><trkpt lat="52.999404008" lon="-3.936669862" /><trkpt lat="52.999390767" lon="-3.936667428" /><trkpt lat="52.999377514" lon="-3.936664737" /><trkpt lat="52.999364283" lon="-3.936661840" /><trkpt lat="52.999351107" lon="-3.936658792" /><trkpt lat="52.999338021" lon="-3.936655646" /><trkpt lat="52.999325057" lon="-3.936652456" /><trkpt lat="52.999312249" lon="-3.936649275" /><trkpt lat="52.999299630" lon="-3.936646156" /><trkpt lat="52.999287235" lon="-3.936643153" /><trkpt lat="52.999275096" lon="-3.936640319" /><trkpt lat="52.999263248" lon="-3.936637707" /><trkpt lat="52.999251723" lon="-3.936635372" /><trkpt lat="52.999240555" lon="-3.936633367" /><trkpt lat="52.999229778" lon="-3.936631744" /><trkpt lat="52.999219425" lon="-3.936630558" /><trkpt lat="52.999209530" lon="-3.936629861" /><trkpt lat="52.999200126" lon="-3.936629708" /><trkpt lat="52.999191247" lon="-3.936630151" /><trkpt lat="52.999182927" lon="-3.936631245" /><trkpt lat="52.999175198" lon="-3.936633042" /><trkpt lat="52.999168094" lon="-3.936635596" /><trkpt lat="52.999161267" lon="-3.936639125" /><trkpt lat="52.999154348" lon="-3.936643769" /><trkpt lat="52.999147342" lon="-3.936649460" /><trkpt lat="52.999140254" lon="-3.936656133" /><trkpt lat="52.999133089" lon="-3.936663722" /><trkpt lat="52.999125853" lon="-3.936672160" /><trkpt lat="52.999118550" lon="-3.936681381" /><trkpt lat="52.999111185" lon="-3.936691319" /><trkpt lat="52.999103764" lon="-3.936701908" /><trkpt lat="52.999096291" lon="-3.936713082" /><trkpt lat="52.999088771" lon="-3.936724774" /><trkpt lat="52.999081210" lon="-3.936736919" /><trkpt lat="52.999073612" lon="-3.936749450" /><trkpt lat="52.999065983" lon="-3.936762301" /><trkpt lat="52.999058327" lon="-3.936775406" /><trkpt lat="52.999050649" lon="-3.936788699" /><trkpt lat="52.999042955" lon="-3.936802113" /><trkpt lat="52.999035250" lon="-3.936815583" /><trkpt lat="52.999027538" lon="-3.936829042" /><trkpt lat="52.999019824" lon="-3.936842424" /><trkpt lat="52.999012114" lon="-3.936855663" /><trkpt lat="52.999004413" lon="-3.936868693" /><trkpt lat="52.998996726" lon="-3.936881448" /><trkpt lat="52.998989057" lon="-3.936893861" /><trkpt lat="52.998981412" lon="-3.936905866" /><trkpt lat="52.998973795" lon="-3.936917397" /><trkpt lat="52.998966212" lon="-3.936928389" /><trkpt lat="52.998958668" lon="-3.936938774" /><trkpt lat="52.998951168" lon="-3.936948487" /><trkpt lat="52.998943716" lon="-3.936957461" /><trkpt lat="52.998936168" lon="-3.936966085" /><trkpt lat="52.998928376" lon="-3.936974800" /><trkpt lat="52.998920348" lon="-3.936983620" /><trkpt lat="52.998912086" lon="-3.936992557" /><trkpt lat="52.998903597" lon="-3.937001625" /><trkpt lat="52.998894885" lon="-3.937010837" /><trkpt lat="52.998885956" lon="-3.937020207" /><trkpt lat="52.998876814" lon="-3.937029748" /><trkpt lat="52.998867465" lon="-3.937039473" /><trkpt lat="52.998857914" lon="-3.937049395" /><trkpt lat="52.998848165" lon="-3.937059527" /><trkpt lat="52.998838223" lon="-3.937069884" /><trkpt lat="52.998828095" lon="-3.937080478" /><trkpt lat="52.998817784" lon="-3.937091323" /><trkpt lat="52.998807296" lon="-3.937102431" /><trkpt lat="52.998796636" lon="-3.937113817" /><trkpt lat="52.998785808" lon="-3.937125493" /><trkpt lat="52.998774819" lon="-3.937137473" /><trkpt lat="52.998763672" lon="-3.937149770" /><trkpt lat="52.998752373" lon="-3.937162397" /><trkpt lat="52.998740928" lon="-3.937175368" /><trkpt lat="52.998729340" lon="-3.937188696" /><trkpt lat="52.998717616" lon="-3.937202394" /><trkpt lat="52.998705759" lon="-3.937216476" /><trkpt lat="52.998693776" lon="-3.937230954" /><trkpt lat="52.998681671" lon="-3.937245842" /><trkpt lat="52.998669449" lon="-3.937261154" /><trkpt lat="52.998657115" lon="-3.937276903" /><trkpt lat="52.998644675" lon="-3.937293101" /><trkpt lat="52.998632133" lon="-3.937309763" /><trkpt lat="52.998624646" lon="-3.937319848" /><trkpt lat="52.998616725" lon="-3.937330586" /><trkpt lat="52.998608391" lon="-3.937341948" /><trkpt lat="52.998599663" lon="-3.937353906" /><trkpt lat="52.998590562" lon="-3.937366432" /><trkpt lat="52.998581106" lon="-3.937379498" /><trkpt lat="52.998571315" lon="-3.937393075" /><trkpt lat="52.998561210" lon="-3.937407134" /><trkpt lat="52.998550810" lon="-3.937421648" /><trkpt lat="52.998540135" lon="-3.937436587" /><trkpt lat="52.998529205" lon="-3.937451924" /><trkpt lat="52.998518039" lon="-3.937467630" /><trkpt lat="52.998506657" lon="-3.937483677" /><trkpt lat="52.998495079" lon="-3.937500037" /><trkpt lat="52.998483325" lon="-3.937516680" /><trkpt lat="52.998471414" lon="-3.937533579" /><trkpt lat="52.998459367" lon="-3.937550705" /><trkpt lat="52.998447203" lon="-3.937568030" /><trkpt lat="52.998434941" lon="-3.937585526" /><trkpt lat="52.998422602" lon="-3.937603164" /><trkpt lat="52.998410205" lon="-3.937620915" /><trkpt lat="52.998397770" lon="-3.937638752" /><trkpt lat="52.998385317" lon="-3.937656646" /><trkpt lat="52.998372866" lon="-3.937674568" /><trkpt lat="52.998360435" lon="-3.937692490" /><trkpt lat="52.998348047" lon="-3.937710385" /><trkpt lat="52.998335719" lon="-3.937728223" /><trkpt lat="52.998323471" lon="-3.937745976" /><trkpt lat="52.998311324" lon="-3.937763615" /><trkpt lat="52.998299297" lon="-3.937781113" /><trkpt lat="52.998287411" lon="-3.937798441" /><trkpt lat="52.998275684" lon="-3.937815571" /><trkpt lat="52.998264136" lon="-3.937832473" /><trkpt lat="52.998252788" lon="-3.937849121" /><trkpt lat="52.998241658" lon="-3.937865485" /><trkpt lat="52.998230768" lon="-3.937881537" /><trkpt lat="52.998220136" lon="-3.937897248" /><trkpt lat="52.998209782" lon="-3.937912591" /><trkpt lat="52.998199727" lon="-3.937927537" /><trkpt lat="52.998189989" lon="-3.937942058" /><trkpt lat="52.998180589" lon="-3.937956124" /><trkpt lat="52.998171546" lon="-3.937969708" /><trkpt lat="52.998162880" lon="-3.937982782" /><trkpt lat="52.998154612" lon="-3.937995317" /><trkpt lat="52.998146760" lon="-3.938007284" /><trkpt lat="52.998139344" lon="-3.938018656" /><trkpt lat="52.998132385" lon="-3.938029403" /><trkpt lat="52.998125901" lon="-3.938039498" /><trkpt lat="52.998119914" lon="-3.938048912" /><trkpt lat="52.998114441" lon="-3.938057617" /><trkpt lat="52.998109504" lon="-3.938065584" /><trkpt lat="52.998105123" lon="-3.938072785" /><trkpt lat="52.998097961" lon="-3.938084703" /><trkpt lat="52.998090703" lon="-3.938096847" /><trkpt lat="52.998083382" lon="-3.938109213" /><trkpt lat="52.998076030" lon="-3.938121795" /><trkpt lat="52.998068682" lon="-3.938134588" /><trkpt lat="52.998061370" lon="-3.938147587" /><trkpt lat="52.998054126" lon="-3.938160786" /><trkpt lat="52.998046984" lon="-3.938174180" /><trkpt lat="52.998039977" lon="-3.938187764" /><trkpt lat="52.998033138" lon="-3.938201532" /><trkpt lat="52.998026500" lon="-3.938215478" /><trkpt lat="52.998020096" lon="-3.938229598" /><trkpt lat="52.998013959" lon="-3.938243886" /><trkpt lat="52.998008121" lon="-3.938258337" /><trkpt lat="52.998002617" lon="-3.938272945" /><trkpt lat="52.997997478" lon="-3.938287705" /><trkpt lat="52.997992738" lon="-3.938302612" /><trkpt lat="52.997988431" lon="-3.938317660" /><trkpt lat="52.997984588" lon="-3.938332844" /><trkpt lat="52.997981243" lon="-3.938348159" /><trkpt lat="52.997978429" lon="-3.938363598" /><trkpt lat="52.997976178" lon="-3.938379158" /><trkpt lat="52.997974525" lon="-3.938394832" /><trkpt lat="52.997973502" lon="-3.938410615" /><trkpt lat="52.997973141" lon="-3.938426502" /><trkpt lat="52.997973477" lon="-3.938442487" /><trkpt lat="52.997974541" lon="-3.938458565" /><trkpt lat="52.997976368" lon="-3.938474731" /><trkpt lat="52.997978989" lon="-3.938490978" /><trkpt lat="52.997982438" lon="-3.938507303" /><trkpt lat="52.997986565" lon="-3.938523317" /><trkpt lat="52.997991195" lon="-3.938538649" /><trkpt lat="52.997996325" lon="-3.938553322" /><trkpt lat="52.998001954" lon="-3.938567359" /><trkpt lat="52.998008078" lon="-3.938580782" /><trkpt lat="52.998014696" lon="-3.938593614" /><trkpt lat="52.998021804" lon="-3.938605877" /><trkpt lat="52.998029400" lon="-3.938617593" /><trkpt lat="52.998037482" lon="-3.938628786" /><trkpt lat="52.998046047" lon="-3.938639477" /><trkpt lat="52.998055093" lon="-3.938649689" /><trkpt lat="52.998064617" lon="-3.938659445" /><trkpt lat="52.998074616" lon="-3.938668766" /><trkpt lat="52.998085089" lon="-3.938677676" /><trkpt lat="52.998096032" lon="-3.938686197" /><trkpt lat="52.998107444" lon="-3.938694352" /><trkpt lat="52.998119321" lon="-3.938702162" /><trkpt lat="52.998131661" lon="-3.938709651" /><trkpt lat="52.998144462" lon="-3.938716841" /><trkpt lat="52.998157721" lon="-3.938723754" /><trkpt lat="52.998171435" lon="-3.938730412" /><trkpt lat="52.998185603" lon="-3.938736840" /><trkpt lat="52.998200221" lon="-3.938743057" /><trkpt lat="52.998215288" lon="-3.938749089" /><trkpt lat="52.998230800" lon="-3.938754956" /><trkpt lat="52.998246755" lon="-3.938760681" /><trkpt lat="52.998263151" lon="-3.938766287" /><trkpt lat="52.998279984" lon="-3.938771796" /><trkpt lat="52.998297254" lon="-3.938777230" /><trkpt lat="52.998314956" lon="-3.938782613" /><trkpt lat="52.998332598" lon="-3.938787953" /><trkpt lat="52.998349713" lon="-3.938793249" /><trkpt lat="52.998366340" lon="-3.938798513" /><trkpt lat="52.998382517" lon="-3.938803756" /><trkpt lat="52.998398284" lon="-3.938808988" /><trkpt lat="52.998413679" lon="-3.938814220" /><trkpt lat="52.998428741" lon="-3.938819463" /><trkpt lat="52.998443508" lon="-3.938824728" /><trkpt lat="52.998458021" lon="-3.938830024" /><trkpt lat="52.998472316" lon="-3.938835363" /><trkpt lat="52.998486434" lon="-3.938840756" /><trkpt lat="52.998500413" lon="-3.938846214" /><trkpt lat="52.998514291" lon="-3.938851746" /><trkpt lat="52.998528108" lon="-3.938857365" /><trkpt lat="52.998541903" lon="-3.938863079" /><trkpt lat="52.998555713" lon="-3.938868902" /><trkpt lat="52.998569579" lon="-3.938874842" /><trkpt lat="52.998583538" lon="-3.938880911" /><trkpt lat="52.998597630" lon="-3.938887119" /><trkpt lat="52.998611893" lon="-3.938893478" /><trkpt lat="52.998626366" lon="-3.938899997" /><trkpt lat="52.998641088" lon="-3.938906688" /><trkpt lat="52.998656098" lon="-3.938913562" /><trkpt lat="52.998671434" lon="-3.938920629" /><trkpt lat="52.998687136" lon="-3.938927899" /><trkpt lat="52.998703241" lon="-3.938935384" /><trkpt lat="52.998719790" lon="-3.938943095" /><trkpt lat="52.998736820" lon="-3.938951041" /><trkpt lat="52.998754370" lon="-3.938959235" /><trkpt lat="52.998772480" lon="-3.938967685" /><trkpt lat="52.998787459" lon="-3.938974801" /><trkpt lat="52.998802544" lon="-3.938982222" /><trkpt lat="52.998817725" lon="-3.938989936" /><trkpt lat="52.998832989" lon="-3.938997930" /><trkpt lat="52.998848324" lon="-3.939006194" /><trkpt lat="52.998863717" lon="-3.939014714" /><trkpt lat="52.998879156" lon="-3.939023479" /><trkpt lat="52.998894629" lon="-3.939032476" /><trkpt lat="52.998910124" lon="-3.939041695" /><trkpt lat="52.998925629" lon="-3.939051121" /><trkpt lat="52.998941132" lon="-3.939060745" /><trkpt lat="52.998956620" lon="-3.939070553" /><trkpt lat="52.998972081" lon="-3.939080533" /><trkpt lat="52.998987503" lon="-3.939090673" /><trkpt lat="52.999002873" lon="-3.939100962" /><trkpt lat="52.999018181" lon="-3.939111387" /><trkpt lat="52.999033412" lon="-3.939121936" /><trkpt lat="52.999048556" lon="-3.939132598" /><trkpt lat="52.999063600" lon="-3.939143359" /><trkpt lat="52.999078531" lon="-3.939154208" /><trkpt lat="52.999093338" lon="-3.939165134" /><trkpt lat="52.999108009" lon="-3.939176123" /><trkpt lat="52.999122530" lon="-3.939187164" /><trkpt lat="52.999136891" lon="-3.939198245" /><trkpt lat="52.999151079" lon="-3.939209354" /><trkpt lat="52.999165081" lon="-3.939220478" /><trkpt lat="52.999178885" lon="-3.939231606" /><trkpt lat="52.999192480" lon="-3.939242726" /><trkpt lat="52.999205853" lon="-3.939253825" /><trkpt lat="52.999218991" lon="-3.939264892" /><trkpt lat="52.999231883" lon="-3.939275914" /><trkpt lat="52.999244517" lon="-3.939286879" /><trkpt lat="52.999256880" lon="-3.939297776" /><trkpt lat="52.999268960" lon="-3.939308592" /><trkpt lat="52.999280745" lon="-3.939319315" /><trkpt lat="52.999292222" lon="-3.939329933" /><trkpt lat="52.999303380" lon="-3.939340434" /><trkpt lat="52.999316818" lon="-3.939353248" /><trkpt lat="52.999330017" lon="-3.939365942" /><trkpt lat="52.999342987" lon="-3.939378525" /><trkpt lat="52.999355737" lon="-3.939391001" /><trkpt lat="52.999368278" lon="-3.939403379" /><trkpt lat="52.999380617" lon="-3.939415665" /><trkpt lat="52.999392765" lon="-3.939427865" /><trkpt lat="52.999404731" lon="-3.939439985" /><trkpt lat="52.999416524" lon="-3.939452033" /><trkpt lat="52.999428153" lon="-3.939464015" /><trkpt lat="52.999439628" lon="-3.939475937" /><trkpt lat="52.999450959" lon="-3.939487806" /><trkpt lat="52.999462153" lon="-3.939499628" /><trkpt lat="52.999473221" lon="-3.939511411" /><trkpt lat="52.999484173" lon="-3.939523160" /><trkpt lat="52.999495016" lon="-3.939534882" /><trkpt lat="52.999505762" lon="-3.939546584" /><trkpt lat="52.999516418" lon="-3.939558273" /><trkpt lat="52.999526995" lon="-3.939569954" /><trkpt lat="52.999537501" lon="-3.939581634" /><trkpt lat="52.999547947" lon="-3.939593321" /><trkpt lat="52.999558341" lon="-3.939605020" /><trkpt lat="52.999568692" lon="-3.939616738" /><trkpt lat="52.999579011" lon="-3.939628482" /><trkpt lat="52.999589306" lon="-3.939640258" /><trkpt lat="52.999599586" lon="-3.939652073" /><trkpt lat="52.999609861" lon="-3.939663933" /><trkpt lat="52.999620141" lon="-3.939675845" /><trkpt lat="52.999630435" lon="-3.939687815" /><trkpt lat="52.999640751" lon="-3.939699850" /><trkpt lat="52.999650837" lon="-3.939711074" /><trkpt lat="52.999661693" lon="-3.939722115" /><trkpt lat="52.999673274" lon="-3.939732979" /><trkpt lat="52.999685532" lon="-3.939743668" /><trkpt lat="52.999698422" lon="-3.939754186" /><trkpt lat="52.999711897" lon="-3.939764538" /><trkpt lat="52.999725912" lon="-3.939774727" /><trkpt lat="52.999740418" lon="-3.939784756" /><trkpt lat="52.999755371" lon="-3.939794629" /><trkpt lat="52.999770724" lon="-3.939804350" /><trkpt lat="52.999786430" lon="-3.939813924" /><trkpt lat="52.999802444" lon="-3.939823353" /><trkpt lat="52.999818719" lon="-3.939832641" /><trkpt lat="52.999835208" lon="-3.939841792" /><trkpt lat="52.999851865" lon="-3.939850810" /><trkpt lat="52.999868645" lon="-3.939859698" /><trkpt lat="52.999885500" lon="-3.939868461" /><trkpt lat="52.999902385" lon="-3.939877102" /><trkpt lat="52.999919252" lon="-3.939885625" /><trkpt lat="52.999936057" lon="-3.939894033" /><trkpt lat="52.999952751" lon="-3.939902330" /><trkpt lat="52.999969290" lon="-3.939910520" /><trkpt lat="52.999985626" lon="-3.939918607" /><trkpt lat="53.000001714" lon="-3.939926595" /><trkpt lat="53.000017507" lon="-3.939934486" /><trkpt lat="53.000032959" lon="-3.939942286" /><trkpt lat="53.000048023" lon="-3.939949997" /><trkpt lat="53.000062653" lon="-3.939957624" /><trkpt lat="53.000076803" lon="-3.939965170" /><trkpt lat="53.000090426" lon="-3.939972639" /><trkpt lat="53.000103477" lon="-3.939980034" /><trkpt lat="53.000115908" lon="-3.939987360" /><trkpt lat="53.000128324" lon="-3.939994771" /><trkpt lat="53.000141330" lon="-3.940002411" /><trkpt lat="53.000154888" lon="-3.940010266" /><trkpt lat="53.000168956" lon="-3.940018320" /><trkpt lat="53.000183493" lon="-3.940026561" /><trkpt lat="53.000198461" lon="-3.940034974" /><trkpt lat="53.000213818" lon="-3.940043544" /><trkpt lat="53.000229524" lon="-3.940052258" /><trkpt lat="53.000245539" lon="-3.940061101" /><trkpt lat="53.000261821" lon="-3.940070060" /><trkpt lat="53.000278332" lon="-3.940079119" /><trkpt lat="53.000295031" lon="-3.940088264" /><trkpt lat="53.000311876" lon="-3.940097483" /><trkpt lat="53.000328829" lon="-3.940106759" /><trkpt lat="53.000345848" lon="-3.940116080" /><trkpt lat="53.000362893" lon="-3.940125431" /><trkpt lat="53.000379924" lon="-3.940134797" /><trkpt lat="53.000396901" lon="-3.940144165" /><trkpt lat="53.000413782" lon="-3.940153520" /><trkpt lat="53.000430529" lon="-3.940162849" /><trkpt lat="53.000447099" lon="-3.940172136" /><trkpt lat="53.000463454" lon="-3.940181368" /><trkpt lat="53.000479553" lon="-3.940190530" /><trkpt lat="53.000495354" lon="-3.940199609" /><trkpt lat="53.000510819" lon="-3.940208590" /><trkpt lat="53.000525906" lon="-3.940217459" /><trkpt lat="53.000540576" lon="-3.940226202" /><trkpt lat="53.000554787" lon="-3.940234804" /><trkpt lat="53.000568500" lon="-3.940243252" /><trkpt lat="53.000581675" lon="-3.940251531" /><trkpt lat="53.000594270" lon="-3.940259627" /><trkpt lat="53.000606245" lon="-3.940267525" /><trkpt lat="53.000618975" lon="-3.940275668" /><trkpt lat="53.000632280" lon="-3.940283474" /><trkpt lat="53.000646118" lon="-3.940290954" /><trkpt lat="53.000660449" lon="-3.940298121" /><trkpt lat="53.000675233" lon="-3.940304984" /><trkpt lat="53.000690428" lon="-3.940311556" /><trkpt lat="53.000705995" lon="-3.940317847" /><trkpt lat="53.000721892" lon="-3.940323869" /><trkpt lat="53.000738079" lon="-3.940329633" /><trkpt lat="53.000754516" lon="-3.940335151" /><trkpt lat="53.000771161" lon="-3.940340434" /><trkpt lat="53.000787974" lon="-3.940345492" /><trkpt lat="53.000804914" lon="-3.940350338" /><trkpt lat="53.000821941" lon="-3.940354983" /><trkpt lat="53.000839014" lon="-3.940359437" /><trkpt lat="53.000856093" lon="-3.940363713" /><trkpt lat="53.000873136" lon="-3.940367821" /><trkpt lat="53.000890103" lon="-3.940371773" /><trkpt lat="53.000906954" lon="-3.940375580" /><trkpt lat="53.000923647" lon="-3.940379253" /><trkpt lat="53.000940143" lon="-3.940382804" /><trkpt lat="53.000956400" lon="-3.940386244" /><trkpt lat="53.000972378" lon="-3.940389584" /><trkpt lat="53.000988036" lon="-3.940392835" /><trkpt lat="53.001003333" lon="-3.940396010" /><trkpt lat="53.001018230" lon="-3.940399118" /><trkpt lat="53.001032685" lon="-3.940402171" /><trkpt lat="53.001046657" lon="-3.940405181" /><trkpt lat="53.001060107" lon="-3.940408159" /><trkpt lat="53.001072993" lon="-3.940411116" /><trkpt lat="53.001084447" lon="-3.940414072" /><trkpt lat="53.001096562" lon="-3.940417711" /><trkpt lat="53.001109300" lon="-3.940422000" /><trkpt lat="53.001122618" lon="-3.940426905" /><trkpt lat="53.001136477" lon="-3.940432393" /><trkpt lat="53.001150835" lon="-3.940438432" /><trkpt lat="53.001165652" lon="-3.940444989" /><trkpt lat="53.001180888" lon="-3.940452030" /><trkpt lat="53.001196502" lon="-3.940459521" /><trkpt lat="53.001212453" lon="-3.940467431" /><trkpt lat="53.001228701" lon="-3.940475726" /><trkpt lat="53.001245205" lon="-3.940484372" /><trkpt lat="53.001261924" lon="-3.940493338" /><trkpt lat="53.001278819" lon="-3.940502588" /><trkpt lat="53.001295848" lon="-3.940512092" /><trkpt lat="53.001312970" lon="-3.940521814" /><trkpt lat="53.001330146" lon="-3.940531723" /><trkpt lat="53.001347334" lon="-3.940541785" /><trkpt lat="53.001364494" lon="-3.940551967" /><trkpt lat="53.001381586" lon="-3.940562236" /><trkpt lat="53.001398568" lon="-3.940572558" /><trkpt lat="53.001415401" lon="-3.940582902" /><trkpt lat="53.001432043" lon="-3.940593233" /><trkpt lat="53.001448454" lon="-3.940603518" /><trkpt lat="53.001464594" lon="-3.940613725" /><trkpt lat="53.001480421" lon="-3.940623820" /><trkpt lat="53.001495896" lon="-3.940633770" /><trkpt lat="53.001510977" lon="-3.940643543" /><trkpt lat="53.001525624" lon="-3.940653104" /><trkpt lat="53.001539797" lon="-3.940662421" /><trkpt lat="53.001553454" lon="-3.940671461" /><trkpt lat="53.001566556" lon="-3.940680190" /><trkpt lat="53.001579061" lon="-3.940688576" /><trkpt lat="53.001590929" lon="-3.940696586" /><trkpt lat="53.001604257" lon="-3.940705348" /><trkpt lat="53.001618063" lon="-3.940713932" /><trkpt lat="53.001632306" lon="-3.940722336" /><trkpt lat="53.001646946" lon="-3.940730559" /><trkpt lat="53.001661941" lon="-3.940738599" /><trkpt lat="53.001677250" lon="-3.940746456" /><trkpt lat="53.001692833" lon="-3.940754128" /><trkpt lat="53.001708647" lon="-3.940761613" /><trkpt lat="53.001724652" lon="-3.940768911" /><trkpt lat="53.001740807" lon="-3.940776020" /><trkpt lat="53.001757070" lon="-3.940782939" /><trkpt lat="53.001773401" lon="-3.940789666" /><trkpt lat="53.001789759" lon="-3.940796200" /><trkpt lat="53.001806101" lon="-3.940802540" /><trkpt lat="53.001822388" lon="-3.940808685" /><trkpt lat="53.001838579" lon="-3.940814633" /><trkpt lat="53.001854631" lon="-3.940820383" /><trkpt lat="53.001870504" lon="-3.940825934" /><trkpt lat="53.001886157" lon="-3.940831284" /><trkpt lat="53.001901549" lon="-3.940836433" /><trkpt lat="53.001916638" lon="-3.940841378" /><trkpt lat="53.001931384" lon="-3.940846119" /><trkpt lat="53.001945746" lon="-3.940850654" /><trkpt lat="53.001959682" lon="-3.940854981" /><trkpt lat="53.001973151" lon="-3.940859101" /><trkpt lat="53.001986112" lon="-3.940863011" /><trkpt lat="53.001998524" lon="-3.940866710" /><trkpt lat="53.002010346" lon="-3.940870197" /><trkpt lat="53.002021537" lon="-3.940873470" /><trkpt lat="53.002032056" lon="-3.940876528" /><trkpt lat="53.002042000" lon="-3.940879522" /><trkpt lat="53.002051508" lon="-3.940882592" /><trkpt lat="53.002060599" lon="-3.940885718" /><trkpt lat="53.002069293" lon="-3.940888885" /><trkpt lat="53.002077608" lon="-3.940892072" /><trkpt lat="53.002085566" lon="-3.940895263" /><trkpt lat="53.002093183" lon="-3.940898440" /><trkpt lat="53.002100482" lon="-3.940901584" /><trkpt lat="53.002107480" lon="-3.940904678" /><trkpt lat="53.002114197" lon="-3.940907704" /><trkpt lat="53.002120652" lon="-3.940910643" /><trkpt lat="53.002126866" lon="-3.940913478" /><trkpt lat="53.002132858" lon="-3.940916190" /><trkpt lat="53.002138646" lon="-3.940918763" /><trkpt lat="53.002144251" lon="-3.940921177" /><trkpt lat="53.002149691" lon="-3.940923415" /><trkpt lat="53.002154987" lon="-3.940925459" /><trkpt lat="53.002160157" lon="-3.940927291" /><trkpt lat="53.002165222" lon="-3.940928893" /><trkpt lat="53.002170200" lon="-3.940930247" /><trkpt lat="53.002175111" lon="-3.940931335" /><trkpt lat="53.002179975" lon="-3.940932139" /><trkpt lat="53.002184811" lon="-3.940932642" /><trkpt lat="53.002189638" lon="-3.940932824" /><trkpt lat="53.002194475" lon="-3.940932669" /><trkpt lat="53.002199343" lon="-3.940932158" /><trkpt lat="53.002204261" lon="-3.940931273" /><trkpt lat="53.002209247" lon="-3.940929996" /><trkpt lat="53.002214323" lon="-3.940928310" /><trkpt lat="53.002219506" lon="-3.940926197" /><trkpt lat="53.002224484" lon="-3.940924164" /><trkpt lat="53.002228958" lon="-3.940922711" /><trkpt lat="53.002232967" lon="-3.940921805" /><trkpt lat="53.002236552" lon="-3.940921412" /><trkpt lat="53.002239753" lon="-3.940921499" /><trkpt lat="53.002242610" lon="-3.940922034" /><trkpt lat="53.002245163" lon="-3.940922982" /><trkpt lat="53.002247452" lon="-3.940924311" /><trkpt lat="53.002249517" lon="-3.940925988" /><trkpt lat="53.002251398" lon="-3.940927979" /><trkpt lat="53.002253136" lon="-3.940930252" /><trkpt lat="53.002254771" lon="-3.940932772" /><trkpt lat="53.002256342" lon="-3.940935507" /><trkpt lat="53.002257889" lon="-3.940938425" /><trkpt lat="53.002259454" lon="-3.940941490" /><trkpt lat="53.002261075" lon="-3.940944672" /><trkpt lat="53.002262794" lon="-3.940947935" /><trkpt lat="53.002264649" lon="-3.940951248" /><trkpt lat="53.002266682" lon="-3.940954576" /><trkpt lat="53.002268932" lon="-3.940957888" /><trkpt lat="53.002271439" lon="-3.940961149" /><trkpt lat="53.002274243" lon="-3.940964326" /><trkpt lat="53.002277386" lon="-3.940967387" /><trkpt lat="53.002280905" lon="-3.940970298" /><trkpt lat="53.002284843" lon="-3.940973026" /><trkpt lat="53.002289238" lon="-3.940975538" /><trkpt lat="53.002294132" lon="-3.940977800" /><trkpt lat="53.002299563" lon="-3.940979780" /><trkpt lat="53.002305572" lon="-3.940981444" /><trkpt lat="53.002312200" lon="-3.940982759" /><trkpt lat="53.002319386" lon="-3.940984175" /><trkpt lat="53.002327025" lon="-3.940986096" /><trkpt lat="53.002335086" lon="-3.940988426" /><trkpt lat="53.002343538" lon="-3.940991066" /><trkpt lat="53.002352351" lon="-3.940993920" /><trkpt lat="53.002361495" lon="-3.940996889" /><trkpt lat="53.002370939" lon="-3.940999876" /><trkpt lat="53.002380653" lon="-3.941002783" /><trkpt lat="53.002390606" lon="-3.941005514" /><trkpt lat="53.002400768" lon="-3.941007969" /><trkpt lat="53.002411109" lon="-3.941010053" /><trkpt lat="53.002421598" lon="-3.941011666" /><trkpt lat="53.002432205" lon="-3.941012712" /><trkpt lat="53.002442900" lon="-3.941013093" /><trkpt lat="53.002453651" lon="-3.941012711" /><trkpt lat="53.002464429" lon="-3.941011469" /><trkpt lat="53.002475203" lon="-3.941009270" /><trkpt lat="53.002485943" lon="-3.941006014" /><trkpt lat="53.002496619" lon="-3.941001606" /><trkpt lat="53.002507199" lon="-3.940995948" /><trkpt lat="53.002517654" lon="-3.940988941" /><trkpt lat="53.002527953" lon="-3.940980489" /><trkpt lat="53.002538066" lon="-3.940970493" /><trkpt lat="53.002547962" lon="-3.940958857" /><trkpt lat="53.002557610" lon="-3.940945482" /><trkpt lat="53.002566982" lon="-3.940930271" /><trkpt lat="53.002576045" lon="-3.940913127" /><trkpt lat="53.002584771" lon="-3.940893951" /><trkpt lat="53.002593127" lon="-3.940872647" /><trkpt lat="53.002601085" lon="-3.940849117" /><trkpt lat="53.002608567" lon="-3.940825207" /><trkpt lat="53.002615540" lon="-3.940802777" /><trkpt lat="53.002622037" lon="-3.940781745" /><trkpt lat="53.002628090" lon="-3.940762031" /><trkpt lat="53.002633732" lon="-3.940743555" /><trkpt lat="53.002638995" lon="-3.940726234" /><trkpt lat="53.002643911" lon="-3.940709990" /><trkpt lat="53.002648513" lon="-3.940694740" /><trkpt lat="53.002652834" lon="-3.940680404" /><trkpt lat="53.002656906" lon="-3.940666901" /><trkpt lat="53.002660762" lon="-3.940654151" /><trkpt lat="53.002664434" lon="-3.940642073" /><trkpt lat="53.002667954" lon="-3.940630586" /><trkpt lat="53.002671356" lon="-3.940619608" /><trkpt lat="53.002674671" lon="-3.940609061" /><trkpt lat="53.002677933" lon="-3.940598862" /><trkpt lat="53.002681173" lon="-3.940588931" /><trkpt lat="53.002684425" lon="-3.940579187" /><trkpt lat="53.002687720" lon="-3.940569549" /><trkpt lat="53.002691091" lon="-3.940559938" /><trkpt lat="53.002694572" lon="-3.940550271" /><trkpt lat="53.002698193" lon="-3.940540468" /><trkpt lat="53.002701988" lon="-3.940530448" /><trkpt lat="53.002705990" lon="-3.940520131" /><trkpt lat="53.002710230" lon="-3.940509436" /><trkpt lat="53.002714742" lon="-3.940498282" /><trkpt lat="53.002719557" lon="-3.940486588" /><trkpt lat="53.002724709" lon="-3.940474273" /><trkpt lat="53.002730230" lon="-3.940461257" /><trkpt lat="53.002736152" lon="-3.940447460" /><trkpt lat="53.002742633" lon="-3.940433167" /><trkpt lat="53.002749781" lon="-3.940418730" /><trkpt lat="53.002757551" lon="-3.940404169" /><trkpt lat="53.002765901" lon="-3.940389500" /><trkpt lat="53.002774785" lon="-3.940374742" /><trkpt lat="53.002784161" lon="-3.940359913" /><trkpt lat="53.002793985" lon="-3.940345029" /><trkpt lat="53.002804212" lon="-3.940330110" /><trkpt lat="53.002814800" lon="-3.940315173" /><trkpt lat="53.002825704" lon="-3.940300236" /><trkpt lat="53.002836880" lon="-3.940285317" /><trkpt lat="53.002848286" lon="-3.940270434" /><trkpt lat="53.002859876" lon="-3.940255604" /><trkpt lat="53.002871608" lon="-3.940240846" /><trkpt lat="53.002883437" lon="-3.940226178" /><trkpt lat="53.002895320" lon="-3.940211616" /><trkpt lat="53.002907214" lon="-3.940197180" /><trkpt lat="53.002919073" lon="-3.940182887" /><trkpt lat="53.002930855" lon="-3.940168754" /><trkpt lat="53.002942516" lon="-3.940154801" /><trkpt lat="53.002954012" lon="-3.940141044" /><trkpt lat="53.002965299" lon="-3.940127502" /><trkpt lat="53.002976333" lon="-3.940114192" /><trkpt lat="53.002987071" lon="-3.940101133" /><trkpt lat="53.002997469" lon="-3.940088342" /><trkpt lat="53.003007484" lon="-3.940075837" /><trkpt lat="53.003017071" lon="-3.940063636" /><trkpt lat="53.003026186" lon="-3.940051756" /><trkpt lat="53.003034787" lon="-3.940040217" /><trkpt lat="53.003042828" lon="-3.940029035" /></trkseg></trk></gpx>