<?xml version='1.0' encoding='utf-8'?>
<gpx version="1.1" creator="OpenTrack rally2gpx source authoring" xmlns="http://www.topografix.com/GPX/1/1"><metadata><name>SS 12+14 - Myherin</name><link href="https://www.rally-maps.com/Wales-Rally-GB-2019" /><desc>Complete source route; Rally-Maps spline tangents expanded before GPX export. No source elevation is supplied.</desc></metadata><trk><trkseg><trkpt lat="52.389438289" lon="-3.724444958" /><trkpt lat="52.389559422" lon="-3.724737319" /><trkpt lat="52.389670732" lon="-3.725061866" /><trkpt lat="52.389858283" lon="-3.725608612" /><trkpt lat="52.390221676" lon="-3.726574207" /><trkpt lat="52.390503930" lon="-3.727203012" /><trkpt lat="52.390850949" lon="-3.727937937" /><trkpt lat="52.391211061" lon="-3.728635311" /><trkpt lat="52.391351831" lon="-3.728924990" /><trkpt lat="52.391436947" lon="-3.729220033" /><trkpt lat="52.391476232" lon="-3.729461432" /><trkpt lat="52.391508969" lon="-3.729729652" /><trkpt lat="52.391492600" lon="-3.729976416" /><trkpt lat="52.391443495" lon="-3.730250001" /><trkpt lat="52.391440221" lon="-3.730486035" /><trkpt lat="52.391456589" lon="-3.730748892" /><trkpt lat="52.391518790" lon="-3.730968833" /><trkpt lat="52.391653011" lon="-3.731301427" /><trkpt lat="52.391846159" lon="-3.731698394" /><trkpt lat="52.392114600" lon="-3.732149005" /><trkpt lat="52.392314292" lon="-3.732481599" /><trkpt lat="52.392510711" lon="-3.732905388" /><trkpt lat="52.392671118" lon="-3.733162880" /><trkpt lat="52.392802063" lon="-3.733318448" /><trkpt lat="52.393132696" lon="-3.733522296" /><trkpt lat="52.393574627" lon="-3.733747602" /><trkpt lat="52.394222786" lon="-3.734021187" /><trkpt lat="52.394779277" lon="-3.734257221" /><trkpt lat="52.395335762" lon="-3.734471798" /><trkpt lat="52.395607455" lon="-3.734605908" /><trkpt lat="52.396006808" lon="-3.734799027" /><trkpt lat="52.396451984" lon="-3.734927773" /><trkpt lat="52.396609104" lon="-3.735029697" /><trkpt lat="52.396749857" lon="-3.735201359" /><trkpt lat="52.396884063" lon="-3.735389113" /><trkpt lat="52.396965895" lon="-3.735550046" /><trkpt lat="52.397034634" lon="-3.735748529" /><trkpt lat="52.397073914" lon="-3.735984564" /><trkpt lat="52.397100100" lon="-3.736209869" /><trkpt lat="52.397096827" lon="-3.736542463" /><trkpt lat="52.397070641" lon="-3.737255931" /><trkpt lat="52.397047728" lon="-3.738269806" /><trkpt lat="52.397008448" lon="-3.739144206" /><trkpt lat="52.397005175" lon="-3.739390969" /><trkpt lat="52.396959349" lon="-3.739578724" /><trkpt lat="52.396897156" lon="-3.739728928" /><trkpt lat="52.396812050" lon="-3.739857674" /><trkpt lat="52.396687664" lon="-3.740002513" /><trkpt lat="52.396576371" lon="-3.740072250" /><trkpt lat="52.396373424" lon="-3.740136623" /><trkpt lat="52.396072276" lon="-3.740211725" /><trkpt lat="52.395699110" lon="-3.740302920" /><trkpt lat="52.395142630" lon="-3.740506768" /><trkpt lat="52.394792371" lon="-3.740619421" /><trkpt lat="52.394510853" lon="-3.740689158" /><trkpt lat="52.394275162" lon="-3.740726709" /><trkpt lat="52.394042743" lon="-3.740774989" /><trkpt lat="52.393826690" lon="-3.740860820" /><trkpt lat="52.393597542" lon="-3.740941286" /><trkpt lat="52.393417497" lon="-3.740984201" /><trkpt lat="52.393243997" lon="-3.740952015" /><trkpt lat="52.393011573" lon="-3.740952015" /><trkpt lat="52.392716949" lon="-3.741000295" /><trkpt lat="52.392471427" lon="-3.741075397" /><trkpt lat="52.392252093" lon="-3.741230965" /><trkpt lat="52.391986927" lon="-3.741509914" /><trkpt lat="52.391816696" lon="-3.741751313" /><trkpt lat="52.391715212" lon="-3.741944432" /><trkpt lat="52.391603906" lon="-3.742330670" /><trkpt lat="52.391505695" lon="-3.742588162" /><trkpt lat="52.391237250" lon="-3.743478656" /><trkpt lat="52.391057195" lon="-3.744106293" /><trkpt lat="52.391008089" lon="-3.744358420" /><trkpt lat="52.390998268" lon="-3.744610548" /><trkpt lat="52.391004815" lon="-3.744969964" /><trkpt lat="52.391050648" lon="-3.745645881" /><trkpt lat="52.391109575" lon="-3.746391535" /><trkpt lat="52.391161955" lon="-3.746740222" /><trkpt lat="52.391312546" lon="-3.747233748" /><trkpt lat="52.391489326" lon="-3.747845292" /><trkpt lat="52.391574443" lon="-3.748199344" /><trkpt lat="52.391639917" lon="-3.748778701" /><trkpt lat="52.391669380" lon="-3.749175668" /><trkpt lat="52.391669380" lon="-3.749567270" /><trkpt lat="52.391623548" lon="-3.749824762" /><trkpt lat="52.391541706" lon="-3.750237823" /><trkpt lat="52.391463137" lon="-3.750506043" /><trkpt lat="52.391299451" lon="-3.750924468" /><trkpt lat="52.391135765" lon="-3.751332164" /><trkpt lat="52.390988447" lon="-3.751772046" /><trkpt lat="52.390932793" lon="-3.752045631" /><trkpt lat="52.390903329" lon="-3.752265573" /><trkpt lat="52.390883687" lon="-3.752458692" /><trkpt lat="52.390854223" lon="-3.752592802" /><trkpt lat="52.390824759" lon="-3.752673268" /><trkpt lat="52.390752737" lon="-3.752732277" /><trkpt lat="52.390674166" lon="-3.752785921" /><trkpt lat="52.390484288" lon="-3.752796650" /><trkpt lat="52.390268218" lon="-3.752828836" /><trkpt lat="52.389993218" lon="-3.752871752" /><trkpt lat="52.389868813" lon="-3.752898574" /><trkpt lat="52.389701847" lon="-3.753000498" /><trkpt lat="52.389443213" lon="-3.753139973" /><trkpt lat="52.389178030" lon="-3.753311634" /><trkpt lat="52.389001241" lon="-3.753418922" /><trkpt lat="52.388853915" lon="-3.753504753" /><trkpt lat="52.388628016" lon="-3.753579855" /><trkpt lat="52.388330088" lon="-3.753724694" /><trkpt lat="52.388015789" lon="-3.753950000" /><trkpt lat="52.387806255" lon="-3.754127026" /><trkpt lat="52.387675295" lon="-3.754245043" /><trkpt lat="52.387577076" lon="-3.754379153" /><trkpt lat="52.387475582" lon="-3.754663467" /><trkpt lat="52.387387184" lon="-3.754926324" /><trkpt lat="52.387302059" lon="-3.755049706" /><trkpt lat="52.386935368" lon="-3.755360842" /><trkpt lat="52.386784762" lon="-3.755521774" /><trkpt lat="52.386709458" lon="-3.755645156" /><trkpt lat="52.386676718" lon="-3.755800724" /><trkpt lat="52.386621059" lon="-3.756186962" /><trkpt lat="52.386555577" lon="-3.756530285" /><trkpt lat="52.386431162" lon="-3.757029176" /><trkpt lat="52.386300199" lon="-3.757565618" /><trkpt lat="52.386231443" lon="-3.757828474" /><trkpt lat="52.386136494" lon="-3.758118153" /><trkpt lat="52.386080834" lon="-3.758450747" /><trkpt lat="52.386057916" lon="-3.758853078" /><trkpt lat="52.386018626" lon="-3.759282231" /><trkpt lat="52.386028449" lon="-3.759555817" /><trkpt lat="52.386071012" lon="-3.760043979" /><trkpt lat="52.386126672" lon="-3.760569692" /><trkpt lat="52.386146317" lon="-3.760843277" /><trkpt lat="52.386123398" lon="-3.761031032" /><trkpt lat="52.386084109" lon="-3.761197329" /><trkpt lat="52.386008804" lon="-3.761352897" /><trkpt lat="52.385835276" lon="-3.761669397" /><trkpt lat="52.385743600" lon="-3.761942983" /><trkpt lat="52.385642102" lon="-3.762179017" /><trkpt lat="52.385556974" lon="-3.762286305" /><trkpt lat="52.385448927" lon="-3.762393594" /><trkpt lat="52.385324509" lon="-3.762457967" /><trkpt lat="52.385121511" lon="-3.762533069" /><trkpt lat="52.384954528" lon="-3.762602806" /><trkpt lat="52.384807189" lon="-3.762704730" /><trkpt lat="52.384591091" lon="-3.762876391" /><trkpt lat="52.384342250" lon="-3.763101697" /><trkpt lat="52.384162167" lon="-3.763391376" /><trkpt lat="52.384047568" lon="-3.763595223" /><trkpt lat="52.383870758" lon="-3.763836622" /><trkpt lat="52.383700495" lon="-3.764061928" /><trkpt lat="52.383402534" lon="-3.764410615" /><trkpt lat="52.383242093" lon="-3.764603734" /><trkpt lat="52.383170058" lon="-3.764753938" /><trkpt lat="52.383137315" lon="-3.764957786" /><trkpt lat="52.383107846" lon="-3.765204549" /><trkpt lat="52.383048908" lon="-3.765467405" /><trkpt lat="52.382947404" lon="-3.765783906" /><trkpt lat="52.382829527" lon="-3.766127229" /><trkpt lat="52.382646164" lon="-3.766583204" /><trkpt lat="52.382475896" lon="-3.767135739" /><trkpt lat="52.382312177" lon="-3.767666817" /><trkpt lat="52.382191025" lon="-3.767983317" /><trkpt lat="52.382118988" lon="-3.768197894" /><trkpt lat="52.382102616" lon="-3.768358827" /><trkpt lat="52.382109165" lon="-3.768498302" /><trkpt lat="52.382145183" lon="-3.768702149" /><trkpt lat="52.382135360" lon="-3.768841624" /><trkpt lat="52.382115714" lon="-3.768981099" /><trkpt lat="52.382050226" lon="-3.769168854" /><trkpt lat="52.381938896" lon="-3.769426346" /><trkpt lat="52.381794822" lon="-3.769753575" /><trkpt lat="52.381591807" lon="-3.770316839" /><trkpt lat="52.381362595" lon="-3.770923018" /><trkpt lat="52.381293832" lon="-3.771159053" /><trkpt lat="52.381244715" lon="-3.771416545" /><trkpt lat="52.381195598" lon="-3.771722317" /><trkpt lat="52.381156304" lon="-3.771904707" /><trkpt lat="52.381097364" lon="-3.772065639" /><trkpt lat="52.380986031" lon="-3.772398233" /><trkpt lat="52.380871424" lon="-3.772757649" /><trkpt lat="52.380783013" lon="-3.773068786" /><trkpt lat="52.380619288" lon="-3.773508668" /><trkpt lat="52.380579994" lon="-3.773701787" /><trkpt lat="52.380570170" lon="-3.774002194" /><trkpt lat="52.380576719" lon="-3.774356246" /><trkpt lat="52.380543974" lon="-3.774619102" /><trkpt lat="52.380504680" lon="-3.774849772" /><trkpt lat="52.380442464" lon="-3.775069714" /><trkpt lat="52.380386797" lon="-3.775295019" /><trkpt lat="52.380318032" lon="-3.775514960" /><trkpt lat="52.380262364" lon="-3.775767088" /><trkpt lat="52.380242717" lon="-3.775928020" /><trkpt lat="52.380226345" lon="-3.776180148" /><trkpt lat="52.380137932" lon="-3.776791692" /><trkpt lat="52.380095363" lon="-3.777059913" /><trkpt lat="52.380029872" lon="-3.777365685" /><trkpt lat="52.380010224" lon="-3.777574897" /><trkpt lat="52.380026597" lon="-3.777741194" /><trkpt lat="52.380036421" lon="-3.777923584" /><trkpt lat="52.380020048" lon="-3.778100610" /><trkpt lat="52.379987302" lon="-3.778320551" /><trkpt lat="52.379918537" lon="-3.778529763" /><trkpt lat="52.379839947" lon="-3.778712153" /><trkpt lat="52.379705690" lon="-3.778964281" /><trkpt lat="52.379571432" lon="-3.779168129" /><trkpt lat="52.379505940" lon="-3.779318333" /><trkpt lat="52.379489567" lon="-3.779484630" /><trkpt lat="52.379479743" lon="-3.779683113" /><trkpt lat="52.379499391" lon="-3.779897690" /><trkpt lat="52.379564882" lon="-3.780224919" /><trkpt lat="52.379620550" lon="-3.780455589" /><trkpt lat="52.379702415" lon="-3.780696988" /><trkpt lat="52.379741710" lon="-3.780879378" /><trkpt lat="52.379738435" lon="-3.781024218" /><trkpt lat="52.379722062" lon="-3.781222701" /><trkpt lat="52.379686042" lon="-3.781356812" /><trkpt lat="52.379617276" lon="-3.781544566" /><trkpt lat="52.379591079" lon="-3.781689405" /><trkpt lat="52.379574706" lon="-3.781877160" /><trkpt lat="52.379574706" lon="-3.782129288" /><trkpt lat="52.379594354" lon="-3.782290220" /><trkpt lat="52.379630374" lon="-3.782515526" /><trkpt lat="52.379643473" lon="-3.782665730" /><trkpt lat="52.379640198" lon="-3.782858849" /><trkpt lat="52.379620550" lon="-3.782971501" /><trkpt lat="52.379568157" lon="-3.783094883" /><trkpt lat="52.379499391" lon="-3.783202171" /><trkpt lat="52.379355308" lon="-3.783363104" /><trkpt lat="52.379181754" lon="-3.783577681" /><trkpt lat="52.379126085" lon="-3.783684969" /><trkpt lat="52.379096614" lon="-3.783802986" /><trkpt lat="52.379063867" lon="-3.783963919" /><trkpt lat="52.379054044" lon="-3.784205317" /><trkpt lat="52.379063867" lon="-3.784387708" /><trkpt lat="52.379083515" lon="-3.784527183" /><trkpt lat="52.379119536" lon="-3.784650564" /><trkpt lat="52.379109712" lon="-3.784741759" /><trkpt lat="52.379083515" lon="-3.784800768" /><trkpt lat="52.379034396" lon="-3.784854412" /><trkpt lat="52.378965629" lon="-3.784881234" /><trkpt lat="52.378834643" lon="-3.784886599" /><trkpt lat="52.378726580" lon="-3.784918785" /><trkpt lat="52.378592319" lon="-3.785020709" /><trkpt lat="52.378477705" lon="-3.785127997" /><trkpt lat="52.378359817" lon="-3.785294294" /><trkpt lat="52.378277950" lon="-3.785455227" /><trkpt lat="52.378205907" lon="-3.785626888" /><trkpt lat="52.378130589" lon="-3.785766363" /><trkpt lat="52.378019249" lon="-3.785911202" /><trkpt lat="52.377731074" lon="-3.786211610" /><trkpt lat="52.377616459" lon="-3.786351085" /><trkpt lat="52.377557514" lon="-3.786512017" /><trkpt lat="52.377505118" lon="-3.786705136" /><trkpt lat="52.377482195" lon="-3.787016273" /><trkpt lat="52.377469096" lon="-3.787402511" /><trkpt lat="52.377485469" lon="-3.787702918" /><trkpt lat="52.377537865" lon="-3.788110614" /><trkpt lat="52.377609909" lon="-3.788421750" /><trkpt lat="52.377672129" lon="-3.788663149" /><trkpt lat="52.377740899" lon="-3.788818717" /><trkpt lat="52.377819492" lon="-3.788893819" /><trkpt lat="52.377917733" lon="-3.788958192" /><trkpt lat="52.378032348" lon="-3.789006472" /><trkpt lat="52.378084743" lon="-3.789076209" /><trkpt lat="52.378117490" lon="-3.789204955" /><trkpt lat="52.378127314" lon="-3.789371252" /><trkpt lat="52.378097842" lon="-3.789521456" /><trkpt lat="52.378029073" lon="-3.789719939" /><trkpt lat="52.377868613" lon="-3.790052533" /><trkpt lat="52.377675404" lon="-3.790428042" /><trkpt lat="52.377521491" lon="-3.790771365" /><trkpt lat="52.377482195" lon="-3.790980577" /><trkpt lat="52.377488744" lon="-3.791130781" /><trkpt lat="52.377508392" lon="-3.791232705" /><trkpt lat="52.377577162" lon="-3.791447282" /><trkpt lat="52.377570612" lon="-3.791597486" /><trkpt lat="52.377554239" lon="-3.791747689" /><trkpt lat="52.377505118" lon="-3.791871071" /><trkpt lat="52.377426524" lon="-3.791989088" /><trkpt lat="52.377233313" lon="-3.792176843" /><trkpt lat="52.377076124" lon="-3.792402148" /><trkpt lat="52.376876363" lon="-3.792804480" /><trkpt lat="52.376709348" lon="-3.793126345" /><trkpt lat="52.376604554" lon="-3.793389201" /><trkpt lat="52.376532509" lon="-3.793625236" /><trkpt lat="52.376457188" lon="-3.794000745" /><trkpt lat="52.376355668" lon="-3.794735670" /><trkpt lat="52.376296721" lon="-3.794998527" /><trkpt lat="52.376231225" lon="-3.795180917" /><trkpt lat="52.376139529" lon="-3.795363307" /><trkpt lat="52.376103506" lon="-3.795492053" /><trkpt lat="52.376100231" lon="-3.795577884" /><trkpt lat="52.376132979" lon="-3.795690536" /><trkpt lat="52.376208301" lon="-3.795872927" /><trkpt lat="52.376309821" lon="-3.796087503" /><trkpt lat="52.376411340" lon="-3.796189427" /><trkpt lat="52.376516135" lon="-3.796253800" /><trkpt lat="52.376611104" lon="-3.796264529" /><trkpt lat="52.376784669" lon="-3.796200156" /><trkpt lat="52.376990980" lon="-3.796125054" /><trkpt lat="52.377318457" lon="-3.796157241" /><trkpt lat="52.377423249" lon="-3.796173334" /><trkpt lat="52.377485469" lon="-3.796210885" /><trkpt lat="52.377547689" lon="-3.796291351" /><trkpt lat="52.377580437" lon="-3.796409369" /><trkpt lat="52.377619734" lon="-3.796640038" /><trkpt lat="52.377662305" lon="-3.797015548" /><trkpt lat="52.377675404" lon="-3.797219396" /><trkpt lat="52.377665580" lon="-3.797369599" /><trkpt lat="52.377593536" lon="-3.797621727" /><trkpt lat="52.377498568" lon="-3.797970414" /><trkpt lat="52.377455997" lon="-3.798174262" /><trkpt lat="52.377449447" lon="-3.798313737" /><trkpt lat="52.377469096" lon="-3.798571229" /><trkpt lat="52.377478920" lon="-3.798732162" /><trkpt lat="52.377459271" lon="-3.798866272" /><trkpt lat="52.377403601" lon="-3.798995018" /><trkpt lat="52.377302083" lon="-3.799118400" /><trkpt lat="52.377144895" lon="-3.799327612" /><trkpt lat="52.377092498" lon="-3.799488544" /><trkpt lat="52.377059751" lon="-3.799660206" /><trkpt lat="52.377063025" lon="-3.799826503" /><trkpt lat="52.377069575" lon="-3.800207376" /><trkpt lat="52.377063025" lon="-3.800620437" /><trkpt lat="52.377033552" lon="-3.800792098" /><trkpt lat="52.376987705" lon="-3.800926208" /><trkpt lat="52.376915660" lon="-3.801054955" /><trkpt lat="52.376607829" lon="-3.801462650" /><trkpt lat="52.376306546" lon="-3.801827431" /><trkpt lat="52.376182102" lon="-3.801934719" /><trkpt lat="52.376077307" lon="-3.801966906" /><trkpt lat="52.375933214" lon="-3.801956177" /><trkpt lat="52.375684324" lon="-3.801881075" /><trkpt lat="52.375559878" lon="-3.801854253" /><trkpt lat="52.375432157" lon="-3.801881075" /><trkpt lat="52.375183265" lon="-3.801999092" /><trkpt lat="52.375016244" lon="-3.802079558" /><trkpt lat="52.374760799" lon="-3.802154660" /><trkpt lat="52.374518452" lon="-3.802165389" /><trkpt lat="52.374279379" lon="-3.802133203" /><trkpt lat="52.374001005" lon="-3.802079558" /><trkpt lat="52.373860179" lon="-3.802090287" /><trkpt lat="52.373680053" lon="-3.802127838" /><trkpt lat="52.373581802" lon="-3.802197576" /><trkpt lat="52.373378750" lon="-3.802417517" /><trkpt lat="52.373172421" lon="-3.802728653" /><trkpt lat="52.373113470" lon="-3.802937865" /><trkpt lat="52.373051244" lon="-3.803222179" /><trkpt lat="52.373028318" lon="-3.803495765" /><trkpt lat="52.373064344" lon="-3.803726435" /><trkpt lat="52.373103645" lon="-3.803860545" /><trkpt lat="52.373172421" lon="-3.803957105" /><trkpt lat="52.373290323" lon="-3.804080486" /><trkpt lat="52.373395125" lon="-3.804193139" /><trkpt lat="52.373467176" lon="-3.804332614" /><trkpt lat="52.373519577" lon="-3.804541826" /><trkpt lat="52.373535952" lon="-3.804911971" /><trkpt lat="52.373558877" lon="-3.805405498" /><trkpt lat="52.373571977" lon="-3.805748820" /><trkpt lat="52.373555602" lon="-3.806473017" /><trkpt lat="52.373565427" lon="-3.807755113" /><trkpt lat="52.373598178" lon="-3.808211088" /><trkpt lat="52.373640753" lon="-3.808490038" /><trkpt lat="52.373725904" lon="-3.808758259" /><trkpt lat="52.373791404" lon="-3.808994293" /><trkpt lat="52.373827429" lon="-3.809230328" /><trkpt lat="52.373833979" lon="-3.809493184" /><trkpt lat="52.373716079" lon="-3.810174465" /><trkpt lat="52.373621103" lon="-3.810576797" /><trkpt lat="52.373499926" lon="-3.810914755" /><trkpt lat="52.373359100" lon="-3.811182976" /><trkpt lat="52.373254298" lon="-3.811306357" /><trkpt lat="52.373156046" lon="-3.811370730" /><trkpt lat="52.373028318" lon="-3.811370730" /><trkpt lat="52.372877665" lon="-3.811333179" /><trkpt lat="52.372589456" lon="-3.811209798" /><trkpt lat="52.372471552" lon="-3.811193705" /><trkpt lat="52.371868927" lon="-3.811201751" /><trkpt lat="52.371737920" lon="-3.811247349" /><trkpt lat="52.371623289" lon="-3.811354637" /><trkpt lat="52.371559423" lon="-3.811448514" /><trkpt lat="52.371541410" lon="-3.811523616" /><trkpt lat="52.371543047" lon="-3.811593354" /><trkpt lat="52.371577437" lon="-3.811663091" /><trkpt lat="52.371646215" lon="-3.811759651" /><trkpt lat="52.371692068" lon="-3.811888397" /><trkpt lat="52.371685518" lon="-3.812006414" /><trkpt lat="52.371646215" lon="-3.812145889" /><trkpt lat="52.371498832" lon="-3.812499940" /><trkpt lat="52.371452980" lon="-3.812746704" /><trkpt lat="52.371446429" lon="-3.812931776" /><trkpt lat="52.371466080" lon="-3.813132942" /><trkpt lat="52.371505383" lon="-3.813427985" /><trkpt lat="52.371572524" lon="-3.813639879" /><trkpt lat="52.371693705" lon="-3.813846409" /><trkpt lat="52.371850913" lon="-3.814060986" /><trkpt lat="52.371945893" lon="-3.814240694" /><trkpt lat="52.372013034" lon="-3.814369440" /><trkpt lat="52.372081812" lon="-3.814573288" /><trkpt lat="52.372134214" lon="-3.814932704" /><trkpt lat="52.372130939" lon="-3.815399408" /><trkpt lat="52.372166965" lon="-3.815699816" /><trkpt lat="52.372324172" lon="-3.816434741" /><trkpt lat="52.372409325" lon="-3.816885352" /><trkpt lat="52.372484653" lon="-3.817566633" /><trkpt lat="52.372540330" lon="-3.817974329" /><trkpt lat="52.372589456" lon="-3.818199635" /><trkpt lat="52.372677884" lon="-3.818392754" /><trkpt lat="52.372776137" lon="-3.818537593" /><trkpt lat="52.372874390" lon="-3.818585873" /><trkpt lat="52.373025043" lon="-3.818601966" /><trkpt lat="52.373129845" lon="-3.818591237" /><trkpt lat="52.373251023" lon="-3.818483949" /><trkpt lat="52.373382025" lon="-3.818242550" /><trkpt lat="52.373480276" lon="-3.817931414" /><trkpt lat="52.373591627" lon="-3.817679286" /><trkpt lat="52.373686603" lon="-3.817464709" /><trkpt lat="52.373807779" lon="-3.817271590" /><trkpt lat="52.374086155" lon="-3.816912174" /><trkpt lat="52.374348153" lon="-3.816525936" /><trkpt lat="52.374786998" lon="-3.815892935" /><trkpt lat="52.375068642" lon="-3.815517426" /><trkpt lat="52.375622101" lon="-3.814680576" /><trkpt lat="52.376139529" lon="-3.814031482" /><trkpt lat="52.376332744" lon="-3.813881278" /><trkpt lat="52.376509585" lon="-3.813832998" /><trkpt lat="52.376673325" lon="-3.813720345" /><trkpt lat="52.376801043" lon="-3.813591599" /><trkpt lat="52.376948408" lon="-3.813334107" /><trkpt lat="52.377194016" lon="-3.812835217" /><trkpt lat="52.377426524" lon="-3.812314868" /><trkpt lat="52.377537865" lon="-3.811966181" /><trkpt lat="52.377681953" lon="-3.811451197" /><trkpt lat="52.377884986" lon="-3.810812831" /><trkpt lat="52.378068370" lon="-3.810372949" /><trkpt lat="52.378192808" lon="-3.810174465" /><trkpt lat="52.378366366" lon="-3.809981346" /><trkpt lat="52.378569396" lon="-3.809756041" /><trkpt lat="52.378723305" lon="-3.809568286" /><trkpt lat="52.378867389" lon="-3.809401989" /><trkpt lat="52.379001649" lon="-3.809310794" /><trkpt lat="52.379181754" lon="-3.809230328" /><trkpt lat="52.379368407" lon="-3.809112310" /><trkpt lat="52.379640198" lon="-3.808908463" /><trkpt lat="52.379839947" lon="-3.808736801" /><trkpt lat="52.379980753" lon="-3.808565140" /><trkpt lat="52.380111736" lon="-3.808441758" /><trkpt lat="52.380219795" lon="-3.808286190" /><trkpt lat="52.380350777" lon="-3.808076978" /><trkpt lat="52.380485032" lon="-3.807851672" /><trkpt lat="52.380707699" lon="-3.807631731" /><trkpt lat="52.380835405" lon="-3.807438612" /><trkpt lat="52.380959836" lon="-3.807073832" /><trkpt lat="52.381087540" lon="-3.806896806" /><trkpt lat="52.381205421" lon="-3.806735873" /><trkpt lat="52.381300381" lon="-3.806526661" /><trkpt lat="52.381467378" lon="-3.805931211" /><trkpt lat="52.381500122" lon="-3.805620074" /><trkpt lat="52.381598356" lon="-3.804976344" /><trkpt lat="52.381690040" lon="-3.804627657" /><trkpt lat="52.381817742" lon="-3.804472089" /><trkpt lat="52.382001110" lon="-3.804230690" /><trkpt lat="52.382145183" lon="-3.803935647" /><trkpt lat="52.382259787" lon="-3.803699613" /><trkpt lat="52.382374391" lon="-3.803388476" /><trkpt lat="52.382469348" lon="-3.803286552" /><trkpt lat="52.382649438" lon="-3.803136349" /><trkpt lat="52.382770589" lon="-3.803093433" /><trkpt lat="52.382836076" lon="-3.803147078" /><trkpt lat="52.382888466" lon="-3.803275824" /><trkpt lat="52.382921209" lon="-3.803554773" /><trkpt lat="52.382937581" lon="-3.804016113" /><trkpt lat="52.382993244" lon="-3.804793954" /><trkpt lat="52.383042359" lon="-3.805217743" /><trkpt lat="52.383140589" lon="-3.805539608" /><trkpt lat="52.383265013" lon="-3.805743456" /><trkpt lat="52.383415632" lon="-3.805968761" /><trkpt lat="52.383589169" lon="-3.806145787" /><trkpt lat="52.383759432" lon="-3.806253076" /><trkpt lat="52.383965711" lon="-3.806312084" /><trkpt lat="52.384299685" lon="-3.806365728" /><trkpt lat="52.384663124" lon="-3.806414008" /><trkpt lat="52.385124785" lon="-3.806494474" /><trkpt lat="52.385298316" lon="-3.806515932" /><trkpt lat="52.385422734" lon="-3.806499839" /><trkpt lat="52.385553700" lon="-3.806446195" /><trkpt lat="52.385691214" lon="-3.806376457" /><trkpt lat="52.385864743" lon="-3.806279898" /><trkpt lat="52.385979337" lon="-3.806215525" /><trkpt lat="52.386234717" lon="-3.806059957" /><trkpt lat="52.386411518" lon="-3.805958033" /><trkpt lat="52.386588318" lon="-3.805888295" /><trkpt lat="52.386807680" lon="-3.805791736" /><trkpt lat="52.387053233" lon="-3.805673718" /><trkpt lat="52.387220209" lon="-3.805598617" /><trkpt lat="52.387351169" lon="-3.805512786" /><trkpt lat="52.387544336" lon="-3.805325031" /><trkpt lat="52.387793159" lon="-3.805072904" /><trkpt lat="52.388035433" lon="-3.804836869" /><trkpt lat="52.388300623" lon="-3.804627657" /><trkpt lat="52.388497059" lon="-3.804439902" /><trkpt lat="52.388667303" lon="-3.804268241" /><trkpt lat="52.388863737" lon="-3.804139495" /><trkpt lat="52.389024158" lon="-3.804005384" /><trkpt lat="52.389181304" lon="-3.803796172" /><trkpt lat="52.389308985" lon="-3.803619146" /><trkpt lat="52.389475952" lon="-3.803324103" /><trkpt lat="52.389603632" lon="-3.803222179" /><trkpt lat="52.389970301" lon="-3.803077340" /><trkpt lat="52.390255122" lon="-3.802986145" /><trkpt lat="52.390530121" lon="-3.802841306" /><trkpt lat="52.390661071" lon="-3.802755475" /><trkpt lat="52.390762558" lon="-3.802658916" /><trkpt lat="52.390913151" lon="-3.802519441" /><trkpt lat="52.391125944" lon="-3.802412152" /><trkpt lat="52.391256893" lon="-3.802406788" /><trkpt lat="52.391417305" lon="-3.802396059" /><trkpt lat="52.391567895" lon="-3.802390695" /><trkpt lat="52.391666106" lon="-3.802342415" /><trkpt lat="52.391793780" lon="-3.802294135" /><trkpt lat="52.391980380" lon="-3.802186847" /><trkpt lat="52.392130968" lon="-3.802068830" /><trkpt lat="52.392235725" lon="-3.801934719" /><trkpt lat="52.392432143" lon="-3.801779151" /><trkpt lat="52.392517258" lon="-3.801698685" /><trkpt lat="52.392569636" lon="-3.801543117" /><trkpt lat="52.392720222" lon="-3.801376820" /><trkpt lat="52.392838072" lon="-3.801312447" /><trkpt lat="52.393050856" lon="-3.801317811" /><trkpt lat="52.393512430" lon="-3.801333904" /><trkpt lat="52.393859425" lon="-3.801333904" /><trkpt lat="52.394111486" lon="-3.801290989" /><trkpt lat="52.394484665" lon="-3.801151514" /><trkpt lat="52.394831653" lon="-3.800990582" /><trkpt lat="52.395312848" lon="-3.800722361" /><trkpt lat="52.395659830" lon="-3.800539970" /><trkpt lat="52.395928247" lon="-3.800325394" /><trkpt lat="52.396069002" lon="-3.800191283" /><trkpt lat="52.396180296" lon="-3.800073266" /><trkpt lat="52.396288317" lon="-3.799906969" /><trkpt lat="52.396425798" lon="-3.799601197" /><trkpt lat="52.396546911" lon="-3.799300790" /><trkpt lat="52.396625471" lon="-3.798930645" /><trkpt lat="52.396697484" lon="-3.798549771" /><trkpt lat="52.396740037" lon="-3.798013330" /><trkpt lat="52.396746584" lon="-3.797664642" /><trkpt lat="52.396713850" lon="-3.797369599" /><trkpt lat="52.396674571" lon="-3.797187209" /><trkpt lat="52.396556731" lon="-3.796892166" /><trkpt lat="52.396510904" lon="-3.796682954" /><trkpt lat="52.396487991" lon="-3.796505928" /><trkpt lat="52.396455258" lon="-3.796001673" /><trkpt lat="52.396432344" lon="-3.795486689" /><trkpt lat="52.396438891" lon="-3.795089722" /><trkpt lat="52.396438891" lon="-3.794778585" /><trkpt lat="52.396412704" lon="-3.794644475" /><trkpt lat="52.396386517" lon="-3.794617653" /><trkpt lat="52.396357057" lon="-3.794617653" /><trkpt lat="52.396321051" lon="-3.794682026" /><trkpt lat="52.396321051" lon="-3.794896603" /><trkpt lat="52.396291590" lon="-3.795218468" /><trkpt lat="52.396232670" lon="-3.795502782" /><trkpt lat="52.396042815" lon="-3.796135783" /><trkpt lat="52.395915154" lon="-3.796473742" /><trkpt lat="52.395839866" lon="-3.796725869" /><trkpt lat="52.395866053" lon="-3.796945810" /><trkpt lat="52.395915154" lon="-3.797160387" /><trkpt lat="52.395908607" lon="-3.797407150" /><trkpt lat="52.395875873" lon="-3.797852397" /><trkpt lat="52.395826772" lon="-3.798308372" /><trkpt lat="52.395744938" lon="-3.798587322" /><trkpt lat="52.395610729" lon="-3.798823357" /><trkpt lat="52.395339036" lon="-3.799096942" /><trkpt lat="52.394920036" lon="-3.799306154" /><trkpt lat="52.394638518" lon="-3.799408078" /><trkpt lat="52.394370093" lon="-3.799408078" /><trkpt lat="52.394042743" lon="-3.799338341" /><trkpt lat="52.393715390" lon="-3.799209595" /><trkpt lat="52.393335657" lon="-3.799037933" /><trkpt lat="52.393191620" lon="-3.798925281" /><trkpt lat="52.393086866" lon="-3.798673153" /><trkpt lat="52.393063951" lon="-3.798517585" /><trkpt lat="52.393086866" lon="-3.798265457" /><trkpt lat="52.393155611" lon="-3.797975779" /><trkpt lat="52.393178526" lon="-3.797788024" /><trkpt lat="52.393135969" lon="-3.797562718" /><trkpt lat="52.393060677" lon="-3.797353506" /><trkpt lat="52.392906818" lon="-3.797165751" /><trkpt lat="52.392464880" lon="-3.796854615" /><trkpt lat="52.392268461" lon="-3.796570301" /><trkpt lat="52.392022937" lon="-3.796103597" /><trkpt lat="52.391928001" lon="-3.795824647" /><trkpt lat="52.391865801" lon="-3.795470595" /><trkpt lat="52.391829790" lon="-3.795132637" /><trkpt lat="52.391787233" lon="-3.794805408" /><trkpt lat="52.391731580" lon="-3.794623017" /><trkpt lat="52.391567895" lon="-3.794290423" /><trkpt lat="52.391410758" lon="-3.793990016" /><trkpt lat="52.391322367" lon="-3.793689609" /><trkpt lat="52.391260167" lon="-3.793265820" /><trkpt lat="52.391132491" lon="-3.792761564" /><trkpt lat="52.391004815" lon="-3.792225122" /><trkpt lat="52.390968804" lon="-3.791838884" /><trkpt lat="52.390981899" lon="-3.791613579" /><trkpt lat="52.391047374" lon="-3.791189790" /><trkpt lat="52.391125944" lon="-3.790959120" /><trkpt lat="52.391139039" lon="-3.790873289" /><trkpt lat="52.391109575" lon="-3.790792823" /><trkpt lat="52.391017910" lon="-3.790669441" /><trkpt lat="52.390762558" lon="-3.790336847" /><trkpt lat="52.390706904" lon="-3.790202737" /><trkpt lat="52.390687261" lon="-3.790073991" /><trkpt lat="52.390710178" lon="-3.789934516" /><trkpt lat="52.390785474" lon="-3.789741397" /><trkpt lat="52.390814938" lon="-3.789596558" /><trkpt lat="52.390811664" lon="-3.789446354" /><trkpt lat="52.390775653" lon="-3.789371252" /><trkpt lat="52.390661071" lon="-3.789274693" /><trkpt lat="52.390481014" lon="-3.789119124" /><trkpt lat="52.389970301" lon="-3.788647056" /><trkpt lat="52.389885182" lon="-3.788507581" /><trkpt lat="52.389885182" lon="-3.788416386" /><trkpt lat="52.389908099" lon="-3.788250089" /><trkpt lat="52.389989944" lon="-3.788062334" /><trkpt lat="52.390107801" lon="-3.787794113" /><trkpt lat="52.390192920" lon="-3.787600994" /><trkpt lat="52.390225658" lon="-3.787354231" /><trkpt lat="52.390261670" lon="-3.787150383" /><trkpt lat="52.390346789" lon="-3.786908984" /><trkpt lat="52.390445002" lon="-3.786715865" /><trkpt lat="52.390592322" lon="-3.786544204" /><trkpt lat="52.390837854" lon="-3.786340356" /><trkpt lat="52.390988447" lon="-3.786211610" /><trkpt lat="52.391132491" lon="-3.786045313" /><trkpt lat="52.391345283" lon="-3.785718083" /><trkpt lat="52.391790506" lon="-3.784967065" /><trkpt lat="52.391859254" lon="-3.784811497" /><trkpt lat="52.391996748" lon="-3.784521818" /><trkpt lat="52.392065495" lon="-3.784291148" /><trkpt lat="52.392157157" lon="-3.783861995" /><trkpt lat="52.392376492" lon="-3.783009052" /><trkpt lat="52.392582730" lon="-3.782300949" /><trkpt lat="52.392671118" lon="-3.781952262" /><trkpt lat="52.392710402" lon="-3.781641126" /><trkpt lat="52.392700581" lon="-3.781313896" /><trkpt lat="52.392710402" lon="-3.780981302" /><trkpt lat="52.392779147" lon="-3.780444860" /><trkpt lat="52.392811883" lon="-3.780074716" /><trkpt lat="52.392710402" lon="-3.779270053" /><trkpt lat="52.392641656" lon="-3.779050112" /><trkpt lat="52.392530352" lon="-3.778921366" /><trkpt lat="52.392415775" lon="-3.778873086" /><trkpt lat="52.392225904" lon="-3.778926730" /><trkpt lat="52.392039306" lon="-3.778883815" /><trkpt lat="52.391869075" lon="-3.778679967" /><trkpt lat="52.391672654" lon="-3.778309822" /><trkpt lat="52.391630096" lon="-3.778063059" /><trkpt lat="52.391646464" lon="-3.777639270" /><trkpt lat="52.391702117" lon="-3.777102828" /><trkpt lat="52.391718485" lon="-3.776829243" /><trkpt lat="52.391659559" lon="-3.776534200" /><trkpt lat="52.391495874" lon="-3.775831461" /><trkpt lat="52.391466411" lon="-3.775595427" /><trkpt lat="52.391459863" lon="-3.775418401" /><trkpt lat="52.391544979" lon="-3.775096536" /><trkpt lat="52.391659559" lon="-3.774801493" /><trkpt lat="52.391767591" lon="-3.774662018" /><trkpt lat="52.391957464" lon="-3.774576187" /><trkpt lat="52.392415775" lon="-3.774409890" /><trkpt lat="52.392608919" lon="-3.774345517" /><trkpt lat="52.392779147" lon="-3.774265051" /><trkpt lat="52.393152337" lon="-3.774045110" /><trkpt lat="52.393460053" lon="-3.773900270" /><trkpt lat="52.393600816" lon="-3.773846626" /><trkpt lat="52.393669560" lon="-3.773760796" /><trkpt lat="52.393731757" lon="-3.773567677" /><trkpt lat="52.393846331" lon="-3.773176074" /><trkpt lat="52.393977272" lon="-3.772548437" /><trkpt lat="52.394075478" lon="-3.772183657" /><trkpt lat="52.394160589" lon="-3.771797419" /><trkpt lat="52.394356999" lon="-3.771438003" /><trkpt lat="52.394559955" lon="-3.771073222" /><trkpt lat="52.394703988" lon="-3.770772815" /><trkpt lat="52.394785824" lon="-3.770456314" /><trkpt lat="52.394821832" lon="-3.770306110" /><trkpt lat="52.394903669" lon="-3.769941330" /><trkpt lat="52.394962591" lon="-3.769544363" /><trkpt lat="52.394978958" lon="-3.769168854" /><trkpt lat="52.394916763" lon="-3.768664598" /><trkpt lat="52.394884028" lon="-3.768230081" /><trkpt lat="52.394946224" lon="-3.767892122" /><trkpt lat="52.395116443" lon="-3.767307401" /><trkpt lat="52.395355403" lon="-3.766427636" /><trkpt lat="52.395610729" lon="-3.765730262" /><trkpt lat="52.395774398" lon="-3.765386939" /><trkpt lat="52.395957708" lon="-3.765086532" /><trkpt lat="52.396072276" lon="-3.764947057" /><trkpt lat="52.396216303" lon="-3.764802217" /><trkpt lat="52.396321051" lon="-3.764716387" /><trkpt lat="52.396438891" lon="-3.764576912" /><trkpt lat="52.396789137" lon="-3.763970733" /><trkpt lat="52.397044454" lon="-3.763557673" /><trkpt lat="52.397165566" lon="-3.763230443" /><trkpt lat="52.397270311" lon="-3.762940764" /><trkpt lat="52.397316137" lon="-3.762667179" /><trkpt lat="52.397312863" lon="-3.762393594" /><trkpt lat="52.397240851" lon="-3.762007356" /><trkpt lat="52.397139380" lon="-3.761674762" /><trkpt lat="52.396939709" lon="-3.761154413" /><trkpt lat="52.396802230" lon="-3.760752082" /><trkpt lat="52.396052635" lon="-3.759523630" /><trkpt lat="52.395921700" lon="-3.759335876" /><trkpt lat="52.395483066" lon="-3.758997917" /><trkpt lat="52.395286661" lon="-3.758810163" /><trkpt lat="52.395050974" lon="-3.758670688" /><trkpt lat="52.394952770" lon="-3.758633137" /><trkpt lat="52.394815285" lon="-3.758643866" /><trkpt lat="52.394491212" lon="-3.758756518" /><trkpt lat="52.394239153" lon="-3.758799434" /><trkpt lat="52.394000187" lon="-3.758815527" /><trkpt lat="52.393541892" lon="-3.758820891" /><trkpt lat="52.393391308" lon="-3.758788705" /><trkpt lat="52.393299648" lon="-3.758729696" /><trkpt lat="52.393240724" lon="-3.758617043" /><trkpt lat="52.393224356" lon="-3.758477569" /><trkpt lat="52.393263639" lon="-3.758209348" /><trkpt lat="52.393309469" lon="-3.757962584" /><trkpt lat="52.393332384" lon="-3.757667542" /><trkpt lat="52.393371667" lon="-3.757479787" /><trkpt lat="52.393476421" lon="-3.757200837" /><trkpt lat="52.393640098" lon="-3.756830692" /><trkpt lat="52.393682654" lon="-3.756696582" /><trkpt lat="52.393702296" lon="-3.756567836" /><trkpt lat="52.393702296" lon="-3.756401539" /><trkpt lat="52.393692475" lon="-3.756203055" /><trkpt lat="52.393738305" lon="-3.755677342" /><trkpt lat="52.393790681" lon="-3.755360842" /><trkpt lat="52.393856152" lon="-3.755232096" /><trkpt lat="52.393934716" lon="-3.755183816" /><trkpt lat="52.394026375" lon="-3.755221367" /><trkpt lat="52.394209692" lon="-3.755248189" /><trkpt lat="52.394425742" lon="-3.755199909" /><trkpt lat="52.394782551" lon="-3.755140901" /><trkpt lat="52.394956044" lon="-3.755060434" /><trkpt lat="52.395106622" lon="-3.754990697" /><trkpt lat="52.395208099" lon="-3.754904866" /><trkpt lat="52.395306301" lon="-3.754781485" /><trkpt lat="52.395479792" lon="-3.754491806" /><trkpt lat="52.396029722" lon="-3.753515482" /><trkpt lat="52.396242490" lon="-3.753145337" /><trkpt lat="52.396383244" lon="-3.752968311" /><trkpt lat="52.396537091" lon="-3.752871752" /><trkpt lat="52.396743310" lon="-3.752802014" /><trkpt lat="52.397286677" lon="-3.752651811" /><trkpt lat="52.397489620" lon="-3.752641082" /><trkpt lat="52.397653283" lon="-3.752651811" /><trkpt lat="52.397780939" lon="-3.752710819" /><trkpt lat="52.397921688" lon="-3.752791286" /><trkpt lat="52.398062437" lon="-3.752812743" /><trkpt lat="52.398154087" lon="-3.752775192" /><trkpt lat="52.398239190" lon="-3.752716184" /><trkpt lat="52.398383211" lon="-3.752539158" /><trkpt lat="52.398494499" lon="-3.752464056" /><trkpt lat="52.398671251" lon="-3.752426505" /><trkpt lat="52.398900372" lon="-3.752426505" /><trkpt lat="52.399145858" lon="-3.752399683" /><trkpt lat="52.399427347" lon="-3.752372861" /><trkpt lat="52.399748111" lon="-3.752415776" /><trkpt lat="52.399951043" lon="-3.752442598" /><trkpt lat="52.400180157" lon="-3.752383590" /><trkpt lat="52.400553285" lon="-3.752174377" /><trkpt lat="52.400847857" lon="-3.752045631" /><trkpt lat="52.401050783" lon="-3.751975894" /><trkpt lat="52.401260254" lon="-3.751879334" /><trkpt lat="52.401463178" lon="-3.751820326" /><trkpt lat="52.401711923" lon="-3.751772046" /><trkpt lat="52.401905027" lon="-3.751734495" /><trkpt lat="52.402094856" lon="-3.751739860" /><trkpt lat="52.402265048" lon="-3.751825690" /><trkpt lat="52.402523606" lon="-3.751959801" /><trkpt lat="52.402729798" lon="-3.752067089" /><trkpt lat="52.402985081" lon="-3.752201200" /><trkpt lat="52.403194543" lon="-3.752362132" /><trkpt lat="52.403433460" lon="-3.752614260" /><trkpt lat="52.403574191" lon="-3.752828836" /><trkpt lat="52.403695284" lon="-3.753054142" /><trkpt lat="52.403770559" lon="-3.753322363" /><trkpt lat="52.403872015" lon="-3.753826618" /><trkpt lat="52.403937471" lon="-3.754084110" /><trkpt lat="52.404055291" lon="-3.754234314" /><trkpt lat="52.404189474" lon="-3.754287958" /><trkpt lat="52.404297475" lon="-3.754304051" /><trkpt lat="52.404392385" lon="-3.754277229" /><trkpt lat="52.404585477" lon="-3.754164577" /><trkpt lat="52.405079657" lon="-3.753960729" /><trkpt lat="52.405390562" lon="-3.753880262" /><trkpt lat="52.405714555" lon="-3.753896356" /><trkpt lat="52.405973094" lon="-3.753944635" /><trkpt lat="52.406254539" lon="-3.753971457" /><trkpt lat="52.406405079" lon="-3.753955364" /><trkpt lat="52.406627615" lon="-3.753880262" /><trkpt lat="52.406948327" lon="-3.753794432" /><trkpt lat="52.407265764" lon="-3.753724694" /><trkpt lat="52.407501386" lon="-3.753751516" /><trkpt lat="52.407638832" lon="-3.753815889" /><trkpt lat="52.407769732" lon="-3.753923178" /><trkpt lat="52.407913721" lon="-3.754089475" /><trkpt lat="52.408129705" lon="-3.754395247" /><trkpt lat="52.408254059" lon="-3.754534721" /><trkpt lat="52.408437316" lon="-3.754792213" /><trkpt lat="52.408558396" lon="-3.754888773" /><trkpt lat="52.408722018" lon="-3.754953146" /><trkpt lat="52.408973994" lon="-3.755055070" /><trkpt lat="52.409196517" lon="-3.755124807" /><trkpt lat="52.409320868" lon="-3.755183816" /><trkpt lat="52.409432129" lon="-3.755253553" /><trkpt lat="52.409582658" lon="-3.755398393" /><trkpt lat="52.409765910" lon="-3.755564690" /><trkpt lat="52.409880442" lon="-3.755677342" /><trkpt lat="52.409985157" lon="-3.755752444" /><trkpt lat="52.410102961" lon="-3.755779266" /><trkpt lat="52.410279666" lon="-3.755779266" /><trkpt lat="52.410597079" lon="-3.755736351" /><trkpt lat="52.410914489" lon="-3.755698800" /><trkpt lat="52.411218809" lon="-3.755704165" /><trkpt lat="52.411398782" lon="-3.755709529" /><trkpt lat="52.411654015" lon="-3.755618334" /><trkpt lat="52.412285547" lon="-3.755323291" /><trkpt lat="52.412521142" lon="-3.755183816" /><trkpt lat="52.412733831" lon="-3.754996061" /><trkpt lat="52.412933430" lon="-3.754851222" /><trkpt lat="52.413244280" lon="-3.754663467" /><trkpt lat="52.413777628" lon="-3.754395247" /><trkpt lat="52.413931414" lon="-3.754400611" /><trkpt lat="52.414157184" lon="-3.754427433" /><trkpt lat="52.414441849" lon="-3.754540086" /><trkpt lat="52.414759232" lon="-3.754658103" /><trkpt lat="52.414981726" lon="-3.754760027" /><trkpt lat="52.415076613" lon="-3.754861951" /><trkpt lat="52.415119148" lon="-3.755001426" /><trkpt lat="52.415138780" lon="-3.755205274" /><trkpt lat="52.415148596" lon="-3.755521774" /><trkpt lat="52.415115876" lon="-3.755929470" /><trkpt lat="52.415047165" lon="-3.756245971" /><trkpt lat="52.414945734" lon="-3.756455183" /><trkpt lat="52.414579273" lon="-3.757141829" /><trkpt lat="52.414500745" lon="-3.757340312" /><trkpt lat="52.414487657" lon="-3.757479787" /><trkpt lat="52.414510561" lon="-3.757640719" /><trkpt lat="52.414585817" lon="-3.757758737" /><trkpt lat="52.414723240" lon="-3.757876754" /><trkpt lat="52.414860663" lon="-3.757941127" /><trkpt lat="52.415125692" lon="-3.757946491" /><trkpt lat="52.415358000" lon="-3.757946491" /><trkpt lat="52.415619754" lon="-3.758048415" /><trkpt lat="52.415809525" lon="-3.758128881" /><trkpt lat="52.415907682" lon="-3.758198619" /><trkpt lat="52.416035285" lon="-3.758375645" /><trkpt lat="52.416130170" lon="-3.758568764" /><trkpt lat="52.416264317" lon="-3.758917451" /><trkpt lat="52.416375560" lon="-3.759121299" /><trkpt lat="52.416709288" lon="-3.759437799" /><trkpt lat="52.416957947" lon="-3.759689927" /><trkpt lat="52.417085548" lon="-3.759775758" /><trkpt lat="52.417311302" lon="-3.759850860" /><trkpt lat="52.417501065" lon="-3.759968877" /><trkpt lat="52.417651566" lon="-3.760161996" /><trkpt lat="52.417864231" lon="-3.760601878" /><trkpt lat="52.418063807" lon="-3.760972023" /><trkpt lat="52.418214306" lon="-3.761138320" /><trkpt lat="52.418358262" lon="-3.761170506" /><trkpt lat="52.418577466" lon="-3.761186600" /><trkpt lat="52.418943894" lon="-3.761224151" /><trkpt lat="52.419150009" lon="-3.761250973" /><trkpt lat="52.419287418" lon="-3.761240244" /><trkpt lat="52.419467358" lon="-3.761154413" /><trkpt lat="52.419621125" lon="-3.761047125" /><trkpt lat="52.419804335" lon="-3.760854006" /><trkpt lat="52.419938470" lon="-3.760655522" /><trkpt lat="52.420062791" lon="-3.760537505" /><trkpt lat="52.420183839" lon="-3.760462403" /><trkpt lat="52.420425935" lon="-3.760381937" /><trkpt lat="52.420677844" lon="-3.760317564" /><trkpt lat="52.420910123" lon="-3.760199547" /><trkpt lat="52.421289618" lon="-3.760017157" /><trkpt lat="52.421741082" lon="-3.759748936" /><trkpt lat="52.421914469" lon="-3.759657741" /><trkpt lat="52.422100941" lon="-3.759475350" /><trkpt lat="52.422359384" lon="-3.759207129" /><trkpt lat="52.422568754" lon="-3.759056926" /><trkpt lat="52.422850093" lon="-3.758906722" /><trkpt lat="52.423043104" lon="-3.758976460" /><trkpt lat="52.423154330" lon="-3.759078383" /><trkpt lat="52.423249200" lon="-3.759266138" /><trkpt lat="52.423298270" lon="-3.759518266" /><trkpt lat="52.423288456" lon="-3.759818673" /><trkpt lat="52.423229572" lon="-3.760129809" /><trkpt lat="52.423101989" lon="-3.760381937" /><trkpt lat="52.422823922" lon="-3.760907650" /><trkpt lat="52.422748680" lon="-3.761154413" /><trkpt lat="52.422732324" lon="-3.761347532" /><trkpt lat="52.422827194" lon="-3.761551380" /><trkpt lat="52.422941692" lon="-3.761621118" /><trkpt lat="52.423098717" lon="-3.761658669" /><trkpt lat="52.423301541" lon="-3.761621118" /><trkpt lat="52.423465108" lon="-3.761546016" /><trkpt lat="52.423628674" lon="-3.761417270" /><trkpt lat="52.423821682" lon="-3.761245608" /><trkpt lat="52.424040859" lon="-3.761149049" /><trkpt lat="52.424240407" lon="-3.761132956" /><trkpt lat="52.424410513" lon="-3.760998845" /><trkpt lat="52.424809605" lon="-3.760703802" /><trkpt lat="52.425254491" lon="-3.760419488" /><trkpt lat="52.425578339" lon="-3.760231733" /><trkpt lat="52.425954522" lon="-3.760119081" /><trkpt lat="52.426163875" lon="-3.760086894" /><trkpt lat="52.426297991" lon="-3.760092258" /><trkpt lat="52.426425565" lon="-3.760178089" /><trkpt lat="52.426556409" lon="-3.760317564" /><trkpt lat="52.426674169" lon="-3.760483861" /><trkpt lat="52.426795199" lon="-3.760607243" /><trkpt lat="52.426991464" lon="-3.760725260" /><trkpt lat="52.427279317" lon="-3.760794997" /><trkpt lat="52.427524645" lon="-3.760843277" /><trkpt lat="52.427717636" lon="-3.760913014" /><trkpt lat="52.427815766" lon="-3.761009574" /><trkpt lat="52.427861560" lon="-3.761149049" /><trkpt lat="52.427828850" lon="-3.761304617" /><trkpt lat="52.427737262" lon="-3.761385083" /><trkpt lat="52.427570440" lon="-3.761422634" /><trkpt lat="52.427357822" lon="-3.761390448" /><trkpt lat="52.427115764" lon="-3.761379719" /><trkpt lat="52.426670898" lon="-3.761481643" /><trkpt lat="52.426520427" lon="-3.761546016" /><trkpt lat="52.426425565" lon="-3.761605024" /><trkpt lat="52.426314347" lon="-3.761835694" /><trkpt lat="52.426216213" lon="-3.762157559" /><trkpt lat="52.426199858" lon="-3.762415051" /><trkpt lat="52.426255467" lon="-3.762656450" /><trkpt lat="52.426343787" lon="-3.762849569" /><trkpt lat="52.426461547" lon="-3.762972951" /><trkpt lat="52.426631645" lon="-3.763101697" /><trkpt lat="52.426857350" lon="-3.763267994" /><trkpt lat="52.427305486" lon="-3.763697147" /><trkpt lat="52.427655486" lon="-3.764051199" /><trkpt lat="52.427861560" lon="-3.764265776" /><trkpt lat="52.428015297" lon="-3.764362335" /><trkpt lat="52.428185389" lon="-3.764410615" /><trkpt lat="52.428332583" lon="-3.764432073" /><trkpt lat="52.428437254" lon="-3.764469624" /><trkpt lat="52.428522299" lon="-3.764550090" /><trkpt lat="52.428566457" lon="-3.764590323" /><trkpt lat="52.428600802" lon="-3.764646649" /><trkpt lat="52.428628605" lon="-3.764724433" /><trkpt lat="52.428640053" lon="-3.764807582" /><trkpt lat="52.428659679" lon="-3.765000701" /><trkpt lat="52.428633511" lon="-3.765172362" /><trkpt lat="52.428600802" lon="-3.765314519" /><trkpt lat="52.428564821" lon="-3.765403032" /><trkpt lat="52.428525570" lon="-3.765445948" /><trkpt lat="52.428484683" lon="-3.765459359" /><trkpt lat="52.428440525" lon="-3.765451312" /><trkpt lat="52.428276976" lon="-3.765392303" /><trkpt lat="52.428061091" lon="-3.765258193" /><trkpt lat="52.427871373" lon="-3.765199184" /><trkpt lat="52.427498477" lon="-3.765124083" /><trkpt lat="52.427289948" lon="-3.764989972" /><trkpt lat="52.427031534" lon="-3.764831722" /><trkpt lat="52.426877794" lon="-3.764767349" /><trkpt lat="52.426526152" lon="-3.764669448" /><trkpt lat="52.426304534" lon="-3.764593005" /><trkpt lat="52.426219484" lon="-3.764593005" /><trkpt lat="52.426144248" lon="-3.764646649" /><trkpt lat="52.426115626" lon="-3.764705658" /><trkpt lat="52.426095590" lon="-3.764818311" /><trkpt lat="52.426104177" lon="-3.764904141" /><trkpt lat="52.426164693" lon="-3.765024841" /><trkpt lat="52.426248107" lon="-3.765099943" /><trkpt lat="52.426341334" lon="-3.765154928" /></trkseg></trk></gpx>